{
"type": "FeatureCollection",
"name": "makroomraden_cykel",
"crs": { "type": "name", "properties": { "name": "urn:ogc:def:crs:OGC:1.3:CRS84" } },
"features": [
{ "type": "Feature", "properties": { "makroomrade": "Inner City", "shift30": 71.4, "shift50": 84.2, "new30": 21278, "new50": 25096, "sv": "Innerstaden" }, "geometry": { "type": "Polygon", "coordinates": [ [ [ 18.030428078045166, 59.314243703743607 ], [ 18.017960176638084, 59.316437316746956 ], [ 18.013984477011274, 59.317854212028919 ], [ 18.009928945790083, 59.320809972636489 ], [ 18.002957992184275, 59.320799949988938 ], [ 17.994829984398955, 59.317426738399874 ], [ 17.981749305844286, 59.315227822351964 ], [ 17.976899439418421, 59.316269259761746 ], [ 17.97800046491578, 59.319752655441114 ], [ 17.985081518180348, 59.324235908337009 ], [ 17.987171680514415, 59.327055863624949 ], [ 17.994483175107685, 59.332685275732672 ], [ 17.995022881551737, 59.334542045493976 ], [ 17.993621495087844, 59.336343774534484 ], [ 17.998238412311355, 59.340746008584709 ], [ 18.004831135963254, 59.341801386045034 ], [ 18.024772396711928, 59.339364618615484 ], [ 18.026015520223122, 59.34391464262638 ], [ 18.025351401276133, 59.344385914354383 ], [ 18.031028465121395, 59.347524141115045 ], [ 18.030317092044232, 59.347981175457697 ], [ 18.040708228868347, 59.351131207673994 ], [ 18.043292967113565, 59.350182375651109 ], [ 18.044947311694113, 59.352086303454868 ], [ 18.045001837877088, 59.354343506925346 ], [ 18.049003009655426, 59.357194153354499 ], [ 18.043577264531173, 59.365534893154724 ], [ 18.03713700379377, 59.369820283595978 ], [ 18.036390282600486, 59.37141522925608 ], [ 18.043055645203594, 59.372226782941965 ], [ 18.042987826749769, 59.374346925159557 ], [ 18.043764976975993, 59.375011251538936 ], [ 18.048561488474821, 59.375800735141468 ], [ 18.071112193637976, 59.37477925474262 ], [ 18.077984151309892, 59.371849377862894 ], [ 18.095484144797187, 59.369741471045955 ], [ 18.111202253062487, 59.36005300261597 ], [ 18.112561461808042, 59.357801154065044 ], [ 18.126171108237958, 59.347657547147982 ], [ 18.138137745477053, 59.344330674673628 ], [ 18.160556337286419, 59.334597014158973 ], [ 18.160356331224943, 59.32822555227245 ], [ 18.163892968733396, 59.32533252188405 ], [ 18.160316599634371, 59.320843217831403 ], [ 18.149246508001657, 59.318659255210981 ], [ 18.138572715983283, 59.320232776289991 ], [ 18.129430377035685, 59.319645551691352 ], [ 18.124370374978128, 59.318040467582719 ], [ 18.120351518452182, 59.318514579600468 ], [ 18.109327782384231, 59.317680111774521 ], [ 18.108590723825248, 59.315106983762277 ], [ 18.105401585292437, 59.313719730647605 ], [ 18.113087506871661, 59.308917112567848 ], [ 18.112971096286, 59.306058870148171 ], [ 18.114279295610508, 59.304287710960281 ], [ 18.110609204510382, 59.301962081152986 ], [ 18.111731825276472, 59.301583127062585 ], [ 18.110516208944023, 59.301779251577194 ], [ 18.110162627797035, 59.302175359028823 ], [ 18.105407474473683, 59.301104259207435 ], [ 18.09132589725353, 59.300695944343794 ], [ 18.08570694278038, 59.29967192450529 ], [ 18.080876341975468, 59.301856700312172 ], [ 18.079797734771187, 59.303478742732253 ], [ 18.073095022736233, 59.302600613620498 ], [ 18.053933916752669, 59.305472098531162 ], [ 18.048655222624351, 59.308500575003968 ], [ 18.042442922419177, 59.309191620836494 ], [ 18.030428078045166, 59.314243703743607 ] ] ] } },
{ "type": "Feature", "properties": { "makroomrade": "Northern County", "shift30": 22.9, "shift50": 34.6, "new30": 24234, "new50": 36572, "sv": "Norra lanet" }, "geometry": { "type": "Polygon", "coordinates": [ [ [ 17.832491868319075, 59.261677348984641 ], [ 17.792015240432466, 59.2633315094496 ], [ 17.784981530612399, 59.260248748779432 ], [ 17.777690393358949, 59.259425791645739 ], [ 17.769082513714967, 59.26176282724763 ], [ 17.763654334509368, 59.266600043516256 ], [ 17.75351813647157, 59.266754679057129 ], [ 17.738387963677514, 59.268519969574932 ], [ 17.734212538442097, 59.268291841396788 ], [ 17.727189818896967, 59.264390898718418 ], [ 17.72192252975648, 59.265049009230651 ], [ 17.699326269697014, 59.271177769083948 ], [ 17.675531967115408, 59.273814903660274 ], [ 17.668018141993759, 59.273587846385958 ], [ 17.66185685040519, 59.275213031499163 ], [ 17.640703014593267, 59.282238691320579 ], [ 17.625656976340384, 59.286101416981502 ], [ 17.597559701191045, 59.298119076969058 ], [ 17.568274917094996, 59.29182664392507 ], [ 17.515483721497286, 59.295272912377158 ], [ 17.498064456268086, 59.30511842434511 ], [ 17.475729489268463, 59.304660742719918 ], [ 17.467987122047148, 59.307658452978529 ], [ 17.473117581828763, 59.323875378928008 ], [ 17.469165163875548, 59.326538087952287 ], [ 17.469227962189517, 59.330169723699143 ], [ 17.463323593314811, 59.33833469255007 ], [ 17.437898219933029, 59.33948473772346 ], [ 17.410916532021364, 59.366220791410512 ], [ 17.415095330296207, 59.383465231031927 ], [ 17.432037479311123, 59.397057126205809 ], [ 17.426089650603387, 59.413859021600558 ], [ 17.426211018928221, 59.427871829270778 ], [ 17.435714910933704, 59.441740550760969 ], [ 17.453108723868759, 59.446531062682766 ], [ 17.479734123589704, 59.443704242285932 ], [ 17.489065532428782, 59.440770022813147 ], [ 17.504349666746528, 59.440539264805871 ], [ 17.502427180378795, 59.459263778724342 ], [ 17.464817633500886, 59.507397457851759 ], [ 17.48814887777824, 59.5130579072462 ], [ 17.509733123666578, 59.515635110449004 ], [ 17.516392925013292, 59.517964118641508 ], [ 17.526918174155046, 59.531548743056071 ], [ 17.541154572064375, 59.537448821366148 ], [ 17.545221531220598, 59.544268119363586 ], [ 17.564363981309654, 59.541639686391733 ], [ 17.566193601654223, 59.540045981656881 ], [ 17.568563746500061, 59.540399449375379 ], [ 17.570015186569083, 59.542186025919435 ], [ 17.581077271578014, 59.549744723165993 ], [ 17.580246417297666, 59.551908108146463 ], [ 17.580202005765464, 59.557178198241758 ], [ 17.576494996164016, 59.558846527740904 ], [ 17.578417292246531, 59.559274583003166 ], [ 17.551386850212271, 59.572625298737663 ], [ 17.550749282736877, 59.574759985323816 ], [ 17.547032624996898, 59.575979849872532 ], [ 17.543494752678154, 59.579978773991151 ], [ 17.52796145920577, 59.589089280340126 ], [ 17.524741115330468, 59.595199072250644 ], [ 17.519794835802713, 59.601352580678892 ], [ 17.521803927232568, 59.605535287113568 ], [ 17.520325743233094, 59.608590842322435 ], [ 17.515192264867075, 59.609669379073097 ], [ 17.513564472497102, 59.611551050942339 ], [ 17.516142193437084, 59.623601202603965 ], [ 17.527086913526592, 59.627785648006871 ], [ 17.527957216977622, 59.629207638628692 ], [ 17.531886816910713, 59.63055571918364 ], [ 17.539613757851534, 59.635257871666404 ], [ 17.545286317451332, 59.634736430313417 ], [ 17.560445545921986, 59.637720211932582 ], [ 17.571614996458763, 59.63783683096343 ], [ 17.578176877892112, 59.640286749021485 ], [ 17.587062099270081, 59.646155655414937 ], [ 17.590453205182314, 59.649756202369353 ], [ 17.584234838082168, 59.651120482555989 ], [ 17.574483051499318, 59.655857966128401 ], [ 17.573576226927209, 59.658140935055997 ], [ 17.575748198524277, 59.662132616645927 ], [ 17.579430150457195, 59.664035998507565 ], [ 17.59365004061333, 59.664135001454042 ], [ 17.599295947151983, 59.665267268382571 ], [ 17.609828410092149, 59.671419611654294 ], [ 17.617061527198366, 59.673994727283976 ], [ 17.626775189820219, 59.674853099453927 ], [ 17.631421396318032, 59.681760579455734 ], [ 17.631694040658893, 59.684460374923177 ], [ 17.630268711626115, 59.687154073502285 ], [ 17.629536249168858, 59.694211847903347 ], [ 17.655665172723449, 59.692797085355799 ], [ 17.659443885094952, 59.69395995459314 ], [ 17.673077874300169, 59.691145813061617 ], [ 17.678355545303464, 59.692479257657304 ], [ 17.69835932400353, 59.688295684116859 ], [ 17.700248254966773, 59.685816202083871 ], [ 17.703260014099921, 59.686361851702827 ], [ 17.704490482588678, 59.684476694657334 ], [ 17.722296926554858, 59.684050844931043 ], [ 17.725744864346051, 59.6696070198253 ], [ 17.728362461991154, 59.663519944643085 ], [ 17.739971189536583, 59.666216090059329 ], [ 17.745048243672514, 59.66474583243015 ], [ 17.752689285526241, 59.660507722314932 ], [ 17.756444462706902, 59.662145565006149 ], [ 17.759737474731473, 59.664743698809417 ], [ 17.759551915272489, 59.667322132913704 ], [ 17.764295900018404, 59.672975556117656 ], [ 17.76395770267716, 59.675411415943053 ], [ 17.76896735236317, 59.679038452850939 ], [ 17.772430093188749, 59.686283680359743 ], [ 17.775219031405673, 59.687350721043799 ], [ 17.778344746896295, 59.690628134485394 ], [ 17.781709848016515, 59.689936808671462 ], [ 17.781818965772768, 59.687756553912891 ], [ 17.785597294572288, 59.686125708824967 ], [ 17.788157494518927, 59.687936739880499 ], [ 17.797076777440346, 59.686260684953233 ], [ 17.79990403960257, 59.68301251943798 ], [ 17.805576416289348, 59.68324128522729 ], [ 17.812653008990313, 59.680875632821049 ], [ 17.816012184107837, 59.677978242968869 ], [ 17.825252483342144, 59.679813847622022 ], [ 17.827793375458047, 59.682010015428702 ], [ 17.832932138303075, 59.680682060822804 ], [ 17.832543493896743, 59.682070463755871 ], [ 17.834273314248659, 59.683455861054739 ], [ 17.836568755202801, 59.688300325441823 ], [ 17.836123195269998, 59.689093030575499 ], [ 17.832718853002081, 59.689192103603233 ], [ 17.832569634283146, 59.689890811358275 ], [ 17.836572937528871, 59.692174173191873 ], [ 17.841793548904747, 59.693667928670848 ], [ 17.850645579307717, 59.697770068948181 ], [ 17.868288291085619, 59.699730272456378 ], [ 17.894025349264876, 59.708148347775342 ], [ 17.8947560600263, 59.710581845714081 ], [ 17.901835140604152, 59.709595948578809 ], [ 17.904119374813167, 59.712036182480915 ], [ 17.909834559397463, 59.709678426580915 ], [ 17.938226649327177, 59.71368713013949 ], [ 17.942772762604413, 59.713326081071664 ], [ 17.946559710055642, 59.711061839818591 ], [ 17.946697345915705, 59.713473111724419 ], [ 17.954082850502157, 59.718633407421223 ], [ 17.962834376282057, 59.719921578700706 ], [ 17.968643399227645, 59.722763564916228 ], [ 17.975524557973802, 59.721998194463161 ], [ 17.983926806858459, 59.729219879090685 ], [ 17.98349124098009, 59.72848843684406 ], [ 17.988016102955356, 59.727111964304626 ], [ 17.988236650424945, 59.729271681094176 ], [ 17.984181455783016, 59.729294677661059 ], [ 17.990792864239019, 59.731236351511022 ], [ 17.991626206014015, 59.730091959521353 ], [ 17.999030665203232, 59.728642348388199 ], [ 18.00326340801044, 59.731895385569764 ], [ 18.001199666543275, 59.732170060016728 ], [ 18.002123711044923, 59.734183328388731 ], [ 17.998987163200635, 59.734415467464189 ], [ 18.000453823816908, 59.735311783475218 ], [ 18.000924130674136, 59.736944183683839 ], [ 18.005299505777561, 59.736200669897869 ], [ 18.005997964266367, 59.73829813736468 ], [ 18.010343372158523, 59.738038029321132 ], [ 18.012106098251468, 59.741059941888764 ], [ 18.017819087535621, 59.740307599537729 ], [ 18.017787001663276, 59.740998210275329 ], [ 18.012496983451204, 59.741517776053044 ], [ 18.012860171058538, 59.742616616625497 ], [ 18.017577946823753, 59.742504767325386 ], [ 18.017791716247338, 59.741589063488433 ], [ 18.02140102483833, 59.741735144781181 ], [ 18.020346404765728, 59.745327375125221 ], [ 18.024857550577085, 59.744395747164063 ], [ 18.027770556010928, 59.740384645945753 ], [ 18.040352480299504, 59.737639174603011 ], [ 18.043494896839626, 59.733906444172995 ], [ 18.04611995235696, 59.736857812898521 ], [ 18.051754308226357, 59.738613613869241 ], [ 18.052143940865761, 59.740725246325042 ], [ 18.050886196275805, 59.743610510930168 ], [ 18.057633291192552, 59.743153038383937 ], [ 18.062560313109699, 59.741877539873641 ], [ 18.07076471455121, 59.741948956345027 ], [ 18.070866832709779, 59.740798667419504 ], [ 18.072280748853043, 59.740450420263699 ], [ 18.081413512856489, 59.739695351416309 ], [ 18.085167408721883, 59.738556664181111 ], [ 18.088227609258006, 59.743675704403614 ], [ 18.090213119177331, 59.74548665446229 ], [ 18.091180246263086, 59.747688915617779 ], [ 18.0909541500484, 59.750071737258565 ], [ 18.107768534118605, 59.757767626523432 ], [ 18.10887963084458, 59.759107119779948 ], [ 18.108365000854558, 59.760906273678529 ], [ 18.104790051701229, 59.762299661960796 ], [ 18.104359306626915, 59.766989298401583 ], [ 18.10810568543824, 59.770159567079887 ], [ 18.110076804608401, 59.773022647798676 ], [ 18.1106818194915, 59.776471400752328 ], [ 18.113748169491835, 59.778537025615208 ], [ 18.116937742147481, 59.782432269073979 ], [ 18.116830892890921, 59.788422476433418 ], [ 18.115551752002609, 59.789493100941058 ], [ 18.115071257027896, 59.791228574944853 ], [ 18.119609271005569, 59.795854127316829 ], [ 18.117937297853722, 59.797204514917972 ], [ 18.119625752781154, 59.804803429292271 ], [ 18.130687537532712, 59.819079506382771 ], [ 18.152966101034615, 59.822510809540049 ], [ 18.197700848500027, 59.831542946929098 ], [ 18.205600211293795, 59.829432417646103 ], [ 18.219676318183382, 59.828181084983797 ], [ 18.237519102612463, 59.833315638175861 ], [ 18.248713266761978, 59.833326741507115 ], [ 18.24789855525497, 59.834856310939038 ], [ 18.254063929000186, 59.835661241259587 ], [ 18.257423701388021, 59.835111576610622 ], [ 18.259576712345552, 59.835917276031999 ], [ 18.264458264932657, 59.845929436007381 ], [ 18.269073851284087, 59.847419605851343 ], [ 18.270156681933457, 59.848930549244493 ], [ 18.273413192055568, 59.850585621151076 ], [ 18.314075613216414, 59.85660196423688 ], [ 18.312140305827782, 59.858570180022561 ], [ 18.317127958952206, 59.859381768927619 ], [ 18.317321738376251, 59.858588259907798 ], [ 18.319105033252704, 59.859746930521581 ], [ 18.337305829197504, 59.863421517194638 ], [ 18.353886092923677, 59.862456792359318 ], [ 18.364739110526656, 59.864513465893083 ], [ 18.363135664848599, 59.872727930371056 ], [ 18.385850188813549, 59.880588181671605 ], [ 18.390280147399569, 59.883718515997629 ], [ 18.392671475527411, 59.889841924493659 ], [ 18.403213095291125, 59.892875049028689 ], [ 18.404504739957641, 59.894389402511273 ], [ 18.403885588632608, 59.899230157571409 ], [ 18.398045459437885, 59.907122575485104 ], [ 18.397602427667017, 59.910220587087039 ], [ 18.394371470915662, 59.912898794189182 ], [ 18.393778314227824, 59.919231082334115 ], [ 18.387299267764725, 59.922803566436116 ], [ 18.378043386918357, 59.930966729969384 ], [ 18.377154905430835, 59.936397580253754 ], [ 18.382178952737238, 59.940741257894977 ], [ 18.383890860332883, 59.945675455044395 ], [ 18.388777258910501, 59.95002837952714 ], [ 18.390282926714121, 59.953614260909092 ], [ 18.394901858675997, 59.955485106625318 ], [ 18.403351548270795, 59.956874441299981 ], [ 18.423373627726207, 59.956325186957478 ], [ 18.429290474922293, 59.964994638837425 ], [ 18.427217207685718, 59.981856374589263 ], [ 18.445007629548194, 59.990264428705586 ], [ 18.446058949687433, 59.989858222650327 ], [ 18.447529433730654, 59.990575488352256 ], [ 18.451245000185452, 59.994214900152528 ], [ 18.458770645374383, 59.994983132313813 ], [ 18.459647364104413, 59.993655243418097 ], [ 18.462162648272223, 59.993687741937428 ], [ 18.471169217958092, 59.999482432479681 ], [ 18.473358310803526, 60.004297668395679 ], [ 18.471131067402858, 60.004578313521399 ], [ 18.467915699333496, 60.007182264203649 ], [ 18.464727557567393, 60.00741795885201 ], [ 18.460029052403872, 60.009502359503692 ], [ 18.454856994882388, 60.009831688858668 ], [ 18.450221113709148, 60.011343313819502 ], [ 18.448928331970805, 60.011975280159319 ], [ 18.448467404233867, 60.015763598703295 ], [ 18.444228524938826, 60.017646325314864 ], [ 18.436422909559951, 60.018693433434358 ], [ 18.417103510931884, 60.025580588475549 ], [ 18.40152004665336, 60.034302384541903 ], [ 18.39496008306228, 60.035891710131644 ], [ 18.395313044361579, 60.036570638255881 ], [ 18.392442703758199, 60.037818162294641 ], [ 18.392620287227722, 60.038480129673253 ], [ 18.388480887746748, 60.041269420100662 ], [ 18.412468450076567, 60.047335113601299 ], [ 18.431240751549034, 60.056427746549872 ], [ 18.444790965872855, 60.058609154818562 ], [ 18.450774355731237, 60.077193022923716 ], [ 18.462940849169254, 60.080844663932893 ], [ 18.475714707736245, 60.092230622431551 ], [ 18.49208827080102, 60.103950964573073 ], [ 18.494524547552864, 60.117637503690283 ], [ 18.492891412169339, 60.117716592967604 ], [ 18.492251099031485, 60.119440873499663 ], [ 18.495018587924012, 60.120023361070466 ], [ 18.496825262903844, 60.127307933636139 ], [ 18.496217744524742, 60.132384561092003 ], [ 18.493416601137849, 60.138252162642239 ], [ 18.494477542542963, 60.139214816154464 ], [ 18.500524184475687, 60.140095250746732 ], [ 18.501769980326415, 60.142705790469932 ], [ 18.503975121865817, 60.143753909948153 ], [ 18.506253966754748, 60.143716906407107 ], [ 18.506097860841791, 60.144840489116248 ], [ 18.512769670797351, 60.145777858895478 ], [ 18.512125974811667, 60.14653258719796 ], [ 18.51103581381096, 60.155860870747048 ], [ 18.514214040343006, 60.160670519577891 ], [ 18.593170492293975, 60.1633696780222 ], [ 18.640342321965541, 60.161039621288033 ], [ 18.676799999400952, 60.155090185541255 ], [ 18.677024362343833, 60.167003191819603 ], [ 18.693092735526402, 60.165674971986761 ], [ 18.692986600049853, 60.176096946697577 ], [ 18.681691093885529, 60.181673554588009 ], [ 18.673580994566194, 60.188421152826699 ], [ 18.672731958176069, 60.194624279340267 ], [ 18.695998628151372, 60.200713932899028 ], [ 18.696647580162171, 60.206874854430403 ], [ 18.693175552631455, 60.214389241349394 ], [ 18.678595356524969, 60.231265355247778 ], [ 18.683608684690686, 60.239329478485992 ], [ 18.718191928181444, 60.247259449073489 ], [ 18.905853406097478, 60.278036204206458 ], [ 18.939246567066917, 60.281295541623727 ], [ 18.929434150345063, 60.216855203890567 ], [ 18.830521335235225, 60.148417630644481 ], [ 18.82110504626964, 60.125124065581389 ], [ 18.84562217327365, 60.110015120929674 ], [ 18.882129229873435, 60.031246497281124 ], [ 18.970831919591802, 59.933741157843421 ], [ 19.023335053582748, 59.912120809768481 ], [ 19.154664701862941, 59.875700903563065 ], [ 19.203335956725745, 59.820612002901441 ], [ 19.366872191904758, 59.790889348838924 ], [ 19.478211935531437, 59.735939887436125 ], [ 19.42807741665645, 59.680994100099362 ], [ 19.529625381235721, 59.645384592927883 ], [ 19.682353583148348, 59.642917967589376 ], [ 19.66097358094575, 59.57959217498572 ], [ 19.592763101124255, 59.565140837453079 ], [ 19.55157642711568, 59.50998899088701 ], [ 19.357188160742954, 59.479957955853116 ], [ 19.358668445932384, 59.484603400518992 ], [ 19.289789402623594, 59.50352905812985 ], [ 19.265162271098831, 59.502925622537028 ], [ 19.243069980972599, 59.495961908573427 ], [ 19.205595405476132, 59.469451343889695 ], [ 19.067117232825453, 59.496159948047961 ], [ 19.027312914785, 59.514125544033043 ], [ 19.002011687967865, 59.515734766789663 ], [ 18.97337961404288, 59.49693864223196 ], [ 18.937250046171236, 59.482628310003321 ], [ 18.913232954642382, 59.465326106623891 ], [ 18.887257163506781, 59.458784876744048 ], [ 18.873603845115312, 59.45964578497135 ], [ 18.867628574248752, 59.473565449285346 ], [ 18.839497128861648, 59.471302499196277 ], [ 18.82852127281922, 59.464433881856749 ], [ 18.793333946193766, 59.455084594029287 ], [ 18.76728474718718, 59.450755963369048 ], [ 18.750864355277756, 59.455456751226485 ], [ 18.74351812929287, 59.455379838039825 ], [ 18.74168161557791, 59.456175593691093 ], [ 18.740782318208247, 59.458827600397719 ], [ 18.73574489000622, 59.46097061342612 ], [ 18.731748743043003, 59.464347724303266 ], [ 18.726610769947481, 59.465136408621881 ], [ 18.710433342746349, 59.46335056709578 ], [ 18.705517270584874, 59.464878950689553 ], [ 18.70314428431492, 59.467877669687496 ], [ 18.697487441433733, 59.467562975024642 ], [ 18.687332187084351, 59.470589808116166 ], [ 18.672554460778343, 59.462202628269985 ], [ 18.635882064267673, 59.45434424784748 ], [ 18.638237697802445, 59.444978985889605 ], [ 18.630765968760393, 59.437452511824347 ], [ 18.627165146927286, 59.429797062302413 ], [ 18.62197839128509, 59.426660339133505 ], [ 18.621979217864872, 59.423553639214873 ], [ 18.624381998159656, 59.416276776422443 ], [ 18.619852514775324, 59.410229846538108 ], [ 18.622449566135618, 59.407285050756307 ], [ 18.622517166953134, 59.405287090221165 ], [ 18.618827568169873, 59.403863213186135 ], [ 18.611697420869259, 59.404548562490113 ], [ 18.597165025998933, 59.401876749412494 ], [ 18.592782566831442, 59.400365056688081 ], [ 18.575731046970855, 59.411106722874827 ], [ 18.565018678809505, 59.420473391609349 ], [ 18.557686371999594, 59.420465032211716 ], [ 18.552150226062082, 59.421919884894812 ], [ 18.549579783959288, 59.420473199908706 ], [ 18.53280741036361, 59.420064723574974 ], [ 18.512529809022297, 59.446680887512713 ], [ 18.492956882742863, 59.467113712536765 ], [ 18.475062052750253, 59.463348917226639 ], [ 18.466981154723943, 59.457007856861559 ], [ 18.447810037845432, 59.459645908210547 ], [ 18.435681368287668, 59.45829313547754 ], [ 18.43294416645481, 59.450446521617508 ], [ 18.411768934464209, 59.443694099301872 ], [ 18.374606115799654, 59.439972909881767 ], [ 18.389473444172559, 59.426671819009101 ], [ 18.39747651652878, 59.423794740831582 ], [ 18.396747972959492, 59.420885047801299 ], [ 18.415840836530204, 59.412793771737235 ], [ 18.44817567693077, 59.394021126567189 ], [ 18.438860917189992, 59.386384495855367 ], [ 18.450404970010169, 59.36887393326522 ], [ 18.445754545897987, 59.359130141005593 ], [ 18.440578463202122, 59.352126935225712 ], [ 18.406778570398334, 59.362002322251456 ], [ 18.376830254486606, 59.36480321912893 ], [ 18.371461057518093, 59.361580581628644 ], [ 18.359335181492298, 59.363279301628587 ], [ 18.355514218371432, 59.366432452530972 ], [ 18.336564328265794, 59.366705376120919 ], [ 18.324771406969575, 59.36900052177208 ], [ 18.298735692585897, 59.368677727507453 ], [ 18.303516301887825, 59.372439971704345 ], [ 18.245084885826937, 59.381234072504526 ], [ 18.207701648992003, 59.383928503794102 ], [ 18.198434036122435, 59.38518418671319 ], [ 18.195593207249818, 59.386912936449491 ], [ 18.185578000467718, 59.388329685602535 ], [ 18.181083027815408, 59.38799809590823 ], [ 18.157630895515727, 59.389914853369191 ], [ 18.157647892040792, 59.393126792453543 ], [ 18.15508992104435, 59.395530517593585 ], [ 18.148945931468692, 59.396638524962214 ], [ 18.142940504741098, 59.403993243658903 ], [ 18.121593976054964, 59.405624602004735 ], [ 18.122493354956081, 59.40998311190183 ], [ 18.12177576398129, 59.412183829919677 ], [ 18.094471310082763, 59.415465740315561 ], [ 18.087309072481645, 59.420895888632828 ], [ 18.082674136045306, 59.423414138457083 ], [ 18.080457415335452, 59.422929403386213 ], [ 18.052845491594844, 59.424003807985954 ], [ 18.052798931112036, 59.437455048244303 ], [ 18.042048702363168, 59.43905542834279 ], [ 18.02545173238309, 59.436840720169123 ], [ 18.012924883555105, 59.439173698626902 ], [ 18.00698482350921, 59.441384414866739 ], [ 17.998447154948011, 59.43887004073968 ], [ 18.007816741793867, 59.429206494879267 ], [ 18.01083836106238, 59.427346884592723 ], [ 18.001616158911595, 59.426157192035504 ], [ 17.997235057883223, 59.421252278589222 ], [ 17.991200781923954, 59.417842293296971 ], [ 17.994883340319177, 59.412656243784291 ], [ 17.997273438625946, 59.410651250258965 ], [ 17.997674416148712, 59.407760898903469 ], [ 18.000024992009021, 59.403642765369867 ], [ 18.005864703895444, 59.399803226673697 ], [ 17.992698977669658, 59.398138917461452 ], [ 17.98523751679479, 59.398173455416305 ], [ 17.987317723760263, 59.396387931693745 ], [ 17.981753976742731, 59.395114541794733 ], [ 17.972672935791035, 59.4004485413789 ], [ 17.976151422306732, 59.399527133896598 ], [ 17.969064648544016, 59.403713433833403 ], [ 17.952887599574666, 59.410429133088513 ], [ 17.92968527711631, 59.418907165092833 ], [ 17.928562563662958, 59.418179790468173 ], [ 17.924166144412535, 59.420291866161115 ], [ 17.919885250519254, 59.423578708810751 ], [ 17.91995590634788, 59.424420533299319 ], [ 17.915088234977404, 59.4268746890274 ], [ 17.919802084903395, 59.433930061464309 ], [ 17.91623067474675, 59.435370334395152 ], [ 17.912527914762705, 59.435789191911411 ], [ 17.910568187610284, 59.437282083422105 ], [ 17.907337799031311, 59.437962104227985 ], [ 17.904395911308896, 59.437617941123506 ], [ 17.902838491428689, 59.440086025679697 ], [ 17.898745807364474, 59.440056592405199 ], [ 17.89166739743732, 59.435101857796411 ], [ 17.890937755309256, 59.4329644393422 ], [ 17.888449221554779, 59.430196489531937 ], [ 17.893838369575366, 59.42662356478062 ], [ 17.891185220273055, 59.425416747583384 ], [ 17.891911396156555, 59.423672269461541 ], [ 17.893280580836354, 59.423901186974746 ], [ 17.894537063473141, 59.422686384866381 ], [ 17.895243761493631, 59.420348948097612 ], [ 17.898899521827218, 59.41572017974751 ], [ 17.896985018581958, 59.414315509848862 ], [ 17.896014132974283, 59.41156610893443 ], [ 17.888021810868146, 59.406153866819977 ], [ 17.88365189401906, 59.404649554569154 ], [ 17.874839017636198, 59.403485382542939 ], [ 17.871912534561016, 59.402037621234449 ], [ 17.87748994338985, 59.39851130957485 ], [ 17.87214022013621, 59.39559462191059 ], [ 17.869374202119793, 59.396419119534031 ], [ 17.867426460123941, 59.39339879197405 ], [ 17.861382266048341, 59.389743849225994 ], [ 17.855212747171283, 59.389176916997776 ], [ 17.846621928960932, 59.385716213888898 ], [ 17.839741111248657, 59.381282998842231 ], [ 17.824907642354226, 59.381712032022612 ], [ 17.82725486427243, 59.391507845495987 ], [ 17.817154124100622, 59.399175459539357 ], [ 17.811268608723935, 59.39568049048728 ], [ 17.798688110933657, 59.390507004249059 ], [ 17.779470593225327, 59.398429347986173 ], [ 17.760691419743875, 59.391767307087946 ], [ 17.762206626083355, 59.388812774459602 ], [ 17.7732489864608, 59.384614783798121 ], [ 17.788042210379373, 59.370855020989353 ], [ 17.787379539675005, 59.367139728361877 ], [ 17.796286375401756, 59.355118923072403 ], [ 17.816208192092635, 59.358176716912048 ], [ 17.825032098407384, 59.354588250480546 ], [ 17.82985886868256, 59.350891617784193 ], [ 17.839395128908386, 59.352531299195157 ], [ 17.850819952722823, 59.348307476795434 ], [ 17.870127677642845, 59.339346988903969 ], [ 17.874605254381141, 59.338648954637939 ], [ 17.878245991849393, 59.336582520450058 ], [ 17.886302894403368, 59.334057868262938 ], [ 17.891449350818419, 59.334465422464106 ], [ 17.896080809501996, 59.333168313190193 ], [ 17.906815236955786, 59.327792027998711 ], [ 17.941255137117679, 59.317629700025364 ], [ 17.954826669687204, 59.310700532146051 ], [ 17.953036418339263, 59.30875790609214 ], [ 17.947473589510384, 59.306367069447973 ], [ 17.93814329963968, 59.305606525664423 ], [ 17.937138012037011, 59.303783077558585 ], [ 17.933339414679125, 59.302916326257666 ], [ 17.928177457894598, 59.303170986014216 ], [ 17.920248107735006, 59.300945342416895 ], [ 17.909406514174179, 59.299333897276497 ], [ 17.905074992733731, 59.295965174026939 ], [ 17.893195833548159, 59.293137223593277 ], [ 17.89001643100325, 59.291375062058542 ], [ 17.886229430173358, 59.287146924681075 ], [ 17.865301421721796, 59.286221719202302 ], [ 17.867978064700107, 59.279572873115683 ], [ 17.85583482482475, 59.267265080728762 ], [ 17.848055060339242, 59.267387291105486 ], [ 17.840931312991621, 59.263962132731422 ], [ 17.832491868319075, 59.261677348984641 ] ] ] } },
{ "type": "Feature", "properties": { "makroomrade": "Northern suburbs", "shift30": 37.1, "shift50": 66.2, "new30": 22286, "new50": 39801, "sv": "Norra fororter" }, "geometry": { "type": "Polygon", "coordinates": [ [ [ 17.89663073851473, 59.332867515888118 ], [ 17.891449334591229, 59.334465464139221 ], [ 17.886302872126709, 59.334057852788206 ], [ 17.878245997335295, 59.336582527073475 ], [ 17.874605209697563, 59.338648968802396 ], [ 17.870127740930144, 59.339346936762226 ], [ 17.850820015716504, 59.348307435280695 ], [ 17.839395136038931, 59.352531323752054 ], [ 17.82985880491092, 59.350891602450154 ], [ 17.82503212256707, 59.354588263165148 ], [ 17.816208592322887, 59.358176422563325 ], [ 17.79628637342169, 59.355118914277227 ], [ 17.787379493531084, 59.367139699638528 ], [ 17.788042216525383, 59.370855020812598 ], [ 17.773249033790734, 59.384614753181054 ], [ 17.762206625945559, 59.38881274069692 ], [ 17.760691398424406, 59.391767330455572 ], [ 17.779471288178986, 59.398429598970345 ], [ 17.798687261698387, 59.390506243073403 ], [ 17.811264517301293, 59.39567987677151 ], [ 17.817152729377959, 59.399174106377821 ], [ 17.827255042090474, 59.391508025941718 ], [ 17.824913220194844, 59.381716766190053 ], [ 17.839741953397546, 59.381283111625493 ], [ 17.846621987149131, 59.385716212409768 ], [ 17.855214326694359, 59.389177299296634 ], [ 17.861384472068508, 59.389744509234603 ], [ 17.867425336682192, 59.393398403991483 ], [ 17.869372950482237, 59.39641947188742 ], [ 17.872140268486397, 59.395594747783839 ], [ 17.87748858848445, 59.398510590855658 ], [ 17.871912292359873, 59.402038172317539 ], [ 17.874839050063787, 59.403485356576546 ], [ 17.883651844437324, 59.404649574823374 ], [ 17.888021857814721, 59.406153832731938 ], [ 17.896014159530754, 59.411566096175704 ], [ 17.896985057525974, 59.414315527531976 ], [ 17.898898261937575, 59.415720170814417 ], [ 17.895243811857945, 59.420348952797376 ], [ 17.894537020571857, 59.422686422971502 ], [ 17.89328054470403, 59.423901155560699 ], [ 17.891911319916971, 59.423672261144716 ], [ 17.891185231859833, 59.425416772814508 ], [ 17.89383837003049, 59.426623550710239 ], [ 17.888449229398596, 59.430196535795382 ], [ 17.893649830112725, 59.436935516405342 ], [ 17.898745786327922, 59.440056602106999 ], [ 17.901141721015311, 59.440283880183806 ], [ 17.90327197576266, 59.439757505209634 ], [ 17.904395956084606, 59.437617934108808 ], [ 17.907337852508434, 59.437962088996706 ], [ 17.910568251112004, 59.437282048911811 ], [ 17.912527956859119, 59.43578920607294 ], [ 17.916230661128147, 59.435370313792255 ], [ 17.919802101057353, 59.433930037695767 ], [ 17.915088279442916, 59.42687466444189 ], [ 17.919955943617197, 59.424420527361299 ], [ 17.919885247926917, 59.423578676491736 ], [ 17.924166094185118, 59.420291840691057 ], [ 17.928562535584113, 59.418179768046215 ], [ 17.929685247516673, 59.418907163965528 ], [ 17.952887572404336, 59.410429117731972 ], [ 17.968911106293731, 59.403777263970269 ], [ 17.976151429839728, 59.399527147670156 ], [ 17.971448576467044, 59.401261712801698 ], [ 17.981753976742731, 59.395114541794733 ], [ 17.987317723760263, 59.396387931693745 ], [ 17.98523751679479, 59.398173455416305 ], [ 17.992698977669658, 59.398138917461452 ], [ 18.005864703895444, 59.399803226673697 ], [ 18.000024992009021, 59.403642765369867 ], [ 17.997674416148712, 59.407760898903469 ], [ 17.997273438625946, 59.410651250258965 ], [ 17.994883340319177, 59.412656243784291 ], [ 17.991200781923954, 59.417842293296971 ], [ 17.997235057883223, 59.421252278589222 ], [ 18.001616158911595, 59.426157192035504 ], [ 18.01083836106238, 59.427346884592723 ], [ 18.007816741793867, 59.429206494879267 ], [ 17.998447154948011, 59.43887004073968 ], [ 18.00698482350921, 59.441384414866739 ], [ 18.012924883555105, 59.439173698626902 ], [ 18.02545173238309, 59.436840720169123 ], [ 18.042048702363168, 59.43905542834279 ], [ 18.052798931112036, 59.437455048244303 ], [ 18.052845491594844, 59.424003807985954 ], [ 18.080457415335452, 59.422929403386213 ], [ 18.082674136045306, 59.423414138457083 ], [ 18.087309072481645, 59.420895888632828 ], [ 18.094471310082763, 59.415465740315561 ], [ 18.12177576398129, 59.412183829919677 ], [ 18.122493354956081, 59.40998311190183 ], [ 18.121593976054964, 59.405624602004735 ], [ 18.142940504741098, 59.403993243658903 ], [ 18.148945931468692, 59.396638524962214 ], [ 18.15508992104435, 59.395530517593585 ], [ 18.157647892040792, 59.393126792453543 ], [ 18.157630895515727, 59.389914853369191 ], [ 18.181083027815408, 59.38799809590823 ], [ 18.185578000467718, 59.388329685602535 ], [ 18.195593207249818, 59.386912936449491 ], [ 18.198434036122435, 59.38518418671319 ], [ 18.207701648992003, 59.383928503794102 ], [ 18.245084885826937, 59.381234072504526 ], [ 18.303516301887825, 59.372439971704345 ], [ 18.296212240428467, 59.366687680359362 ], [ 18.262058224230252, 59.360703364493595 ], [ 18.209854456493023, 59.337274320464758 ], [ 18.2049732794455, 59.33605008306445 ], [ 18.189364614154041, 59.334342957470774 ], [ 18.186916346175728, 59.330391256942811 ], [ 18.187175200079558, 59.329165651727607 ], [ 18.18275076013191, 59.326473505313828 ], [ 18.175484096829948, 59.324493701039181 ], [ 18.163892914221137, 59.325332559851297 ], [ 18.160356367219681, 59.32822559591304 ], [ 18.160556276610176, 59.334596978420571 ], [ 18.138137747980565, 59.344330624288503 ], [ 18.126171101917226, 59.347657537825633 ], [ 18.112561414999927, 59.357801158688268 ], [ 18.111202243353848, 59.36005301657783 ], [ 18.095484088920259, 59.369741518443377 ], [ 18.077984121617277, 59.371849371984588 ], [ 18.07111090543718, 59.374779353499058 ], [ 18.058741370592394, 59.375496866873164 ], [ 18.048561460546217, 59.375800749815681 ], [ 18.0437650124885, 59.37501125111357 ], [ 18.042987862077748, 59.374346938590598 ], [ 18.043055682848525, 59.372226747069007 ], [ 18.036390353001153, 59.371415196375693 ], [ 18.037136960435539, 59.369820323462271 ], [ 18.043577250570138, 59.365534932996908 ], [ 18.048995095030804, 59.357218182313495 ], [ 18.045042496890133, 59.354399209428813 ], [ 18.044947373196518, 59.352086320633347 ], [ 18.043289926323197, 59.350179017402439 ], [ 18.04187442531018, 59.351082666830933 ], [ 18.037784248177012, 59.350249645663915 ], [ 18.033744092763715, 59.348909963259608 ], [ 18.025351395458138, 59.344385903424822 ], [ 18.026015505882729, 59.343914612161591 ], [ 18.024772371569441, 59.339364604546745 ], [ 18.004831131855425, 59.341801395065268 ], [ 17.998238239202085, 59.340745738369705 ], [ 17.993621495087844, 59.336343774534484 ], [ 17.995022881551737, 59.334542045493976 ], [ 17.994483175107685, 59.332685275732672 ], [ 17.987171680514415, 59.327055863624949 ], [ 17.985081518180348, 59.324235908337009 ], [ 17.97800046491578, 59.319752655441114 ], [ 17.976899439418421, 59.316269259761746 ], [ 17.96919241253137, 59.312241226164737 ], [ 17.954562940038247, 59.310839117280011 ], [ 17.941255208721206, 59.317629749238989 ], [ 17.906815309868055, 59.327792078509162 ], [ 17.89663073851473, 59.332867515888118 ] ], [ [ 17.889304924648524, 59.334815598355085 ], [ 17.889270831925479, 59.33547628800153 ], [ 17.889331642794087, 59.334297792910441 ], [ 17.889304924648524, 59.334815598355085 ] ], [ [ 17.908512546132535, 59.327429316269139 ], [ 17.908511226933793, 59.327429709775224 ], [ 17.908471678434442, 59.327419143480491 ], [ 17.908512546132535, 59.327429316269139 ] ], [ [ 17.965795830508764, 59.355203248084649 ], [ 17.966494956178753, 59.353839670639623 ], [ 17.966631406951254, 59.353760728879998 ], [ 17.966494964608582, 59.353839698954012 ], [ 17.965795830508764, 59.355203248084649 ] ], [ [ 17.970280624097654, 59.351647201095133 ], [ 17.97062620531954, 59.351469859625098 ], [ 17.97026629348402, 59.351655771259466 ], [ 17.970280624097654, 59.351647201095133 ] ], [ [ 17.97364424985761, 59.34992097704037 ], [ 17.973794518516947, 59.349850059197045 ], [ 17.972581349191945, 59.350466489316908 ], [ 17.97364424985761, 59.34992097704037 ] ], [ [ 17.977672010917406, 59.348247992792615 ], [ 17.977674080743867, 59.348247253955257 ], [ 17.976451298731874, 59.348683724313297 ], [ 17.977672010917406, 59.348247992792615 ] ], [ [ 17.978270662669765, 59.347995457490981 ], [ 17.981455677233495, 59.345036218346976 ], [ 17.991554608444154, 59.342953809445156 ], [ 17.981455683620133, 59.34503623311771 ], [ 17.978270662669765, 59.347995457490981 ] ], [ [ 17.935825232114933, 59.381849210072332 ], [ 17.933273618875987, 59.379866393622201 ], [ 17.931291540825086, 59.37922396727155 ], [ 17.931217845971421, 59.379181182290111 ], [ 17.933273608748767, 59.379866353082967 ], [ 17.933982452406337, 59.380155679727316 ], [ 17.934644273784681, 59.380554406376774 ], [ 17.935241335127241, 59.38108908179391 ], [ 17.935825247115712, 59.381849181745942 ], [ 17.936031310776482, 59.381926295313562 ], [ 17.935825232114933, 59.381849210072332 ] ], [ [ 17.930429961856635, 59.378822304867207 ], [ 17.930429985520341, 59.378822312445308 ], [ 17.930786601032523, 59.378963048249389 ], [ 17.930429961856635, 59.378822304867207 ] ], [ [ 17.929496075384552, 59.378333580553942 ], [ 17.929155164442548, 59.378140961357268 ], [ 17.929562005805661, 59.378365082319604 ], [ 17.929496075384552, 59.378333580553942 ] ], [ [ 17.929148701341958, 59.378134147950981 ], [ 17.927915769540977, 59.376865033279472 ], [ 17.927900422435062, 59.376803568283869 ], [ 17.929148701341958, 59.378134147950981 ] ], [ [ 17.927876137190655, 59.376229352286288 ], [ 17.927876222914644, 59.376229339071742 ], [ 17.927853274470042, 59.376379374275196 ], [ 17.927876137190655, 59.376229352286288 ] ], [ [ 17.928123526362427, 59.37594678956934 ], [ 17.928123525098815, 59.375946809142583 ], [ 17.928032943089089, 59.37601693313956 ], [ 17.928123526362427, 59.37594678956934 ] ], [ [ 17.928978298121852, 59.3755346453271 ], [ 17.928978335130545, 59.375534646887353 ], [ 17.928845692765258, 59.375628132872478 ], [ 17.928978298121852, 59.3755346453271 ] ], [ [ 17.928531145602033, 59.375175087360816 ], [ 17.928224451383887, 59.374883005249245 ], [ 17.92856470385216, 59.375187031690167 ], [ 17.928531145602033, 59.375175087360816 ] ], [ [ 17.927670156148082, 59.374631170768367 ], [ 17.92825154809908, 59.374712416784249 ], [ 17.928228807621505, 59.37485554378447 ], [ 17.928251505684479, 59.374712455881678 ], [ 17.927670156148082, 59.374631170768367 ] ], [ [ 17.927751392808169, 59.374442633661062 ], [ 17.92775146134958, 59.374442718917599 ], [ 17.927685486759703, 59.374595591064839 ], [ 17.927751392808169, 59.374442633661062 ] ], [ [ 17.928103889797249, 59.374456637812621 ], [ 17.928040854752851, 59.374454120165886 ], [ 17.928103913654848, 59.374456622399393 ], [ 17.928103889797249, 59.374456637812621 ] ], [ [ 17.93017373158062, 59.373273804878394 ], [ 17.930683578029701, 59.373197449319193 ], [ 17.929669828722883, 59.373534046971947 ], [ 17.93017373158062, 59.373273804878394 ] ], [ [ 17.930825516843022, 59.373131291022382 ], [ 17.930684483784187, 59.37319731114021 ], [ 17.93068443245869, 59.3731973177943 ], [ 17.930825516843022, 59.373131291022382 ] ], [ [ 17.936457775234828, 59.372071623592369 ], [ 17.936721384521018, 59.372023082302697 ], [ 17.936226812131824, 59.372114175089848 ], [ 17.936457775234828, 59.372071623592369 ] ], [ [ 17.942187886491048, 59.370393511022812 ], [ 17.940551800342572, 59.370972334489544 ], [ 17.942091628674444, 59.370427167044227 ], [ 17.942187886491048, 59.370393511022812 ] ], [ [ 17.942816809162892, 59.370062807950553 ], [ 17.944162691193458, 59.369050061665924 ], [ 17.94470460054962, 59.36840931013873 ], [ 17.942816809162892, 59.370062807950553 ] ], [ [ 17.944708096860008, 59.368393047899453 ], [ 17.944708057070567, 59.368393176571956 ], [ 17.944722920714668, 59.368323799251911 ], [ 17.944708096860008, 59.368393047899453 ] ], [ [ 17.944891199173178, 59.367703667191009 ], [ 17.944891188722142, 59.367703701462482 ], [ 17.944891188392852, 59.367703701544372 ], [ 17.944891199173178, 59.367703667191009 ] ], [ [ 17.914839181389226, 59.361906290041347 ], [ 17.908674985108895, 59.362067893044035 ], [ 17.90430607115119, 59.364218843218033 ], [ 17.903703720979252, 59.363130153073627 ], [ 17.907283410631418, 59.3590155072324 ], [ 17.910712476517379, 59.356677852241226 ], [ 17.921753105405404, 59.359390903258578 ], [ 17.916672829656623, 59.36092382587146 ], [ 17.916832665116459, 59.361485146162167 ], [ 17.914786379862679, 59.361383364137211 ], [ 17.914839181389226, 59.361906290041347 ] ], [ [ 17.904972732502685, 59.343120512047506 ], [ 17.905782132422679, 59.342859682208577 ], [ 17.903232765841565, 59.343663161564329 ], [ 17.904972732502685, 59.343120512047506 ] ], [ [ 17.853899766254862, 59.387179889619759 ], [ 17.85488473917686, 59.387242784789365 ], [ 17.853899766247679, 59.387179889619311 ], [ 17.853899766254862, 59.387179889619759 ] ], [ [ 17.908574347691498, 59.39773421502322 ], [ 17.908409598412071, 59.397760555444947 ], [ 17.908574794701831, 59.397734139823079 ], [ 17.908574347691498, 59.39773421502322 ] ], [ [ 17.955054660502828, 59.356652710677302 ], [ 17.95504709326395, 59.356655011723667 ], [ 17.955209719656157, 59.356605015009961 ], [ 17.955054660502828, 59.356652710677302 ] ], [ [ 17.96308902821114, 59.358328044881027 ], [ 17.963087024954188, 59.358330011693141 ], [ 17.96308900421284, 59.358328068131222 ], [ 17.96308902821114, 59.358328044881027 ] ], [ [ 17.961293611913923, 59.359634609280491 ], [ 17.961805875412292, 59.359292350784173 ], [ 17.96169509356006, 59.359366739648536 ], [ 17.961293611913923, 59.359634609280491 ] ], [ [ 17.960723229392919, 59.36025570035099 ], [ 17.960717654053557, 59.360231494583552 ], [ 17.960595437847644, 59.360423729055604 ], [ 17.960723229392919, 59.36025570035099 ] ], [ [ 17.960268136380268, 59.360860330336173 ], [ 17.95958471166713, 59.361535692396565 ], [ 17.960361294374781, 59.360732963585001 ], [ 17.960268136380268, 59.360860330336173 ] ], [ [ 17.959049987845628, 59.361896641461776 ], [ 17.959050011799842, 59.361896609840421 ], [ 17.959330735058607, 59.361707331953617 ], [ 17.959049987845628, 59.361896641461776 ] ], [ [ 17.957406988486319, 59.362778328881085 ], [ 17.957448264691845, 59.36275701663395 ], [ 17.957330423310857, 59.362817723128195 ], [ 17.957406988486319, 59.362778328881085 ] ], [ [ 17.9564531509718, 59.363224658374179 ], [ 17.95645976420062, 59.36322179827485 ], [ 17.956460982835427, 59.363221275197631 ], [ 17.9564531509718, 59.363224658374179 ] ], [ [ 17.955985320003727, 59.363426274030061 ], [ 17.95598527204513, 59.363426254358394 ], [ 17.95610442909026, 59.363374660680968 ], [ 17.956170883515274, 59.363346128477126 ], [ 17.955985320003727, 59.363426274030061 ] ], [ [ 17.955114316414953, 59.363800510719955 ], [ 17.9552560252083, 59.363739537891739 ], [ 17.954873589681423, 59.363903536987316 ], [ 17.955114316414953, 59.363800510719955 ] ], [ [ 17.954510278646637, 59.364059831446717 ], [ 17.954868253343125, 59.36390582813155 ], [ 17.954192510897887, 59.364199586650393 ], [ 17.954510278646637, 59.364059831446717 ] ], [ [ 17.953557513558042, 59.364474415827544 ], [ 17.953657613324697, 59.364431805380192 ], [ 17.95347585211875, 59.36450899201288 ], [ 17.953557513558042, 59.364474415827544 ] ], [ [ 17.953048161405114, 59.364684230250987 ], [ 17.953048131729116, 59.364684237121935 ], [ 17.953203379519135, 59.3646213635202 ], [ 17.953048161405114, 59.364684230250987 ] ], [ [ 17.9510450886829, 59.36559530072509 ], [ 17.951300610033009, 59.366061809575491 ], [ 17.95132871292731, 59.3661145352714 ], [ 17.951044876219171, 59.36559528917347 ], [ 17.95229010256616, 59.365106692366417 ], [ 17.9510450886829, 59.36559530072509 ] ], [ [ 17.963311050342568, 59.358112928142205 ], [ 17.963143190208449, 59.358275567553846 ], [ 17.963400767748915, 59.357968840492482 ], [ 17.963311050342568, 59.358112928142205 ] ], [ [ 17.963665369556445, 59.357544187362066 ], [ 17.96357290824745, 59.357692629747248 ], [ 17.963494599153442, 59.357818223360901 ], [ 17.963665369556445, 59.357544187362066 ] ], [ [ 17.963789678592018, 59.357347054460988 ], [ 17.963781583912766, 59.357359694619838 ], [ 17.963768393529058, 59.357380228780677 ], [ 17.963789678592018, 59.357347054460988 ] ], [ [ 17.96381124259873, 59.357313445319129 ], [ 17.963997620045394, 59.357058657990258 ], [ 17.963811160067788, 59.357313573950009 ], [ 17.96381124259873, 59.357313445319129 ] ], [ [ 17.964436287972436, 59.356460585694485 ], [ 17.964422853449349, 59.356477024167326 ], [ 17.964629481282834, 59.356198356355762 ], [ 17.964436287972436, 59.356460585694485 ] ], [ [ 17.964643635734316, 59.35618751372521 ], [ 17.964633924347691, 59.356194950717089 ], [ 17.964964818351959, 59.355913272917526 ], [ 17.964643635734316, 59.35618751372521 ] ], [ [ 17.936440290527319, 59.382338245777014 ], [ 17.936361667301867, 59.382142292360918 ], [ 17.936434220622093, 59.382399376721132 ], [ 17.936440290527319, 59.382338245777014 ] ], [ [ 17.948763333623074, 59.36680552892399 ], [ 17.94876331050089, 59.366805480796856 ], [ 17.949893122482003, 59.366521108449582 ], [ 17.948763333623074, 59.36680552892399 ] ], [ [ 17.950009404237093, 59.366499631359581 ], [ 17.950009460792536, 59.366499607991379 ], [ 17.951349327348122, 59.366153061393447 ], [ 17.950009404237093, 59.366499631359581 ] ], [ [ 17.93631241503271, 59.382712888952383 ], [ 17.936359633393071, 59.38306375129018 ], [ 17.936359289766969, 59.382617636864374 ], [ 17.93631241503271, 59.382712888952383 ] ], [ [ 17.936555853008461, 59.38353641097644 ], [ 17.936555920464585, 59.38353644480619 ], [ 17.936566192794942, 59.38357075659713 ], [ 17.936555853008461, 59.38353641097644 ] ], [ [ 17.937228820043632, 59.384185077197216 ], [ 17.938679294558629, 59.385267876516309 ], [ 17.93908824708063, 59.385605982506618 ], [ 17.939211042220816, 59.385780349949471 ], [ 17.937228820043632, 59.384185077197216 ] ], [ [ 17.940220110161739, 59.387086073685055 ], [ 17.939779801853117, 59.386592618921014 ], [ 17.939721011290192, 59.386508476001922 ], [ 17.940220110161739, 59.387086073685055 ] ], [ [ 17.940906774469923, 59.387571100788101 ], [ 17.941229541563203, 59.387732938917345 ], [ 17.940890610982468, 59.387560902013441 ], [ 17.940906774469923, 59.387571100788101 ] ], [ [ 17.94224762862758, 59.388151041450058 ], [ 17.942516982722506, 59.388237691933625 ], [ 17.942238987953157, 59.388147865137775 ], [ 17.94224762862758, 59.388151041450058 ] ], [ [ 17.945452555013812, 59.389101932586598 ], [ 17.944566612544136, 59.388824436265516 ], [ 17.943122396228919, 59.388422951812132 ], [ 17.942902302892225, 59.388356971400526 ], [ 17.944566660110087, 59.388824417802915 ], [ 17.945452555013812, 59.389101932586598 ] ], [ [ 17.946193098998513, 59.389406410288586 ], [ 17.946274166878943, 59.389450288469654 ], [ 17.946132002920038, 59.38937864635529 ], [ 17.946193098998513, 59.389406410288586 ] ], [ [ 17.946957565341794, 59.389859267813378 ], [ 17.947119097849171, 59.389992039786975 ], [ 17.946784705644951, 59.389749489674109 ], [ 17.946957565341794, 59.389859267813378 ] ], [ [ 17.947132772185821, 59.390003276273404 ], [ 17.947132772185814, 59.390003276273404 ], [ 17.947300831854353, 59.389971357205255 ], [ 17.947132772185821, 59.390003276273404 ] ], [ [ 17.948639857767184, 59.391784783012348 ], [ 17.949039988575439, 59.39253416683853 ], [ 17.949303046674927, 59.392905596251083 ], [ 17.949039922779022, 59.392534161563098 ], [ 17.948639857767184, 59.391784783012348 ] ], [ [ 17.952238114667658, 59.39618553264544 ], [ 17.951264386468541, 59.395366508442343 ], [ 17.950711023929561, 59.394844059237997 ], [ 17.950012364637427, 59.394055746939145 ], [ 17.949356982963131, 59.392991211552371 ], [ 17.952238114667658, 59.39618553264544 ] ], [ [ 17.952506543683032, 59.396390752795519 ], [ 17.952249827702108, 59.39619502067638 ], [ 17.95250658325423, 59.396390722196216 ], [ 17.952893741270749, 59.396547083094106 ], [ 17.953106914168128, 59.396642607374538 ], [ 17.953212976088967, 59.396717010944506 ], [ 17.952506543683032, 59.396390752795519 ] ], [ [ 17.953236432817089, 59.396733466033233 ], [ 17.95336833230451, 59.397088718521758 ], [ 17.953236395344128, 59.396733439745645 ], [ 17.953236432817089, 59.396733466033233 ] ], [ [ 17.956770201448933, 59.398539617508639 ], [ 17.956700730435433, 59.398521105018951 ], [ 17.956974513522862, 59.398594011832934 ], [ 17.956770201448933, 59.398539617508639 ] ], [ [ 17.957344503167974, 59.398692619147319 ], [ 17.957274598130393, 59.398674165454736 ], [ 17.957415407695606, 59.398711340159117 ], [ 17.957344503167974, 59.398692619147319 ] ], [ [ 17.958316259967713, 59.398951511386905 ], [ 17.958020054860938, 59.398872429729465 ], [ 17.957712910297854, 59.398790538070664 ], [ 17.957611394844538, 59.39876342402659 ], [ 17.958020017923026, 59.398872407088618 ], [ 17.958316209805076, 59.398951492181965 ], [ 17.958583609643323, 59.399021968045496 ], [ 17.958641177478885, 59.399037358061392 ], [ 17.958316259967713, 59.398951511386905 ] ], [ [ 17.959804317317641, 59.399336061215998 ], [ 17.95876138233799, 59.399069279603239 ], [ 17.960582918813429, 59.399320198226391 ], [ 17.959804317317641, 59.399336061215998 ] ], [ [ 17.962994552909045, 59.398970521570263 ], [ 17.962994589126424, 59.398970530666894 ], [ 17.962436511604182, 59.399059293998953 ], [ 17.962994552909045, 59.398970521570263 ] ], [ [ 17.965574789734525, 59.399422612516091 ], [ 17.963962096399293, 59.399213600138012 ], [ 17.963010473168389, 59.398974520221408 ], [ 17.963962147585466, 59.399213563077524 ], [ 17.964647809659169, 59.399246584268063 ], [ 17.965300098151147, 59.399326541854947 ], [ 17.965574789734525, 59.399422612516091 ] ], [ [ 17.968185692217975, 59.40112971554472 ], [ 17.967619221291759, 59.400662530766489 ], [ 17.968746874487426, 59.401451813836154 ], [ 17.968185692217975, 59.40112971554472 ] ], [ [ 17.969099570982142, 59.4015022325422 ], [ 17.969099628639089, 59.40150219500098 ], [ 17.969453735754048, 59.401500007771631 ], [ 17.969099570982142, 59.4015022325422 ] ], [ [ 17.970777160581179, 59.401435199994033 ], [ 17.970331330476341, 59.401464771858926 ], [ 17.971051368032018, 59.401367176577558 ], [ 17.970777160581179, 59.401435199994033 ] ], [ [ 17.984914730861323, 59.332811261820417 ], [ 17.984654899584456, 59.332826640946578 ], [ 17.984809725670946, 59.332817271629423 ], [ 17.984914730861323, 59.332811261820417 ] ] ] } },
{ "type": "Feature", "properties": { "makroomrade": "Southern County", "shift30": 26.1, "shift50": 37.5, "new30": 26123, "new50": 37477, "sv": "Sodra lanet" }, "geometry": { "type": "Polygon", "coordinates": [ [ [ 17.669626360272158, 58.826237003311618 ], [ 17.652130763502452, 58.859982912602149 ], [ 17.660711016609039, 58.866524353843282 ], [ 17.651328651622428, 58.875260787577076 ], [ 17.654643219870547, 58.893393941723446 ], [ 17.639909825668958, 58.898587374122869 ], [ 17.631974083695845, 58.90320869383234 ], [ 17.636235565239623, 58.908337137766679 ], [ 17.625892040404885, 58.924739459659826 ], [ 17.62313996145587, 58.932546041989866 ], [ 17.625317676675635, 58.934985646008784 ], [ 17.596842493896595, 58.944348658658363 ], [ 17.589740671787713, 58.944445244736649 ], [ 17.578169248058703, 58.947870844671201 ], [ 17.569591885752676, 58.952458627472481 ], [ 17.562449771328563, 58.950767134545075 ], [ 17.56114164961124, 58.952733387932042 ], [ 17.559252417272823, 58.951806711966647 ], [ 17.556947361746591, 58.954343034413164 ], [ 17.557123800799349, 58.956460093584013 ], [ 17.555629932730788, 58.956480003783952 ], [ 17.557503649980426, 58.957442875327587 ], [ 17.557114256431174, 58.958337205949093 ], [ 17.557782056009195, 58.958480932408769 ], [ 17.556250903607822, 58.96017172128375 ], [ 17.549582753233427, 58.962739147265715 ], [ 17.551074205426698, 58.964740002533425 ], [ 17.548323570906078, 58.967093592724595 ], [ 17.547064208959444, 58.966598364204039 ], [ 17.542917122183788, 58.967814848194031 ], [ 17.544674399724968, 58.969566663175279 ], [ 17.542852539068353, 58.971396650028296 ], [ 17.545973001587157, 58.973657225726498 ], [ 17.554482905725926, 58.982673584231321 ], [ 17.54533960265557, 58.982205514181587 ], [ 17.546221065363095, 58.983443549502695 ], [ 17.541411215910038, 58.981862306620819 ], [ 17.537268474699705, 58.981594781346359 ], [ 17.517400398370874, 58.983034031148946 ], [ 17.511903515428184, 58.981265109625078 ], [ 17.50032409473069, 58.985627552693849 ], [ 17.490483117184535, 58.986777629904807 ], [ 17.480593675860906, 58.989078393697582 ], [ 17.475781292428724, 58.987341455340413 ], [ 17.443289297488981, 58.995019480459675 ], [ 17.446715790819741, 58.990486343763415 ], [ 17.44346096493377, 58.984538235266584 ], [ 17.439235804260157, 58.981250418390417 ], [ 17.42987963544752, 58.980457454610885 ], [ 17.424251921816538, 58.982235192038409 ], [ 17.419698554517069, 58.981582027677433 ], [ 17.412308555592169, 58.98322508953536 ], [ 17.393958466056528, 58.982236015223073 ], [ 17.394357624612926, 58.983605466978787 ], [ 17.38808000364843, 58.984012207973436 ], [ 17.384513746006565, 58.98504374734086 ], [ 17.3751705821489, 58.982362249777303 ], [ 17.370733726244765, 58.991077424651102 ], [ 17.365312954285731, 58.995769925376997 ], [ 17.364835392175099, 59.001011440535422 ], [ 17.360461731220511, 59.007311461829566 ], [ 17.354669207989332, 59.009271507747243 ], [ 17.351950149613529, 59.017371267002268 ], [ 17.343343512457174, 59.025136908019988 ], [ 17.346862753390496, 59.029086591837171 ], [ 17.338736353218703, 59.031586913490003 ], [ 17.333728656571495, 59.031838892386489 ], [ 17.33442751920532, 59.032622758209293 ], [ 17.331337425067915, 59.035928456657984 ], [ 17.332854691382916, 59.038811133052917 ], [ 17.331533414720003, 59.041703130331797 ], [ 17.325898975022724, 59.044032522222949 ], [ 17.32519970328665, 59.045685499664266 ], [ 17.320898741123081, 59.047185288767103 ], [ 17.319213175976973, 59.049099574720408 ], [ 17.320359614161042, 59.062094729169729 ], [ 17.32594818793314, 59.070184827967331 ], [ 17.320656997844612, 59.075915787829153 ], [ 17.317735424917096, 59.077609533556902 ], [ 17.31207803178556, 59.079263730922406 ], [ 17.313427354062668, 59.081176936000766 ], [ 17.312814369827951, 59.082224053305936 ], [ 17.314033378498461, 59.082086975830478 ], [ 17.315979701742492, 59.085585005123718 ], [ 17.315717898396972, 59.088153907111369 ], [ 17.316510245910361, 59.088459967231614 ], [ 17.317096204157409, 59.091032589977864 ], [ 17.31608936623536, 59.092307358678148 ], [ 17.317447462004033, 59.093362215672343 ], [ 17.318370575008029, 59.097810391109924 ], [ 17.318685694495045, 59.11521116905957 ], [ 17.321901411534498, 59.124010957696697 ], [ 17.322456395121243, 59.128981078376938 ], [ 17.321863739879575, 59.137169010081735 ], [ 17.320687067872722, 59.140110761945067 ], [ 17.315751649930991, 59.146136778375123 ], [ 17.308578618525711, 59.150010131433874 ], [ 17.307081198002894, 59.154071308480333 ], [ 17.306049990133872, 59.154217075037728 ], [ 17.306142717680277, 59.153734800560869 ], [ 17.306009699719702, 59.15358203991773 ], [ 17.301702541889554, 59.159969150105717 ], [ 17.297152747173115, 59.164341401747301 ], [ 17.284125820495028, 59.168530941151282 ], [ 17.27696719523848, 59.169569011230024 ], [ 17.279474079090882, 59.171038593515235 ], [ 17.272574226136648, 59.174839026371096 ], [ 17.268657365026652, 59.175368521822399 ], [ 17.267094830607501, 59.177799364246724 ], [ 17.262791363154165, 59.179979566107143 ], [ 17.257203748052596, 59.180201427963709 ], [ 17.258823376492934, 59.181927892234143 ], [ 17.261065476120628, 59.182437955641497 ], [ 17.263262454205382, 59.181627349808373 ], [ 17.263670361636731, 59.182238379398513 ], [ 17.268954940947093, 59.182607508253653 ], [ 17.26681981535944, 59.185126571138866 ], [ 17.266892841272618, 59.187937073147381 ], [ 17.265718920287682, 59.189178551720197 ], [ 17.264786051323799, 59.192601189612709 ], [ 17.26354326500325, 59.19187582275967 ], [ 17.262570524610283, 59.196660247354899 ], [ 17.248089047638562, 59.199297125345382 ], [ 17.244423889188834, 59.204151817422876 ], [ 17.249494439848117, 59.204266976616012 ], [ 17.25151134829693, 59.208090560709053 ], [ 17.247786003832143, 59.212062930843111 ], [ 17.245458649665071, 59.212689839286284 ], [ 17.243670929459206, 59.214581732943984 ], [ 17.246337865471993, 59.21647700703803 ], [ 17.2464875768223, 59.2192292286446 ], [ 17.252208345356159, 59.220088350800538 ], [ 17.257526002583067, 59.222916570767694 ], [ 17.26156602012372, 59.222599994636234 ], [ 17.264545078944867, 59.227434989723875 ], [ 17.271856395545765, 59.234525648257787 ], [ 17.274815870660134, 59.245553935459924 ], [ 17.281367117702704, 59.245447472675806 ], [ 17.293035624261829, 59.247035009009799 ], [ 17.291026371390398, 59.249451062744377 ], [ 17.293818719090233, 59.250183193335339 ], [ 17.301813201667692, 59.249825346544625 ], [ 17.308931206434451, 59.252126572622743 ], [ 17.303889373604868, 59.256610725434442 ], [ 17.310367707811231, 59.266334129379224 ], [ 17.341561728012525, 59.273599824122272 ], [ 17.347790596987565, 59.279060696094135 ], [ 17.348610010137534, 59.285110849680784 ], [ 17.348321818420988, 59.305736871987662 ], [ 17.344064283132042, 59.311278215790153 ], [ 17.349825804797497, 59.317613770210976 ], [ 17.350584766663449, 59.319928570682023 ], [ 17.346198591169404, 59.326159128136297 ], [ 17.345994535715931, 59.33079327923339 ], [ 17.348150107974529, 59.333638110731705 ], [ 17.335046266311878, 59.351740885871472 ], [ 17.425611576031375, 59.351345791583199 ], [ 17.437898219933029, 59.33948473772346 ], [ 17.463323593314811, 59.33833469255007 ], [ 17.469227962189517, 59.330169723699143 ], [ 17.469165163875548, 59.326538087952287 ], [ 17.473117581828763, 59.323875378928008 ], [ 17.467987122047148, 59.307658452978529 ], [ 17.475729489268463, 59.304660742719918 ], [ 17.498064456268086, 59.30511842434511 ], [ 17.515483721497286, 59.295272912377158 ], [ 17.568274917094996, 59.29182664392507 ], [ 17.597559701191045, 59.298119076969058 ], [ 17.625656976340384, 59.286101416981502 ], [ 17.638104622664173, 59.283011908368238 ], [ 17.668018141993759, 59.273587846385958 ], [ 17.675531967115408, 59.273814903660274 ], [ 17.696068529483334, 59.27169680712452 ], [ 17.72192252975648, 59.265049009230651 ], [ 17.727189526304272, 59.264390904851801 ], [ 17.734212538442097, 59.268291841396788 ], [ 17.738387963677514, 59.268519969574932 ], [ 17.75351813647157, 59.266754679057129 ], [ 17.763654334509368, 59.266600043516256 ], [ 17.769082513714967, 59.26176282724763 ], [ 17.777690393358949, 59.259425791645739 ], [ 17.784981530612399, 59.260248748779432 ], [ 17.792015240432466, 59.2633315094496 ], [ 17.801869426163535, 59.263179300924953 ], [ 17.808547955632545, 59.262090038306141 ], [ 17.832491868319075, 59.261677348984641 ], [ 17.840931312991621, 59.263962132731422 ], [ 17.848055060339242, 59.267387291105486 ], [ 17.85583482482475, 59.267265080728762 ], [ 17.863492207690886, 59.274543711912472 ], [ 17.87214524682344, 59.273201800550538 ], [ 17.87530897519866, 59.269029810134306 ], [ 17.877903221550625, 59.268112787453568 ], [ 17.881629060199888, 59.270213753316938 ], [ 17.8873334016039, 59.270215219359756 ], [ 17.887780132716948, 59.268922135000437 ], [ 17.892363038358454, 59.268922923882833 ], [ 17.892627766410779, 59.267653627383609 ], [ 17.897811457516422, 59.26737000165889 ], [ 17.908231827948402, 59.269141972853767 ], [ 17.911401680705762, 59.272085385962441 ], [ 17.911720388229291, 59.27381171298326 ], [ 17.915280871285539, 59.278960397484951 ], [ 17.919200113300494, 59.279425227591709 ], [ 17.925860298182037, 59.28252507713065 ], [ 17.94797216988156, 59.287753222854199 ], [ 17.948332762881762, 59.287351365055436 ], [ 17.946711252970804, 59.286391304888205 ], [ 17.949971771637973, 59.286119064751681 ], [ 17.949376772947289, 59.285092730740118 ], [ 17.956136890809034, 59.282250389297943 ], [ 17.956875770328846, 59.279741760029019 ], [ 17.955272935063434, 59.274295690404621 ], [ 17.963432510140638, 59.268458593249044 ], [ 17.970855248327879, 59.266547258599147 ], [ 17.980319499427555, 59.262569964852545 ], [ 17.988265733950023, 59.26200537579885 ], [ 18.004930698470609, 59.258630922823023 ], [ 18.011539341513682, 59.256078344415819 ], [ 18.01813303459663, 59.255388862247088 ], [ 18.018728087899682, 59.254075272311212 ], [ 18.028137915275927, 59.249856185847428 ], [ 18.050000560830362, 59.24490239363508 ], [ 18.052225605523645, 59.246721932282853 ], [ 18.063127129930734, 59.240626489682306 ], [ 18.062268288452888, 59.240597396945248 ], [ 18.061225876051957, 59.238154052575645 ], [ 18.064598781943062, 59.238257337557712 ], [ 18.065250889389691, 59.239371692922127 ], [ 18.073741975438271, 59.233891751048191 ], [ 18.081393896059755, 59.231739809867527 ], [ 18.087402192422427, 59.231653488240653 ], [ 18.108025142326657, 59.22725239530169 ], [ 18.108132754354294, 59.229601953922447 ], [ 18.119538644550364, 59.2322895809736 ], [ 18.119997581410747, 59.233551815609559 ], [ 18.123529424038846, 59.23416933962374 ], [ 18.12408864661057, 59.234961127634413 ], [ 18.121908549498475, 59.238168624341483 ], [ 18.123691157211077, 59.24107543832779 ], [ 18.127355131339517, 59.240303339352415 ], [ 18.1336741343843, 59.242401269080162 ], [ 18.146804833044357, 59.238607310464644 ], [ 18.175711985194027, 59.233938094302111 ], [ 18.177189679525888, 59.232426812826887 ], [ 18.190867348080722, 59.229625800918335 ], [ 18.193716649275686, 59.229785574569462 ], [ 18.196652643804345, 59.245048997657769 ], [ 18.205780297535192, 59.251508605444279 ], [ 18.214987347553141, 59.248486346965855 ], [ 18.222813143017632, 59.250093522539807 ], [ 18.223530618030594, 59.252512450948039 ], [ 18.236639344614819, 59.252496720299803 ], [ 18.248918988140744, 59.254669363889825 ], [ 18.264470167878699, 59.252650470400944 ], [ 18.266287070007369, 59.2570495765899 ], [ 18.280050454887771, 59.262940331130274 ], [ 18.297076396755614, 59.254755715710225 ], [ 18.308705920885181, 59.251813867872826 ], [ 18.331215994416709, 59.250221015328165 ], [ 18.38533618417086, 59.231492020062468 ], [ 18.38890191147793, 59.263536090227987 ], [ 18.37457470332393, 59.266101664633837 ], [ 18.348512805628157, 59.272854795135032 ], [ 18.334485526864871, 59.2776788035574 ], [ 18.32558652102642, 59.279007261205287 ], [ 18.320560072102648, 59.28591505774417 ], [ 18.323654187661749, 59.289981762112696 ], [ 18.321665312069481, 59.298258816496144 ], [ 18.321766451468733, 59.306771912535048 ], [ 18.325585810928366, 59.312554137539813 ], [ 18.319236651693569, 59.319636542728752 ], [ 18.326668602210543, 59.323974805375286 ], [ 18.327556073639379, 59.324808096998119 ], [ 18.326763805258189, 59.325409085967188 ], [ 18.329456198507671, 59.325950748797027 ], [ 18.333120419476202, 59.328153645600956 ], [ 18.327738794511895, 59.331799549007464 ], [ 18.341251757312264, 59.328991629826 ], [ 18.348559848921688, 59.330562579691467 ], [ 18.349686408011458, 59.331904379616461 ], [ 18.373759051141363, 59.338298782138025 ], [ 18.360015287554649, 59.344320964037692 ], [ 18.351497527007233, 59.346613061090366 ], [ 18.348798422876069, 59.354327073288729 ], [ 18.350586467224755, 59.35501370032874 ], [ 18.346275197231357, 59.359080820817219 ], [ 18.338395420231457, 59.361634509786739 ], [ 18.336564328265794, 59.366705376120919 ], [ 18.355514218371432, 59.366432452530972 ], [ 18.359335181492298, 59.363279301628587 ], [ 18.371461057518093, 59.361580581628644 ], [ 18.376830254486606, 59.36480321912893 ], [ 18.406778570398334, 59.362002322251456 ], [ 18.440578463202122, 59.352126935225712 ], [ 18.445754545897987, 59.359130141005593 ], [ 18.450404970010169, 59.36887393326522 ], [ 18.438860917189992, 59.386384495855367 ], [ 18.44817567693077, 59.394021126567189 ], [ 18.415840836530204, 59.412793771737235 ], [ 18.396747972959492, 59.420885047801299 ], [ 18.39747651652878, 59.423794740831582 ], [ 18.389473444172559, 59.426671819009101 ], [ 18.374606115799654, 59.439972909881767 ], [ 18.411768934464209, 59.443694099301872 ], [ 18.43294416645481, 59.450446521617508 ], [ 18.435681368287668, 59.45829313547754 ], [ 18.447810037845432, 59.459645908210547 ], [ 18.466981154723943, 59.457007856861559 ], [ 18.475062052750253, 59.463348917226639 ], [ 18.492956882742863, 59.467113712536765 ], [ 18.512529809022297, 59.446680887512713 ], [ 18.53280741036361, 59.420064723574974 ], [ 18.549579783959288, 59.420473199908706 ], [ 18.552150226062082, 59.421919884894812 ], [ 18.557686371999594, 59.420465032211716 ], [ 18.565018678809505, 59.420473391609349 ], [ 18.575731046970855, 59.411106722874827 ], [ 18.592782566831442, 59.400365056688081 ], [ 18.597165025998933, 59.401876749412494 ], [ 18.611697420869259, 59.404548562490113 ], [ 18.618827568169873, 59.403863213186135 ], [ 18.622517166953134, 59.405287090221165 ], [ 18.622449566135618, 59.407285050756307 ], [ 18.619852514775324, 59.410229846538108 ], [ 18.624381998159656, 59.416276776422443 ], [ 18.621979217864872, 59.423553639214873 ], [ 18.62197839128509, 59.426660339133505 ], [ 18.627165146927286, 59.429797062302413 ], [ 18.630765968760393, 59.437452511824347 ], [ 18.638237697802445, 59.444978985889605 ], [ 18.635882064267673, 59.45434424784748 ], [ 18.672554460778343, 59.462202628269985 ], [ 18.687332187084351, 59.470589808116166 ], [ 18.697487441433733, 59.467562975024642 ], [ 18.70314428431492, 59.467877669687496 ], [ 18.705517270584874, 59.464878950689553 ], [ 18.710433342746349, 59.46335056709578 ], [ 18.726610769947481, 59.465136408621881 ], [ 18.731748743043003, 59.464347724303266 ], [ 18.73574489000622, 59.46097061342612 ], [ 18.740782318208247, 59.458827600397719 ], [ 18.74168161557791, 59.456175593691093 ], [ 18.74351812929287, 59.455379838039825 ], [ 18.750864355277756, 59.455456751226485 ], [ 18.76728474718718, 59.450755963369048 ], [ 18.793333946193766, 59.455084594029287 ], [ 18.82852127281922, 59.464433881856749 ], [ 18.839497128861648, 59.471302499196277 ], [ 18.867628574248752, 59.473565449285346 ], [ 18.873603845115312, 59.45964578497135 ], [ 18.887257163506781, 59.458784876744048 ], [ 18.913232954642382, 59.465326106623891 ], [ 18.937250046171236, 59.482628310003321 ], [ 18.97337961404288, 59.49693864223196 ], [ 19.002011687967865, 59.515734766789663 ], [ 19.027312914785, 59.514125544033043 ], [ 19.067117232825453, 59.496159948047961 ], [ 19.205595405476132, 59.469451343889695 ], [ 19.243069980972599, 59.495961908573427 ], [ 19.265162271098831, 59.502925622537028 ], [ 19.289789402623594, 59.50352905812985 ], [ 19.358668445932384, 59.484603400518992 ], [ 19.351292632290299, 59.461443617801258 ], [ 19.318211964305895, 59.44544683388191 ], [ 19.285674264251821, 59.393220514918703 ], [ 19.195883707270745, 59.333009966891446 ], [ 19.193903000295858, 59.305191263276754 ], [ 18.908697531835937, 59.194469716260564 ], [ 18.869303355549949, 59.118190943100409 ], [ 18.727296758190892, 59.038536709293325 ], [ 18.679223523593208, 58.997977698083943 ], [ 18.554079150407812, 58.933536395724126 ], [ 18.14019482442157, 58.804261639293564 ], [ 18.095482580174036, 58.779561935514174 ], [ 18.001706544338777, 58.716836327894889 ], [ 17.795494964125762, 58.671220122859005 ], [ 17.78669623120059, 58.777888857608431 ], [ 17.725205322541665, 58.797944931462901 ], [ 17.717854800761376, 58.815295163499343 ], [ 17.669626360272158, 58.826237003311618 ] ], [ [ 17.949347581323163, 59.06106066931806 ], [ 17.949348504634017, 59.061063072773123 ], [ 17.949850526082592, 59.062465331019169 ], [ 17.949347581323163, 59.06106066931806 ] ], [ [ 18.049686201618574, 58.985147489663966 ], [ 18.05304086914289, 58.983782287711271 ], [ 18.049109748980349, 58.98538210031775 ], [ 18.049686201618574, 58.985147489663966 ] ] ] } },
{ "type": "Feature", "properties": { "makroomrade": "Southern suburbs", "shift30": 30.8, "shift50": 57.9, "new30": 17566, "new50": 33010, "sv": "Sodra fororter" }, "geometry": { "type": "MultiPolygon", "coordinates": [ [ [ [ 18.01023409518962, 59.256581359946665 ], [ 18.004928549220789, 59.258632264750354 ], [ 17.988265657820669, 59.262005342198215 ], [ 17.980341167954666, 59.262573100039006 ], [ 17.974205818399415, 59.264597854434655 ], [ 17.970855190947688, 59.266547281251704 ], [ 17.961581931878833, 59.269329611143426 ], [ 17.955272988824259, 59.274295715546337 ], [ 17.9568854392841, 59.279757296327062 ], [ 17.95613453164793, 59.282248939062924 ], [ 17.949376714756514, 59.285092749774698 ], [ 17.949971730271532, 59.286119085851425 ], [ 17.946671510114722, 59.286430380559786 ], [ 17.948332754214579, 59.287351357591085 ], [ 17.947972125179437, 59.28775320103631 ], [ 17.925860357306476, 59.28252512589583 ], [ 17.919310199130184, 59.279496758332208 ], [ 17.917548443678253, 59.279854460056505 ], [ 17.91931019949126, 59.279496758186802 ], [ 17.915283355631008, 59.278961689645797 ], [ 17.911720396391193, 59.273811711499718 ], [ 17.911401656209243, 59.272085394844787 ], [ 17.908232620887109, 59.269142670227559 ], [ 17.895263001337639, 59.267319520179349 ], [ 17.892627762057774, 59.267653664464653 ], [ 17.892363880933605, 59.268921918318597 ], [ 17.887780198855747, 59.268922423949647 ], [ 17.887333413044402, 59.270215200348154 ], [ 17.881630057821482, 59.270214387879314 ], [ 17.877903285973634, 59.268112775475686 ], [ 17.875308686644107, 59.269030456158433 ], [ 17.872139479006183, 59.273209829868627 ], [ 17.863492227262459, 59.274543731719291 ], [ 17.867978431238129, 59.279573579935885 ], [ 17.865301359877819, 59.286221695507471 ], [ 17.886229374571826, 59.287146954608488 ], [ 17.890032280774811, 59.284561572011626 ], [ 17.886229950232625, 59.287147583746901 ], [ 17.890016686893411, 59.291375483930928 ], [ 17.893220974766052, 59.293151280518515 ], [ 17.905075564436398, 59.295965693899923 ], [ 17.9094070047725, 59.299334581146994 ], [ 17.920248945342959, 59.300946073364763 ], [ 17.928178720641579, 59.303171762530624 ], [ 17.933340785667212, 59.302916996482061 ], [ 17.93713912491042, 59.303783670624263 ], [ 17.938143351751556, 59.305606538272144 ], [ 17.947473607405772, 59.306367101285005 ], [ 17.953036429968886, 59.30875787857633 ], [ 17.954562940038247, 59.310839117280011 ], [ 17.96919241253137, 59.312241226164737 ], [ 17.976899439418421, 59.316269259761746 ], [ 17.981749305844286, 59.315227822351964 ], [ 17.994829984398955, 59.317426738399874 ], [ 18.002957992184275, 59.320799949988938 ], [ 18.009928945790083, 59.320809972636489 ], [ 18.013984477011274, 59.317854212028919 ], [ 18.017960176638084, 59.316437316746956 ], [ 18.02948888689744, 59.314542394470948 ], [ 18.042442922419177, 59.309191620836494 ], [ 18.048655222624351, 59.308500575003968 ], [ 18.053933916752669, 59.305472098531162 ], [ 18.073095022736233, 59.302600613620498 ], [ 18.079797734771187, 59.303478742732253 ], [ 18.080876341975468, 59.301856700312172 ], [ 18.08570694278038, 59.29967192450529 ], [ 18.09132589725353, 59.300695944343794 ], [ 18.105407474473683, 59.301104259207435 ], [ 18.110162627797035, 59.302175359028823 ], [ 18.110516208944023, 59.301779251577194 ], [ 18.111731825276472, 59.301583127062585 ], [ 18.110609135160178, 59.301962064983933 ], [ 18.114279284561022, 59.304287700777053 ], [ 18.112971177535741, 59.306058884507344 ], [ 18.113090306442409, 59.30891731903754 ], [ 18.105401602256361, 59.31371972366869 ], [ 18.108590636159612, 59.315107052717643 ], [ 18.109327712305841, 59.31767974397799 ], [ 18.120351375189411, 59.318514230468793 ], [ 18.124370133122095, 59.31804005492743 ], [ 18.129430264671342, 59.319645140419382 ], [ 18.138572708041249, 59.320232285141422 ], [ 18.149246581454886, 59.318659262071016 ], [ 18.157170049318356, 59.319816007932047 ], [ 18.160316651097311, 59.320843203406319 ], [ 18.163892914221137, 59.325332559851297 ], [ 18.173078814542027, 59.324303367170181 ], [ 18.18275076013191, 59.326473505313828 ], [ 18.187175200079558, 59.329165651727607 ], [ 18.186916346175728, 59.330391256942811 ], [ 18.189364614154041, 59.334342957470774 ], [ 18.2049732794455, 59.33605008306445 ], [ 18.209854456493023, 59.337274320464758 ], [ 18.262058224230252, 59.360703364493595 ], [ 18.296212240428467, 59.366687680359362 ], [ 18.298735550309207, 59.36867773110896 ], [ 18.324771406969575, 59.36900052177208 ], [ 18.336564328265794, 59.366705376120919 ], [ 18.338395420231457, 59.361634509786739 ], [ 18.346275197231357, 59.359080820817219 ], [ 18.350586467224755, 59.35501370032874 ], [ 18.348798422876069, 59.354327073288729 ], [ 18.351497527007233, 59.346613061090366 ], [ 18.360015287554649, 59.344320964037692 ], [ 18.373759051141363, 59.338298782138025 ], [ 18.349686408011458, 59.331904379616461 ], [ 18.348559848921688, 59.330562579691467 ], [ 18.341251757312264, 59.328991629826 ], [ 18.327738794511895, 59.331799549007464 ], [ 18.333120419476202, 59.328153645600956 ], [ 18.329456198507671, 59.325950748797027 ], [ 18.326763805258189, 59.325409085967188 ], [ 18.327556073639379, 59.324808096998119 ], [ 18.326668602210543, 59.323974805375286 ], [ 18.319236651693569, 59.319636542728752 ], [ 18.325585810928366, 59.312554137539813 ], [ 18.321766451468733, 59.306771912535048 ], [ 18.321665312069481, 59.298258816496144 ], [ 18.323654187661749, 59.289981762112696 ], [ 18.320560072102648, 59.28591505774417 ], [ 18.32558652102642, 59.279007261205287 ], [ 18.334485526864871, 59.2776788035574 ], [ 18.348512805628157, 59.272854795135032 ], [ 18.37457470332393, 59.266101664633837 ], [ 18.38890191147793, 59.263536090227987 ], [ 18.38533618417086, 59.231492020062468 ], [ 18.331215994416709, 59.250221015328165 ], [ 18.308705920885181, 59.251813867872826 ], [ 18.297076396755614, 59.254755715710225 ], [ 18.280050454887771, 59.262940331130274 ], [ 18.266287070007369, 59.2570495765899 ], [ 18.264470167878699, 59.252650470400944 ], [ 18.248918988140744, 59.254669363889825 ], [ 18.236639344614819, 59.252496720299803 ], [ 18.223530618030594, 59.252512450948039 ], [ 18.222813143017632, 59.250093522539807 ], [ 18.214987347553141, 59.248486346965855 ], [ 18.205780297535192, 59.251508605444279 ], [ 18.200078103736885, 59.247473837357923 ], [ 18.196618730705673, 59.247512574346779 ], [ 18.18782977505969, 59.246866412348005 ], [ 18.187794666568056, 59.246863853593425 ], [ 18.18691279406735, 59.246798955652771 ], [ 18.2000780635571, 59.247473796785393 ], [ 18.196653060532473, 59.245049146381184 ], [ 18.19371748678422, 59.229785621701851 ], [ 18.190868637452134, 59.229626053932691 ], [ 18.177189738960738, 59.232426768206679 ], [ 18.175711989557939, 59.233938098329602 ], [ 18.146804903636717, 59.23860732362877 ], [ 18.133674175007616, 59.242401304359447 ], [ 18.127353942329776, 59.240304452036895 ], [ 18.123691123187271, 59.24107545845213 ], [ 18.121908601944327, 59.238168597804375 ], [ 18.124088696306501, 59.234961111277741 ], [ 18.123529372992579, 59.234169331451191 ], [ 18.119997558889207, 59.233551772801228 ], [ 18.11953866408108, 59.2322896227789 ], [ 18.108132719455984, 59.22960193894356 ], [ 18.108025107844107, 59.227252425797907 ], [ 18.087402246298144, 59.231653471369938 ], [ 18.081393882828579, 59.231739828304057 ], [ 18.073742021322584, 59.233891749869663 ], [ 18.065250829039766, 59.239371684813023 ], [ 18.064598867786405, 59.238257342671062 ], [ 18.061225897271431, 59.238154092851453 ], [ 18.062268362170698, 59.240597429946085 ], [ 18.063127097271217, 59.240626495784191 ], [ 18.052225595026631, 59.246721914107972 ], [ 18.050000652978131, 59.244902413585741 ], [ 18.028138024685653, 59.249856199295586 ], [ 18.018729344992746, 59.254073841094964 ], [ 18.018131286786524, 59.25538966305222 ], [ 18.01023409518962, 59.256581359946665 ] ], [ [ 17.892059512894967, 59.26892394812949 ], [ 17.892044829298364, 59.270261058715917 ], [ 17.8920595274856, 59.268922619429425 ], [ 17.892059512894967, 59.26892394812949 ] ], [ [ 18.019101744654037, 59.287105307790945 ], [ 18.019124116215231, 59.287258957711984 ], [ 18.019283212107744, 59.288352379992965 ], [ 18.019101744654037, 59.287105307790945 ] ], [ [ 18.098598957610395, 59.23694473676364 ], [ 18.099375302591199, 59.236855512053729 ], [ 18.098438112556021, 59.236965056984424 ], [ 18.098598957610395, 59.23694473676364 ] ], [ [ 17.959237418177349, 59.280374949927314 ], [ 17.959115316513518, 59.280343665233033 ], [ 17.959273894419969, 59.280384294825133 ], [ 17.959237418177349, 59.280374949927314 ] ], [ [ 18.002959635400064, 59.305053027710244 ], [ 18.002856210646236, 59.305041509951621 ], [ 18.003310980992776, 59.305090713376963 ], [ 18.002959635400064, 59.305053027710244 ] ], [ [ 18.055757040014399, 59.256118143352722 ], [ 18.055582540466467, 59.255985396944794 ], [ 18.055871647430074, 59.256200512346368 ], [ 18.055757040014399, 59.256118143352722 ] ], [ [ 18.056310094120992, 59.254144245812341 ], [ 18.056392780022627, 59.254176381618677 ], [ 18.056104133573424, 59.254069662051094 ], [ 18.056310094120992, 59.254144245812341 ] ], [ [ 18.0601939156717, 59.255641466047777 ], [ 18.060188115092455, 59.255645207570936 ], [ 18.06025152916127, 59.255600478713554 ], [ 18.0601939156717, 59.255641466047777 ] ], [ [ 18.043725271753914, 59.264989716473522 ], [ 18.04358884945534, 59.26488605456678 ], [ 18.043725271800113, 59.264989716428794 ], [ 18.043725271753914, 59.264989716473522 ] ], [ [ 18.113184237460985, 59.30155643508251 ], [ 18.114106349608839, 59.30145779709472 ], [ 18.112421729045277, 59.301679286242148 ], [ 18.113184237460985, 59.30155643508251 ] ], [ [ 18.116391838802077, 59.301157157247026 ], [ 18.116375438394801, 59.301155444355551 ], [ 18.116375471662771, 59.301155438757633 ], [ 18.116391838802077, 59.301157157247026 ] ], [ [ 18.117410993707551, 59.301263506001185 ], [ 18.120298285287845, 59.301225747563095 ], [ 18.1166928782798, 59.301188598015706 ], [ 18.117410993707551, 59.301263506001185 ] ], [ [ 18.120678892625509, 59.301244018268619 ], [ 18.126806163285927, 59.301064137906494 ], [ 18.126959168902179, 59.301080833077314 ], [ 18.123424674160059, 59.301459125016379 ], [ 18.120678892625509, 59.301244018268619 ] ], [ [ 18.13013793410013, 59.301266227546492 ], [ 18.128219407078692, 59.301222412489722 ], [ 18.128015104021326, 59.301198337721416 ], [ 18.128219366636756, 59.301222022594686 ], [ 18.13013793410013, 59.301266227546492 ] ], [ [ 18.130137617780793, 59.301265877897052 ], [ 18.130137525314705, 59.301265880120674 ], [ 18.130107586620792, 59.301243338327822 ], [ 18.130137617780793, 59.301265877897052 ] ], [ [ 18.125621897133055, 59.297865487902172 ], [ 18.12328821356779, 59.296107838392871 ], [ 18.127921676069747, 59.299597396561794 ], [ 18.125621897133055, 59.297865487902172 ] ], [ [ 18.119937914891871, 59.293974185890917 ], [ 18.120539747625845, 59.29412198141317 ], [ 18.120540340702931, 59.294122146026304 ], [ 18.120562601534932, 59.294137408794796 ], [ 18.119937914891871, 59.293974185890917 ] ], [ [ 18.119517856031468, 59.293560067674058 ], [ 18.119426771287056, 59.293848620077533 ], [ 18.119345951844146, 59.293828764510714 ], [ 18.119517856031468, 59.293560067674058 ] ], [ [ 18.1214198876227, 59.290586675949832 ], [ 18.120696503570905, 59.291717529216932 ], [ 18.121354370288131, 59.290686509213529 ], [ 18.1214198876227, 59.290586675949832 ] ], [ [ 18.121526173178761, 59.290420530171467 ], [ 18.121652360080308, 59.290235071752704 ], [ 18.121452886010545, 59.290535119238555 ], [ 18.121526173178761, 59.290420530171467 ] ], [ [ 18.122400397622854, 59.289390148677249 ], [ 18.12186915310464, 59.289989882873201 ], [ 18.122042638077318, 59.289793671842695 ], [ 18.122400397622854, 59.289390148677249 ] ], [ [ 18.124346223500172, 59.287897805651887 ], [ 18.123348755404571, 59.288348722652422 ], [ 18.124421678288488, 59.287863670064169 ], [ 18.124346223500172, 59.287897805651887 ] ], [ [ 18.029655149469363, 59.298483339695267 ], [ 18.030547628694595, 59.297822098827851 ], [ 18.029348404618915, 59.298711891798661 ], [ 18.029655149469363, 59.298483339695267 ] ], [ [ 18.030987652609028, 59.297714281251729 ], [ 18.032198065177834, 59.297421695861772 ], [ 18.030547628694595, 59.297822098827851 ], [ 18.030987652609028, 59.297714281251729 ] ], [ [ 18.034240036235367, 59.296926998307882 ], [ 18.033502200049632, 59.297104881846991 ], [ 18.033145369448835, 59.297192191855288 ], [ 18.034240036235367, 59.296926998307882 ] ], [ [ 18.034240036235367, 59.296926998307882 ], [ 18.035445956141359, 59.296632556952254 ], [ 18.036005587876545, 59.296496882324853 ], [ 18.03656252933429, 59.296362353977827 ], [ 18.034240036235367, 59.296926998307882 ] ], [ [ 18.037100281269328, 59.296230971165429 ], [ 18.037453560686949, 59.296145358499437 ], [ 18.03656252933429, 59.296362353977827 ], [ 18.037100281269328, 59.296230971165429 ] ], [ [ 18.039106502173464, 59.295722386597113 ], [ 18.039280411227818, 59.295626028993397 ], [ 18.039554605361182, 59.295474200549705 ], [ 18.039106502173464, 59.295722386597113 ] ], [ [ 18.045118733140058, 59.293619522400824 ], [ 18.042860033677062, 59.294181867902068 ], [ 18.043431938366528, 59.294038079006953 ], [ 18.045118733140058, 59.293619522400824 ] ], [ [ 18.04642920860222, 59.29329556290449 ], [ 18.047911683104569, 59.292930723080417 ], [ 18.045118733140058, 59.293619522400824 ], [ 18.04642920860222, 59.29329556290449 ] ], [ [ 18.049048048745597, 59.292649220080563 ], [ 18.050080432688357, 59.292395582944792 ], [ 18.047911683104569, 59.292930723080417 ], [ 18.049048048745597, 59.292649220080563 ] ], [ [ 18.052737479978397, 59.2917387153297 ], [ 18.053325748700217, 59.291593250089662 ], [ 18.05466345986823, 59.29126981289312 ], [ 18.052737479978397, 59.2917387153297 ] ], [ [ 18.118373224973546, 59.286600590748499 ], [ 18.119880503949808, 59.286671364432031 ], [ 18.119878973867344, 59.286671324978336 ], [ 18.118373224973546, 59.286600590748499 ] ], [ [ 18.106856377303703, 59.293608933816891 ], [ 18.106851896585951, 59.293635215907372 ], [ 18.106908243503707, 59.293454697153322 ], [ 18.106856377303703, 59.293608933816891 ] ], [ [ 18.186263144109333, 59.246751166924234 ], [ 18.180699797864985, 59.246271810434003 ], [ 18.176733715786515, 59.248750774479156 ], [ 18.180699764119282, 59.246271791050241 ], [ 18.186263144109333, 59.246751166924234 ] ], [ [ 18.149727419656745, 59.265754278298388 ], [ 18.161268541254586, 59.26404401132568 ], [ 18.166876572830116, 59.26321254136559 ], [ 18.17034115022344, 59.262698726082881 ], [ 18.170334218249039, 59.262645996878355 ], [ 18.170341166385619, 59.262698755566561 ], [ 18.149727419656745, 59.265754278298388 ] ], [ [ 18.169998314454652, 59.260106782717337 ], [ 18.170020694067894, 59.260275971310293 ], [ 18.170001667204417, 59.260132522823994 ], [ 18.169998314454652, 59.260106782717337 ] ], [ [ 18.169582581839432, 59.256964085846846 ], [ 18.1695837294114, 59.256972754866709 ], [ 18.169582563989565, 59.256964117159825 ], [ 18.169582581839432, 59.256964085846846 ] ], [ [ 18.169592742976945, 59.256946260727474 ], [ 18.170462657778405, 59.255423485452177 ], [ 18.170462780939779, 59.255423853293038 ], [ 18.169592742976945, 59.256946260727474 ] ], [ [ 18.170385689426908, 59.254746203552983 ], [ 18.170621104316329, 59.25296074788632 ], [ 18.170411053009641, 59.255204211857354 ], [ 18.170385689426908, 59.254746203552983 ] ], [ [ 18.170740796735419, 59.25205289394372 ], [ 18.174778656647298, 59.251180889168459 ], [ 18.174778637297585, 59.251180940503019 ], [ 18.170740796735419, 59.25205289394372 ] ], [ [ 18.174887310798894, 59.250951054749535 ], [ 18.174859796234934, 59.250983726587407 ], [ 18.17491355954974, 59.250919666883632 ], [ 18.174887310798894, 59.250951054749535 ] ], [ [ 18.175849806903177, 59.249804074401041 ], [ 18.175510099690115, 59.250208870138124 ], [ 18.174982289387405, 59.250837773993723 ], [ 18.175849806903177, 59.249804074401041 ] ], [ [ 18.149676340576001, 59.269532215430864 ], [ 18.149735627684251, 59.26699708513037 ], [ 18.149915968749482, 59.26865813085022 ], [ 18.14975991066596, 59.269305052728306 ], [ 18.149676389185217, 59.269532237470592 ], [ 18.150014618377337, 59.269807076470642 ], [ 18.150448079041769, 59.27020224885311 ], [ 18.150352933181669, 59.270455691843267 ], [ 18.149676340576001, 59.269532215430864 ] ], [ [ 18.150266532079787, 59.270847811530686 ], [ 18.150266563248294, 59.270847807143348 ], [ 18.150314633259402, 59.27091992524381 ], [ 18.150266532079787, 59.270847811530686 ] ], [ [ 18.150722407341092, 59.271919573895794 ], [ 18.150270235898788, 59.271238751652611 ], [ 18.15033468996543, 59.271088388593789 ], [ 18.150722407341092, 59.271919573895794 ] ], [ [ 18.152068965009047, 59.273785031114983 ], [ 18.151094607137708, 59.272554627912001 ], [ 18.15109211827253, 59.272512582790334 ], [ 18.152068965009047, 59.273785031114983 ] ], [ [ 18.152069942604328, 59.273786215097971 ], [ 18.151348051307419, 59.274249457772562 ], [ 18.149701389523543, 59.275305956166221 ], [ 18.152069942604328, 59.273786215097971 ] ], [ [ 18.147221723065062, 59.276896801989771 ], [ 18.145943882537757, 59.277716621561567 ], [ 18.144510658143961, 59.278635846270653 ], [ 18.145338393440898, 59.278104934800716 ], [ 18.147221723065062, 59.276896801989771 ] ], [ [ 18.142334982901389, 59.279902256172669 ], [ 18.139448153667914, 59.28115022706762 ], [ 18.142761334629899, 59.279717889005241 ], [ 18.142334982901389, 59.279902256172669 ] ], [ [ 18.138175718923218, 59.28170026151053 ], [ 18.138866936153228, 59.281401475097994 ], [ 18.133364502426506, 59.283863054571498 ], [ 18.138175718923218, 59.28170026151053 ] ] ], [ [ [ 17.907826949988198, 59.362287827814157 ], [ 17.914839181389226, 59.361906290041347 ], [ 17.914786379862679, 59.361383364137211 ], [ 17.916832665116459, 59.361485146162167 ], [ 17.916672829656623, 59.36092382587146 ], [ 17.921753105405404, 59.359390903258578 ], [ 17.910712476517379, 59.356677852241226 ], [ 17.907283410631418, 59.3590155072324 ], [ 17.903703720979252, 59.363130153073627 ], [ 17.90430607115119, 59.364218843218033 ], [ 17.907826949988198, 59.362287827814157 ] ] ] ] } }
]
}
