{"type": "FeatureCollection", "features": [{"type": "Feature", "properties": {"zone_id": "0180R031", "zone_name": "Hagsätra", "car_pct": 47.8, "sustainable_pct": 52.2, "age_0_17": 14.8, "age_18_24": 3.4, "age_25_34": 18.7, "age_35_44": 25, "age_45_54": 13.4, "age_55_64": 10, "age_65p": 14.7, "pct_man": 47.5, "pct_kvinna": 52.5, "peak_hour": 16, "hourly_index": [16, 15, 10, 9, 10, 19, 18, 46, 88, 61, 50, 61, 46, 47, 48, 70, 100, 98, 75, 58, 48, 36, 29, 18]}, "geometry": {"type": "Polygon", "coordinates": [[[18.0167667, 59.27293936], [18.02123213, 59.2672858], [18.0270968, 59.26372962], [18.02547233, 59.26125644], [18.01905373, 59.26140783], [18.01500557, 59.2595867], [18.01398113, 59.25608713], [17.99845249, 59.25985031], [17.99780468, 59.26444878], [18.01435304, 59.27220656], [18.01333759, 59.27291802], [18.01494087, 59.27401596], [18.0167667, 59.27293936]]]}}, {"type": "Feature", "properties": {"zone_id": "0180R032", "zone_name": "Hammarbyhöjden", "car_pct": 32.5, "sustainable_pct": 67.5, "age_0_17": 13.1, "age_18_24": 6.8, "age_25_34": 28.7, "age_35_44": 18.2, "age_45_54": 12.5, "age_55_64": 9, "age_65p": 11.6, "pct_man": 45.2, "pct_kvinna": 54.8, "peak_hour": 9, "hourly_index": [8, 8, 13, 6, 5, 0, 8, 32, 74, 100, 41, 29, 30, 38, 35, 38, 50, 77, 69, 44, 33, 27, 20, 12]}, "geometry": {"type": "Polygon", "coordinates": [[[18.10077665, 59.28998477], [18.09106318, 59.28895521], [18.09218427, 59.2947643], [18.08680294, 59.2975719], [18.0857069, 59.29967199], [18.10495037, 59.30100762], [18.10521528, 59.29719241], [18.10874618, 59.29093821], [18.10077665, 59.28998477]]]}}, {"type": "Feature", "properties": {"zone_id": "0180R033", "zone_name": "Hedvig Eleonora", "car_pct": 23.6, "sustainable_pct": 76.4, "age_0_17": 22.6, "age_18_24": 8.7, "age_25_34": 22.7, "age_35_44": 11.6, "age_45_54": 10.4, "age_55_64": 11.9, "age_65p": 12, "pct_man": 47.5, "pct_kvinna": 52.5, "peak_hour": 9, "hourly_index": [5, 5, 4, 3, 3, 3, 8, 13, 53, 100, 49, 32, 43, 49, 41, 48, 50, 64, 78, 53, 31, 21, 17, 9]}, "geometry": {"type": "Polygon", "coordinates": [[[18.08240955, 59.3333257], [18.08033171, 59.33065846], [18.073951, 59.33463259], [18.08041368, 59.34316395], [18.08884759, 59.34119006], [18.08240955, 59.3333257]]]}}, {"type": "Feature", "properties": {"zone_id": "0180R034", "zone_name": "Herrängen", "car_pct": 28, "sustainable_pct": 72, "age_0_17": 13, "age_18_24": 3.4, "age_25_34": 9.9, "age_35_44": 18.6, "age_45_54": 27.3, "age_55_64": 14.4, "age_65p": 13.3, "pct_man": 51.2, "pct_kvinna": 48.8, "peak_hour": 16, "hourly_index": [65, 36, 38, 0, 27, 0, 22, 50, 96, 94, 59, 47, 64, 91, 67, 84, 100, 87, 83, 47, 72, 40, 52, 33]}, "geometry": {"type": "Polygon", "coordinates": [[[17.96856942, 59.28020245], [17.98055931, 59.27629819], [17.97739194, 59.27319047], [17.97682142, 59.26977909], [17.97030247, 59.26961553], [17.96764559, 59.26739085], [17.96158112, 59.26933056], [17.95527293, 59.27429572], [17.95679844, 59.28001532], [17.96310703, 59.28139148], [17.96229855, 59.2821819], [17.96856942, 59.28020245]]]}}, {"type": "Feature", "properties": {"zone_id": "0180R042", "zone_name": "Högdalen", "car_pct": 38.2, "sustainable_pct": 61.8, "age_0_17": 12.5, "age_18_24": 9, "age_25_34": 24.1, "age_35_44": 18.7, "age_45_54": 13.1, "age_55_64": 10.2, "age_65p": 12.4, "pct_man": 49.5, "pct_kvinna": 50.5, "peak_hour": 16, "hourly_index": [17, 15, 9, 8, 8, 14, 14, 26, 81, 91, 61, 58, 52, 73, 60, 77, 100, 96, 93, 73, 66, 39, 40, 23]}, "geometry": {"type": "Polygon", "coordinates": [[[18.03914138, 59.26957061], [18.0377085, 59.26863546], [18.04409305, 59.26446152], [18.04788024, 59.26715507], [18.05140458, 59.26334917], [18.063731, 59.26317001], [18.06799094, 59.26089856], [18.06353809, 59.25913005], [18.0633445, 59.25617743], [18.05815514, 59.25711976], [18.04502784, 59.25198485], [18.04060657, 59.25783632], [18.02696413, 59.26349866], [18.02840024, 59.26426252], [18.02667262, 59.26533414], [18.02938839, 59.26670996], [18.03914138, 59.26957061]]]}}, {"type": "Feature", "properties": {"zone_id": "0180R060", "zone_name": "Mariehäll", "car_pct": 41.9, "sustainable_pct": 58.1, "age_0_17": 18.4, "age_18_24": 5, "age_25_34": 21.3, "age_35_44": 22.6, "age_45_54": 12, "age_55_64": 11.7, "age_65p": 8.9, "pct_man": 47.3, "pct_kvinna": 52.7, "peak_hour": 8, "hourly_index": [10, 10, 11, 0, 0, 0, 12, 32, 100, 68, 44, 34, 33, 38, 48, 46, 58, 76, 69, 44, 34, 30, 26, 22]}, "geometry": {"type": "Polygon", "coordinates": [[[17.96169734, 59.35709707], [17.94844507, 59.35820569], [17.94359933, 59.36131617], [17.94636069, 59.36752785], [17.95998031, 59.36126831], [17.96313254, 59.35828592], [17.96169734, 59.35709707]]]}}, {"type": "Feature", "properties": {"zone_id": "0180R061", "zone_name": "Mellersta Högalid", "car_pct": 25.1, "sustainable_pct": 74.9, "age_0_17": 16.9, "age_18_24": 5.8, "age_25_34": 23.2, "age_35_44": 13.5, "age_45_54": 11.8, "age_55_64": 13.3, "age_65p": 15.6, "pct_man": 47.2, "pct_kvinna": 52.8, "peak_hour": 18, "hourly_index": [9, 5, 5, 6, 6, 5, 8, 20, 49, 79, 46, 45, 42, 63, 57, 57, 79, 96, 100, 52, 36, 36, 31, 14]}, "geometry": {"type": "Polygon", "coordinates": [[[18.05743842, 59.31748566], [18.05805122, 59.31624443], [18.05608237, 59.31599498], [18.05727746, 59.31359232], [18.04557138, 59.31456162], [18.03447795, 59.31252529], [18.02876114, 59.31475716], [18.04225437, 59.31790232], [18.05680431, 59.31878066], [18.05743842, 59.31748566]]]}}, {"type": "Feature", "properties": {"zone_id": "0180R062", "zone_name": "Midsommarkransen", "car_pct": 31.5, "sustainable_pct": 68.5, "age_0_17": 15.6, "age_18_24": 6.6, "age_25_34": 27.6, "age_35_44": 13.6, "age_45_54": 16.9, "age_55_64": 9.9, "age_65p": 9.9, "pct_man": 52.4, "pct_kvinna": 47.6, "peak_hour": 8, "hourly_index": [7, 5, 5, 6, 5, 0, 7, 22, 100, 93, 50, 45, 43, 45, 49, 57, 92, 91, 86, 55, 41, 37, 25, 17]}, "geometry": {"type": "Polygon", "coordinates": [[[18.01026474, 59.29979981], [18.00388964, 59.29977468], [17.99776452, 59.29749237], [17.98772289, 59.29721231], [17.98796833, 59.29932759], [17.99103875, 59.30012774], [17.99069396, 59.30444954], [18.02282064, 59.30703721], [18.01771247, 59.3020844], [18.01026474, 59.29979981]]]}}, {"type": "Feature", "properties": {"zone_id": "0180R071", "zone_name": "Norra Ängby", "car_pct": 45.4, "sustainable_pct": 54.6, "age_0_17": 19.8, "age_18_24": 4, "age_25_34": 11.7, "age_35_44": 17.3, "age_45_54": 19.8, "age_55_64": 14, "age_65p": 13.4, "pct_man": 54.7, "pct_kvinna": 45.3, "peak_hour": 8, "hourly_index": [16, 18, 10, 10, 5, 11, 16, 33, 100, 65, 40, 37, 44, 38, 42, 44, 74, 75, 69, 36, 33, 32, 24, 17]}, "geometry": {"type": "Polygon", "coordinates": [[[17.91829753, 59.34855385], [17.92542044, 59.34897053], [17.93109637, 59.34304614], [17.92957346, 59.34112324], [17.92373142, 59.34264205], [17.90779659, 59.34233962], [17.88503475, 59.35176828], [17.88777725, 59.35325777], [17.88897028, 59.35657529], [17.91829753, 59.34855385]]]}}, {"type": "Feature", "properties": {"zone_id": "0180R086", "zone_name": "Stora Mossen", "car_pct": 33.4, "sustainable_pct": 66.6, "age_0_17": 13.5, "age_18_24": 1, "age_25_34": 16.5, "age_35_44": 19.2, "age_45_54": 22.9, "age_55_64": 12.9, "age_65p": 14.1, "pct_man": 41.8, "pct_kvinna": 58.2, "peak_hour": 16, "hourly_index": [0, 32, 23, 28, 35, 0, 53, 49, 57, 91, 73, 46, 56, 41, 48, 80, 100, 99, 75, 91, 64, 37, 45, 53]}, "geometry": {"type": "Polygon", "coordinates": [[[17.95862156, 59.33565498], [17.96928989, 59.3339392], [17.97280689, 59.3324198], [17.9695651, 59.33174492], [17.97057499, 59.3307888], [17.96884694, 59.32871459], [17.95495674, 59.32875556], [17.95409116, 59.33506819], [17.95479141, 59.33622706], [17.95862156, 59.33565498]]]}}, {"type": "Feature", "properties": {"zone_id": "0180R087", "zone_name": "Storkyrkan", "car_pct": 25.8, "sustainable_pct": 74.2, "age_0_17": 17.7, "age_18_24": 11, "age_25_34": 24, "age_35_44": 13.1, "age_45_54": 11, "age_55_64": 11.5, "age_65p": 11.7, "pct_man": 49.3, "pct_kvinna": 50.7, "peak_hour": 18, "hourly_index": [9, 5, 4, 3, 4, 4, 6, 10, 38, 68, 30, 34, 40, 57, 43, 47, 64, 89, 100, 56, 35, 29, 25, 15]}, "geometry": {"type": "Polygon", "coordinates": [[[18.07663783, 59.32720594], [18.08452888, 59.3200783], [18.05691137, 59.32406517], [18.05741619, 59.32704408], [18.07447495, 59.32906947], [18.07663783, 59.32720594]]]}}, {"type": "Feature", "properties": {"zone_id": "0180R088", "zone_name": "Stureby", "car_pct": 32.3, "sustainable_pct": 67.7, "age_0_17": 16.2, "age_18_24": 10.6, "age_25_34": 17.7, "age_35_44": 12.3, "age_45_54": 20.6, "age_55_64": 9.9, "age_65p": 12.7, "pct_man": 54, "pct_kvinna": 46, "peak_hour": 9, "hourly_index": [10, 14, 11, 4, 0, 13, 15, 37, 98, 100, 47, 42, 46, 49, 39, 48, 57, 87, 64, 52, 41, 38, 30, 22]}, "geometry": {"type": "Polygon", "coordinates": [[[18.06374878, 59.2645614], [18.063731, 59.26317001], [18.05573548, 59.26937298], [18.04219566, 59.2749113], [18.03724647, 59.2806283], [18.04785737, 59.28531582], [18.06906495, 59.27963316], [18.06331255, 59.27606106], [18.06376831, 59.27152722], [18.06610019, 59.26994697], [18.06609988, 59.26826012], [18.0638009, 59.26769426], [18.06374878, 59.2645614]]]}}, {"type": "Feature", "properties": {"zone_id": "0180R097", "zone_name": "Södra Sofia", "car_pct": 23.9, "sustainable_pct": 76.1, "age_0_17": 16.9, "age_18_24": 7.2, "age_25_34": 17, "age_35_44": 12.7, "age_45_54": 17.3, "age_55_64": 11.4, "age_65p": 17.5, "pct_man": 48.8, "pct_kvinna": 51.2, "peak_hour": 9, "hourly_index": [12, 13, 6, 6, 3, 4, 7, 12, 62, 100, 43, 36, 53, 61, 49, 60, 73, 99, 86, 58, 36, 36, 33, 15]}, "geometry": {"type": "Polygon", "coordinates": [[[18.10494441, 59.31389579], [18.0987159, 59.307962], [18.08509089, 59.30449167], [18.0788852, 59.3033051], [18.07637934, 59.30784649], [18.09635375, 59.31366085], [18.10494441, 59.31389579]]]}}, {"type": "Feature", "properties": {"zone_id": "0180R098", "zone_name": "Södra Station", "car_pct": 24.7, "sustainable_pct": 75.3, "age_0_17": 18.3, "age_18_24": 5.5, "age_25_34": 20.7, "age_35_44": 11.3, "age_45_54": 11.8, "age_55_64": 13.8, "age_65p": 18.6, "pct_man": 47.7, "pct_kvinna": 52.3, "peak_hour": 9, "hourly_index": [8, 17, 12, 0, 6, 16, 14, 28, 64, 100, 52, 46, 57, 75, 60, 63, 90, 96, 84, 49, 30, 26, 27, 17]}, "geometry": {"type": "Polygon", "coordinates": [[[18.06980496, 59.31579534], [18.07176404, 59.31404081], [18.06898629, 59.31291407], [18.05827205, 59.31149884], [18.05727746, 59.31359232], [18.06980496, 59.31579534]]]}}, {"type": "Feature", "properties": {"zone_id": "0180R099", "zone_name": "Södra Ängby", "car_pct": 47.4, "sustainable_pct": 52.6, "age_0_17": 18.7, "age_18_24": 2, "age_25_34": 14.3, "age_35_44": 14.4, "age_45_54": 21.1, "age_55_64": 11, "age_65p": 18.4, "pct_man": 50.3, "pct_kvinna": 49.7, "peak_hour": 16, "hourly_index": [0, 52, 0, 54, 0, 0, 36, 56, 76, 75, 72, 56, 76, 80, 64, 69, 100, 87, 93, 56, 60, 48, 46, 40]}, "geometry": {"type": "Polygon", "coordinates": [[[17.9022092, 59.34398455], [17.91456152, 59.34226095], [17.914948, 59.33735751], [17.90147741, 59.33795721], [17.89716945, 59.33736232], [17.89350167, 59.33389073], [17.88882172, 59.33425738], [17.88887063, 59.33841078], [17.88673262, 59.34084149], [17.89369624, 59.34710676], [17.9022092, 59.34398455]]]}}, {"type": "Feature", "properties": {"zone_id": "0180R100", "zone_name": "Tallkrogen", "car_pct": 30.6, "sustainable_pct": 69.4, "age_0_17": 15.1, "age_18_24": 16.2, "age_25_34": 16.3, "age_35_44": 9.9, "age_45_54": 18.7, "age_55_64": 12, "age_65p": 11.7, "pct_man": 44.3, "pct_kvinna": 55.7, "peak_hour": 9, "hourly_index": [14, 11, 55, 11, 12, 39, 22, 36, 49, 100, 59, 45, 66, 69, 58, 76, 71, 72, 71, 55, 43, 37, 34, 30]}, "geometry": {"type": "Polygon", "coordinates": [[[18.08142735, 59.27706939], [18.0932861, 59.27549068], [18.09697811, 59.26712307], [18.08642201, 59.26640749], [18.08272054, 59.26524136], [18.0830352, 59.26395763], [18.07935373, 59.26543961], [18.07332594, 59.27263941], [18.0793993, 59.27406999], [18.07748448, 59.27793539], [18.08142735, 59.27706939]]]}}, {"type": "Feature", "properties": {"zone_id": "0180R107", "zone_name": "Vinsta", "car_pct": 41, "sustainable_pct": 59, "age_0_17": 11.2, "age_18_24": 8.9, "age_25_34": 17.8, "age_35_44": 19.4, "age_45_54": 21.2, "age_55_64": 7.7, "age_65p": 13.9, "pct_man": 58.3, "pct_kvinna": 41.7, "peak_hour": 16, "hourly_index": [20, 13, 18, 18, 11, 8, 24, 27, 88, 81, 58, 55, 64, 59, 47, 69, 100, 57, 62, 48, 47, 38, 25, 27]}, "geometry": {"type": "Polygon", "coordinates": [[[17.86174022, 59.37922288], [17.86638438, 59.37865388], [17.86555648, 59.37516467], [17.86952056, 59.37403949], [17.86221867, 59.37127322], [17.85982152, 59.36612625], [17.83492858, 59.37561849], [17.83752166, 59.3760639], [17.83663019, 59.37745788], [17.83930045, 59.37958439], [17.84305407, 59.37871123], [17.85282878, 59.38040997], [17.86174022, 59.37922288]]]}}, {"type": "Feature", "properties": {"zone_id": "0180R108", "zone_name": "Vårberg", "car_pct": 67.7, "sustainable_pct": 32.3, "age_0_17": 13.6, "age_18_24": 12.6, "age_25_34": 21.6, "age_35_44": 17.2, "age_45_54": 18.3, "age_55_64": 11.5, "age_65p": 5.2, "pct_man": 49.7, "pct_kvinna": 50.3, "peak_hour": 17, "hourly_index": [24, 16, 28, 23, 0, 10, 21, 37, 58, 48, 30, 45, 44, 36, 45, 55, 58, 100, 67, 62, 49, 40, 42, 17]}, "geometry": {"type": "Polygon", "coordinates": [[[17.88557989, 59.28366726], [17.89179715, 59.28174154], [17.8877722, 59.27917655], [17.89374174, 59.27929944], [17.89612936, 59.27145456], [17.89196237, 59.27018367], [17.8923613, 59.26892299], [17.88162998, 59.27021439], [17.87790322, 59.26811281], [17.87530897, 59.26902975], [17.87214525, 59.27320183], [17.86349221, 59.27454374], [17.86797841, 59.27957361], [17.86530142, 59.28622175], [17.88532197, 59.28711425], [17.88557989, 59.28366726]]]}}, {"type": "Feature", "properties": {"zone_id": "0180R109", "zone_name": "Vällingby", "car_pct": 39.8, "sustainable_pct": 60.2, "age_0_17": 10.8, "age_18_24": 6.2, "age_25_34": 20.6, "age_35_44": 19.9, "age_45_54": 17.3, "age_55_64": 9.9, "age_65p": 15.3, "pct_man": 45.3, "pct_kvinna": 54.7, "peak_hour": 17, "hourly_index": [15, 10, 11, 12, 9, 8, 17, 25, 65, 56, 47, 41, 50, 66, 60, 73, 88, 100, 73, 62, 57, 39, 31, 18]}, "geometry": {"type": "Polygon", "coordinates": [[[17.88873068, 59.3665793], [17.88079858, 59.36599842], [17.87422821, 59.36180764], [17.87241766, 59.35882857], [17.85982152, 59.36612625], [17.86221867, 59.37127322], [17.86952056, 59.37403949], [17.88873068, 59.3665793]]]}}, {"type": "Feature", "properties": {"zone_id": "0180R122", "zone_name": "Östberga", "car_pct": 38.9, "sustainable_pct": 61.1, "age_0_17": 19.3, "age_18_24": 6.8, "age_25_34": 19.4, "age_35_44": 19.2, "age_45_54": 16.2, "age_55_64": 10.1, "age_65p": 9, "pct_man": 52.4, "pct_kvinna": 47.6, "peak_hour": 8, "hourly_index": [13, 19, 12, 6, 14, 22, 19, 57, 100, 85, 98, 57, 71, 73, 73, 80, 97, 97, 93, 62, 48, 44, 43, 31]}, "geometry": {"type": "Polygon", "coordinates": [[[18.05630859, 59.29154792], [18.04386525, 59.28598085], [18.04620526, 59.28454347], [18.04035882, 59.28200256], [18.02551014, 59.28956719], [18.01912772, 59.28726034], [18.02063559, 59.29419732], [18.0280265, 59.29968693], [18.03054252, 59.29782798], [18.05630859, 59.29154792]]]}}, {"type": "Feature", "properties": {"zone_id": "0180R123", "zone_name": "Östra Farsta Strand", "car_pct": 47.3, "sustainable_pct": 52.7, "age_0_17": 18.1, "age_18_24": 4.4, "age_25_34": 16.5, "age_35_44": 19.2, "age_45_54": 17.8, "age_55_64": 15.4, "age_65p": 8.6, "pct_man": 43.4, "pct_kvinna": 56.6, "peak_hour": 8, "hourly_index": [13, 26, 17, 5, 24, 30, 27, 67, 100, 65, 56, 46, 53, 66, 56, 60, 72, 85, 83, 55, 48, 33, 22, 33]}, "geometry": {"type": "Polygon", "coordinates": [[[18.11333978, 59.23643485], [18.1201086, 59.23326984], [18.10813275, 59.22960198], [18.10802514, 59.22725242], [18.09794292, 59.22891306], [18.09854571, 59.23212809], [18.09383204, 59.2344303], [18.09814477, 59.23697378], [18.11333978, 59.23643485]]]}}, {"type": "Feature", "properties": {"zone_id": "0180R124", "zone_name": "Östra Katarina", "car_pct": 28.2, "sustainable_pct": 71.8, "age_0_17": 17.4, "age_18_24": 8.7, "age_25_34": 24.5, "age_35_44": 13.2, "age_45_54": 11.9, "age_55_64": 12.2, "age_65p": 12.1, "pct_man": 47.5, "pct_kvinna": 52.5, "peak_hour": 17, "hourly_index": [10, 4, 3, 2, 2, 2, 3, 15, 52, 75, 38, 37, 41, 54, 42, 49, 70, 100, 89, 61, 39, 36, 28, 18]}, "geometry": {"type": "Polygon", "coordinates": [[[18.07957972, 59.30824332], [18.07637934, 59.30784649], [18.06931971, 59.32211888], [18.08357126, 59.32021338], [18.08294624, 59.31744699], [18.08630007, 59.30998074], [18.07957972, 59.30824332]]]}}, {"type": "Feature", "properties": {"zone_id": "0180R125", "zone_name": "Östra Matteus", "car_pct": 26.7, "sustainable_pct": 73.3, "age_0_17": 25.7, "age_18_24": 7.7, "age_25_34": 18.4, "age_35_44": 11, "age_45_54": 15.1, "age_55_64": 12.8, "age_65p": 9.2, "pct_man": 48, "pct_kvinna": 52, "peak_hour": 17, "hourly_index": [7, 6, 6, 15, 6, 14, 23, 16, 53, 91, 41, 36, 42, 43, 29, 38, 47, 100, 94, 52, 29, 20, 22, 15]}, "geometry": {"type": "Polygon", "coordinates": [[[18.04605704, 59.35170472], [18.05325901, 59.3464045], [18.04179306, 59.34344856], [18.04396779, 59.34121958], [18.03891463, 59.33987453], [18.03763096, 59.34120299], [18.04025296, 59.34718627], [18.04605704, 59.35170472]]]}}, {"type": "Feature", "properties": {"zone_id": "0180R021", "zone_name": "Farsta", "car_pct": 46.1, "sustainable_pct": 53.9, "age_0_17": 14.7, "age_18_24": 7, "age_25_34": 17.6, "age_35_44": 22.1, "age_45_54": 15.5, "age_55_64": 10.7, "age_65p": 12.4, "pct_man": 45.8, "pct_kvinna": 54.2, "peak_hour": 17, "hourly_index": [9, 7, 5, 6, 5, 5, 18, 48, 85, 75, 61, 58, 63, 82, 73, 90, 98, 100, 95, 52, 47, 38, 26, 14]}, "geometry": {"type": "Polygon", "coordinates": [[[18.1000875, 59.2526551], [18.10075963, 59.25121697], [18.10702614, 59.25136092], [18.11085876, 59.24812587], [18.09814477, 59.23697378], [18.06956224, 59.24526967], [18.07420839, 59.25024216], [18.08742381, 59.25085979], [18.08844219, 59.25205339], [18.09168389, 59.25119047], [18.09611155, 59.25375233], [18.10034335, 59.25383678], [18.1000875, 59.2526551]]]}}, {"type": "Feature", "properties": {"zone_id": "0180R022", "zone_name": "Flysta", "car_pct": 40.5, "sustainable_pct": 59.5, "age_0_17": 20.6, "age_18_24": 21.5, "age_25_34": 7.3, "age_35_44": 13.8, "age_45_54": 17.3, "age_55_64": 7.9, "age_65p": 11.7, "pct_man": 64.3, "pct_kvinna": 35.7, "peak_hour": 20, "hourly_index": [0, 36, 0, 37, 0, 0, 61, 62, 87, 61, 56, 65, 61, 62, 62, 59, 79, 83, 85, 54, 100, 67, 55, 41]}, "geometry": {"type": "Polygon", "coordinates": [[[17.90680647, 59.37514792], [17.9090215, 59.37134451], [17.91148155, 59.37022329], [17.91001782, 59.3680728], [17.91213265, 59.36740137], [17.90434028, 59.36420692], [17.90097254, 59.36614607], [17.8986843, 59.36486404], [17.8926539, 59.36607329], [17.895409, 59.36878057], [17.8937082, 59.37005128], [17.89516324, 59.37110305], [17.90680647, 59.37514792]]]}}, {"type": "Feature", "properties": {"zone_id": "0180R023", "zone_name": "Fredhäll", "car_pct": 30.1, "sustainable_pct": 69.9, "age_0_17": 17.8, "age_18_24": 4, "age_25_34": 23.4, "age_35_44": 15.4, "age_45_54": 11.1, "age_55_64": 12.1, "age_65p": 16.2, "pct_man": 53.5, "pct_kvinna": 46.5, "peak_hour": 17, "hourly_index": [19, 26, 5, 0, 11, 21, 15, 24, 92, 99, 31, 37, 39, 66, 43, 51, 86, 100, 100, 69, 53, 42, 31, 26]}, "geometry": {"type": "Polygon", "coordinates": [[[18.010982, 59.32762062], [18.00807001, 59.32614557], [17.99678821, 59.32727579], [17.99100262, 59.32974837], [17.99495077, 59.33377441], [17.997333, 59.33365645], [18.01106106, 59.33152544], [18.00909305, 59.32868211], [18.010982, 59.32762062]]]}}, {"type": "Feature", "properties": {"zone_id": "0180R035", "zone_name": "Hjorthagen-Värtahamnen", "car_pct": 32.4, "sustainable_pct": 67.6, "age_0_17": 22.1, "age_18_24": 10, "age_25_34": 18.1, "age_35_44": 12.8, "age_45_54": 12.8, "age_55_64": 10.6, "age_65p": 13.6, "pct_man": 46.8, "pct_kvinna": 53.2, "peak_hour": 9, "hourly_index": [8, 8, 7, 7, 5, 13, 18, 32, 65, 100, 42, 47, 56, 63, 49, 63, 78, 91, 98, 59, 31, 33, 25, 16]}, "geometry": {"type": "Polygon", "coordinates": [[[18.11875123, 59.34443441], [18.11448645, 59.34403015], [18.11070571, 59.34667663], [18.09769361, 59.34998629], [18.09978498, 59.35064032], [18.08465275, 59.35249315], [18.08653803, 59.35437956], [18.08360096, 59.35670576], [18.09256472, 59.36039615], [18.10699441, 59.36264947], [18.1261711, 59.34765756], [18.11875123, 59.34443441]]]}}, {"type": "Feature", "properties": {"zone_id": "0180R036", "zone_name": "Husby", "car_pct": 55.5, "sustainable_pct": 44.5, "age_0_17": 16.1, "age_18_24": 12.1, "age_25_34": 22.4, "age_35_44": 18.3, "age_45_54": 14.8, "age_55_64": 8.7, "age_65p": 7.6, "pct_man": 35.5, "pct_kvinna": 64.5, "peak_hour": 17, "hourly_index": [23, 41, 18, 14, 24, 16, 27, 38, 60, 53, 43, 55, 45, 65, 47, 63, 99, 100, 51, 68, 67, 39, 38, 55]}, "geometry": {"type": "Polygon", "coordinates": [[[17.93224402, 59.41272313], [17.93803925, 59.40743246], [17.93293966, 59.40456608], [17.92403796, 59.40378373], [17.92120361, 59.3947683], [17.90858716, 59.39805745], [17.90730016, 59.40316471], [17.90959643, 59.4060046], [17.91455346, 59.40683481], [17.92261911, 59.41216874], [17.92546973, 59.41605632], [17.93224402, 59.41272313]]]}}, {"type": "Feature", "properties": {"zone_id": "0180R043", "zone_name": "Höglandet", "car_pct": 31, "sustainable_pct": 69, "age_0_17": 9, "age_18_24": 4.4, "age_25_34": 47.8, "age_35_44": 3.8, "age_45_54": 11.9, "age_55_64": 21.5, "age_65p": 1.6, "pct_man": 25.7, "pct_kvinna": 74.3, "peak_hour": 17, "hourly_index": [0, 0, 0, 0, 0, 0, 0, 80, 53, 59, 74, 85, 85, 85, 51, 45, 55, 100, 0, 69, 44, 51, 85, 0]}, "geometry": {"type": "Polygon", "coordinates": [[[17.93974014, 59.32730192], [17.94377168, 59.32070587], [17.93956528, 59.31815662], [17.9287045, 59.32136075], [17.93192676, 59.32511418], [17.93475866, 59.32586444], [17.93392114, 59.32659313], [17.93974014, 59.32730192]]]}}, {"type": "Feature", "properties": {"zone_id": "0180R044", "zone_name": "Hökarängen", "car_pct": 37.3, "sustainable_pct": 62.7, "age_0_17": 17.9, "age_18_24": 7.2, "age_25_34": 18, "age_35_44": 20, "age_45_54": 14.3, "age_55_64": 10.1, "age_65p": 12.6, "pct_man": 47.2, "pct_kvinna": 52.8, "peak_hour": 17, "hourly_index": [11, 8, 11, 6, 8, 10, 22, 41, 94, 84, 49, 62, 56, 66, 61, 83, 92, 100, 81, 77, 49, 44, 30, 23]}, "geometry": {"type": "Polygon", "coordinates": [[[18.10076795, 59.25837842], [18.10034335, 59.25383678], [18.09611155, 59.25375233], [18.09168389, 59.25119047], [18.08844219, 59.25205339], [18.08742381, 59.25085979], [18.07427898, 59.25022432], [18.06889243, 59.25413354], [18.0706852, 59.25594385], [18.0725817, 59.25554794], [18.07165391, 59.25863603], [18.07333701, 59.25938081], [18.08115532, 59.25815873], [18.10014075, 59.26032662], [18.10076795, 59.25837842]]]}}, {"type": "Feature", "properties": {"zone_id": "0180R045", "zone_name": "Johanneshov", "car_pct": 38, "sustainable_pct": 62, "age_0_17": 16.4, "age_18_24": 8.8, "age_25_34": 24, "age_35_44": 16.2, "age_45_54": 14.9, "age_55_64": 11.3, "age_65p": 8.5, "pct_man": 47.7, "pct_kvinna": 52.3, "peak_hour": 9, "hourly_index": [7, 6, 6, 4, 3, 8, 8, 27, 76, 100, 48, 34, 42, 46, 36, 45, 58, 73, 72, 51, 35, 22, 25, 12]}, "geometry": {"type": "Polygon", "coordinates": [[[18.08013965, 59.30231901], [18.09218427, 59.2947643], [18.09106318, 59.28895521], [18.08058493, 59.2867922], [18.0762959, 59.28844702], [18.06957093, 59.29609995], [18.07994962, 59.2997717], [18.08013965, 59.30231901]]]}}, {"type": "Feature", "properties": {"zone_id": "0180R063", "zone_name": "Mälarhöjden", "car_pct": 43, "sustainable_pct": 57, "age_0_17": 13.8, "age_18_24": 9.2, "age_25_34": 14.6, "age_35_44": 19.2, "age_45_54": 18.7, "age_55_64": 15.3, "age_65p": 9.1, "pct_man": 49.8, "pct_kvinna": 50.2, "peak_hour": 17, "hourly_index": [20, 27, 23, 15, 15, 32, 56, 66, 79, 64, 34, 36, 41, 46, 43, 56, 79, 100, 88, 64, 49, 52, 46, 31]}, "geometry": {"type": "Polygon", "coordinates": [[[17.95456448, 59.29021238], [17.94733221, 59.28759624], [17.9457559, 59.29397514], [17.93643804, 59.30362371], [17.9381433, 59.30560655], [17.95023414, 59.30755363], [17.95311144, 59.30375478], [17.95565986, 59.30338439], [17.95719193, 59.30061662], [17.95653531, 59.2983289], [17.96374545, 59.29500503], [17.95821752, 59.29098245], [17.95456448, 59.29021238]]]}}, {"type": "Feature", "properties": {"zone_id": "0180R064", "zone_name": "Nockeby", "car_pct": 41, "sustainable_pct": 59, "age_0_17": 14.4, "age_18_24": 0.6, "age_25_34": 21.7, "age_35_44": 9.5, "age_45_54": 18.8, "age_55_64": 13.6, "age_65p": 21.4, "pct_man": 36.7, "pct_kvinna": 63.3, "peak_hour": 13, "hourly_index": [47, 0, 0, 65, 39, 0, 25, 46, 91, 74, 63, 59, 77, 100, 56, 76, 94, 100, 79, 70, 54, 82, 55, 40]}, "geometry": {"type": "Polygon", "coordinates": [[[17.93838693, 59.32749525], [17.93392114, 59.32659313], [17.93475866, 59.32586444], [17.93192676, 59.32511418], [17.9287045, 59.32136075], [17.90985092, 59.32698463], [17.92366867, 59.33217562], [17.93044754, 59.33316218], [17.93343887, 59.33297096], [17.93838693, 59.32749525]]]}}, {"type": "Feature", "properties": {"zone_id": "0180R065", "zone_name": "Nockebyhov-Olovslund", "car_pct": 38.3, "sustainable_pct": 61.7, "age_0_17": 20.5, "age_18_24": 2.8, "age_25_34": 14.4, "age_35_44": 11.7, "age_45_54": 18.2, "age_55_64": 12.2, "age_65p": 20.2, "pct_man": 47.5, "pct_kvinna": 52.5, "peak_hour": 17, "hourly_index": [22, 29, 0, 24, 17, 18, 37, 24, 93, 68, 45, 52, 43, 55, 62, 70, 98, 100, 77, 44, 33, 44, 42, 22]}, "geometry": {"type": "Polygon", "coordinates": [[[17.92328848, 59.3397349], [17.92629231, 59.34008791], [17.92799119, 59.33686707], [17.93504481, 59.33279966], [17.9429757, 59.33274308], [17.94615548, 59.32984535], [17.93838693, 59.32749525], [17.93343887, 59.33297096], [17.92672394, 59.33289813], [17.90985092, 59.32698463], [17.89350167, 59.33389073], [17.89716945, 59.33736232], [17.914948, 59.33735751], [17.91456152, 59.34226095], [17.92450626, 59.34256384], [17.92328848, 59.3397349]]]}}, {"type": "Feature", "properties": {"zone_id": "0180R072", "zone_name": "Nälsta", "car_pct": 32.3, "sustainable_pct": 67.7, "age_0_17": 17.5, "age_18_24": 6.3, "age_25_34": 8.8, "age_35_44": 21.4, "age_45_54": 20.7, "age_55_64": 8.6, "age_65p": 16.7, "pct_man": 50.3, "pct_kvinna": 49.7, "peak_hour": 16, "hourly_index": [22, 20, 25, 19, 16, 30, 31, 31, 86, 68, 51, 51, 66, 50, 52, 57, 100, 90, 73, 55, 37, 52, 40, 21]}, "geometry": {"type": "Polygon", "coordinates": [[[17.87301155, 59.37922312], [17.88286974, 59.37771202], [17.88358695, 59.37553979], [17.8947507, 59.37512591], [17.8995556, 59.37281314], [17.8937082, 59.37005128], [17.895409, 59.36878057], [17.8926539, 59.36607329], [17.88855746, 59.36604115], [17.86555648, 59.37516467], [17.86638438, 59.37865388], [17.87301155, 59.37922312]]]}}, {"type": "Feature", "properties": {"zone_id": "0180R073", "zone_name": "Oscars kyrka", "car_pct": 19.2, "sustainable_pct": 80.8, "age_0_17": 22.6, "age_18_24": 7.8, "age_25_34": 18.7, "age_35_44": 11.1, "age_45_54": 10.7, "age_55_64": 12.6, "age_65p": 16.4, "pct_man": 44.5, "pct_kvinna": 55.5, "peak_hour": 9, "hourly_index": [7, 5, 5, 4, 4, 4, 6, 13, 61, 100, 53, 45, 54, 62, 51, 55, 71, 80, 87, 47, 27, 17, 14, 11]}, "geometry": {"type": "Polygon", "coordinates": [[[18.10978333, 59.33130849], [18.08274998, 59.32977501], [18.08033171, 59.33065846], [18.08884759, 59.34119006], [18.10846029, 59.33635615], [18.10978333, 59.33130849]]]}}, {"type": "Feature", "properties": {"zone_id": "0180R074", "zone_name": "Reimersholme-Långholmen", "car_pct": 23, "sustainable_pct": 77, "age_0_17": 19.9, "age_18_24": 6.5, "age_25_34": 24.1, "age_35_44": 10.8, "age_45_54": 8.5, "age_55_64": 13, "age_65p": 17, "pct_man": 48.7, "pct_kvinna": 51.3, "peak_hour": 15, "hourly_index": [48, 30, 16, 0, 18, 29, 21, 29, 64, 68, 57, 67, 71, 63, 63, 100, 74, 90, 67, 58, 65, 52, 57, 37]}, "geometry": {"type": "Polygon", "coordinates": [[[18.02533964, 59.31699503], [18.02447785, 59.31584663], [18.01795546, 59.31644422], [18.0099296, 59.32081274], [18.01412155, 59.32338628], [18.04221255, 59.32406015], [18.03962771, 59.32093185], [18.02724253, 59.31919833], [18.02533964, 59.31699503]]]}}, {"type": "Feature", "properties": {"zone_id": "0180R075", "zone_name": "Riksby-Åkeshov", "car_pct": 47.1, "sustainable_pct": 52.9, "age_0_17": 14.6, "age_18_24": 13.2, "age_25_34": 20.2, "age_35_44": 13.9, "age_45_54": 14.8, "age_55_64": 11.2, "age_65p": 12.2, "pct_man": 51.9, "pct_kvinna": 48.1, "peak_hour": 17, "hourly_index": [8, 5, 7, 4, 4, 4, 11, 23, 71, 81, 50, 48, 63, 61, 62, 70, 90, 100, 81, 55, 41, 28, 18, 23]}, "geometry": {"type": "Polygon", "coordinates": [[[17.95249925, 59.35737496], [17.95900682, 59.35395033], [17.95590183, 59.35156914], [17.95482762, 59.34661282], [17.95707079, 59.34162356], [17.95498116, 59.33994046], [17.9509748, 59.3403636], [17.95479141, 59.33622706], [17.93724412, 59.33863516], [17.93010687, 59.33551988], [17.92629231, 59.34008791], [17.92328848, 59.3397349], [17.92426288, 59.34204311], [17.92957346, 59.34112324], [17.93109637, 59.34304614], [17.92542044, 59.34897053], [17.93360821, 59.35470132], [17.92134621, 59.35934693], [17.94359933, 59.36131617], [17.94603549, 59.35885789], [17.95249925, 59.35737496]]]}}, {"type": "Feature", "properties": {"zone_id": "0180R089", "zone_name": "Sundby", "car_pct": 43.7, "sustainable_pct": 56.3, "age_0_17": 12.5, "age_18_24": 10, "age_25_34": 11.6, "age_35_44": 21.5, "age_45_54": 18.6, "age_55_64": 10.1, "age_65p": 15.8, "pct_man": 45.8, "pct_kvinna": 54.2, "peak_hour": 16, "hourly_index": [37, 54, 32, 16, 33, 15, 26, 39, 71, 73, 67, 51, 66, 54, 49, 76, 100, 87, 68, 65, 63, 41, 39, 38]}, "geometry": {"type": "Polygon", "coordinates": [[[17.92211703, 59.37036362], [17.9256681, 59.36952168], [17.91697703, 59.36157722], [17.90691533, 59.36245461], [17.90434028, 59.36420692], [17.91213265, 59.36740137], [17.91001782, 59.3680728], [17.91148155, 59.37022329], [17.90630022, 59.37543681], [17.90853787, 59.37728591], [17.90393879, 59.38081649], [17.9146039, 59.37598594], [17.91376832, 59.37527088], [17.92211703, 59.37036362]]]}}, {"type": "Feature", "properties": {"zone_id": "0180R090", "zone_name": "Svedmyra", "car_pct": 28.3, "sustainable_pct": 71.7, "age_0_17": 13.4, "age_18_24": 11.2, "age_25_34": 10.7, "age_35_44": 16.6, "age_45_54": 15.5, "age_55_64": 13.6, "age_65p": 18.9, "pct_man": 44.7, "pct_kvinna": 55.3, "peak_hour": 17, "hourly_index": [22, 14, 14, 21, 10, 15, 17, 45, 61, 89, 47, 43, 45, 47, 58, 66, 90, 100, 76, 76, 35, 63, 33, 18]}, "geometry": {"type": "Polygon", "coordinates": [[[18.07523965, 59.27844767], [18.07748448, 59.27793539], [18.0793993, 59.27406999], [18.07332594, 59.27263941], [18.07730364, 59.26780967], [18.06374878, 59.2645614], [18.0638009, 59.26769426], [18.06609988, 59.26826012], [18.06610019, 59.26994697], [18.06376831, 59.27152722], [18.06331255, 59.27606106], [18.06827276, 59.27823588], [18.07523965, 59.27844767]]]}}, {"type": "Feature", "properties": {"zone_id": "0180R091", "zone_name": "Sydvästra Skarpnäcks gård-Orhem", "car_pct": 51.8, "sustainable_pct": 48.2, "age_0_17": 26.2, "age_18_24": 4.8, "age_25_34": 13.7, "age_35_44": 21.9, "age_45_54": 17, "age_55_64": 6.7, "age_65p": 9.7, "pct_man": 47.5, "pct_kvinna": 52.5, "peak_hour": 17, "hourly_index": [22, 85, 23, 22, 36, 26, 33, 48, 92, 65, 55, 74, 59, 83, 62, 52, 98, 100, 72, 83, 51, 39, 51, 43]}, "geometry": {"type": "Polygon", "coordinates": [[[18.13767686, 59.26642498], [18.13546656, 59.26443413], [18.14295196, 59.2603179], [18.13915888, 59.25684295], [18.14614313, 59.25519535], [18.15138756, 59.25172543], [18.16250401, 59.23615309], [18.14680498, 59.23860733], [18.12958146, 59.24476299], [18.13320647, 59.25138631], [18.13090932, 59.25406909], [18.13024117, 59.25812459], [18.1262226, 59.26225652], [18.13222305, 59.26653037], [18.13767686, 59.26642498]]]}}, {"type": "Feature", "properties": {"zone_id": "0180R101", "zone_name": "Tekniska Högskolan", "car_pct": 22.6, "sustainable_pct": 77.4, "age_0_17": 13.7, "age_18_24": 16.2, "age_25_34": 23.3, "age_35_44": 11.9, "age_45_54": 12.9, "age_55_64": 13.3, "age_65p": 8.6, "pct_man": 52.7, "pct_kvinna": 47.3, "peak_hour": 17, "hourly_index": [7, 4, 3, 5, 5, 5, 6, 17, 81, 99, 87, 69, 82, 91, 65, 69, 87, 100, 90, 60, 40, 29, 26, 13]}, "geometry": {"type": "Polygon", "coordinates": [[[18.0595869, 59.35553108], [18.06632122, 59.3553709], [18.09978498, 59.35064032], [18.0809338, 59.34536015], [18.07884773, 59.34355416], [18.06680958, 59.34690057], [18.0532503, 59.35365004], [18.05614819, 59.35673888], [18.0595869, 59.35553108]]]}}, {"type": "Feature", "properties": {"zone_id": "0180R102", "zone_name": "Tensta", "car_pct": 40, "sustainable_pct": 60, "age_0_17": 12.6, "age_18_24": 16.6, "age_25_34": 24.2, "age_35_44": 16.1, "age_45_54": 13.7, "age_55_64": 10.5, "age_65p": 6.5, "pct_man": 43.4, "pct_kvinna": 56.6, "peak_hour": 16, "hourly_index": [17, 14, 15, 8, 13, 21, 15, 28, 64, 60, 50, 46, 59, 62, 51, 72, 100, 100, 63, 58, 47, 42, 39, 27]}, "geometry": {"type": "Polygon", "coordinates": [[[17.92015499, 59.39318726], [17.91338679, 59.38703116], [17.89268503, 59.39214098], [17.88826548, 59.3927273], [17.88649466, 59.39148641], [17.87907048, 59.39731333], [17.88910989, 59.400099], [17.89956858, 59.39960898], [17.92120361, 59.3947683], [17.92015499, 59.39318726]]]}}, {"type": "Feature", "properties": {"zone_id": "0180R103", "zone_name": "Traneberg", "car_pct": 33.1, "sustainable_pct": 66.9, "age_0_17": 13.4, "age_18_24": 9.1, "age_25_34": 22.7, "age_35_44": 11.5, "age_45_54": 12.8, "age_55_64": 8.1, "age_65p": 22.3, "pct_man": 46, "pct_kvinna": 54, "peak_hour": 17, "hourly_index": [24, 29, 24, 25, 15, 0, 25, 37, 62, 84, 51, 54, 78, 94, 60, 79, 85, 100, 90, 61, 72, 41, 38, 32]}, "geometry": {"type": "Polygon", "coordinates": [[[17.99100262, 59.32974837], [17.97433659, 59.33644258], [17.97572466, 59.33845522], [17.97488511, 59.33977081], [17.97818887, 59.34029699], [17.97950416, 59.34445687], [17.98145569, 59.34503626], [17.99823834, 59.34074602], [17.99373865, 59.33652845], [17.99495077, 59.33377441], [17.99100262, 59.32974837]]]}}, {"type": "Feature", "properties": {"zone_id": "0180R110", "zone_name": "Västberga", "car_pct": 35, "sustainable_pct": 65, "age_0_17": 16.4, "age_18_24": 13.3, "age_25_34": 23.5, "age_35_44": 16.1, "age_45_54": 12.1, "age_55_64": 10.6, "age_65p": 8.1, "pct_man": 54, "pct_kvinna": 46, "peak_hour": 8, "hourly_index": [15, 7, 5, 10, 6, 6, 29, 50, 100, 100, 66, 62, 76, 66, 62, 67, 82, 99, 96, 52, 49, 43, 49, 26]}, "geometry": {"type": "Polygon", "coordinates": [[[18.02666838, 59.29911817], [18.02063559, 59.29419732], [18.01906268, 59.28833377], [18.00964388, 59.28911705], [17.99972556, 59.29408895], [17.98746208, 59.28958267], [17.98772289, 59.29721231], [18.01479655, 59.30044845], [18.01871229, 59.30284511], [18.02377193, 59.30234485], [18.02842732, 59.29984094], [18.02666838, 59.29911817]]]}}, {"type": "Feature", "properties": {"zone_id": "0180R111", "zone_name": "Västertorp", "car_pct": 28.5, "sustainable_pct": 71.5, "age_0_17": 12.3, "age_18_24": 16.2, "age_25_34": 17.3, "age_35_44": 15.3, "age_45_54": 14.8, "age_55_64": 7.9, "age_65p": 16.2, "pct_man": 42, "pct_kvinna": 58, "peak_hour": 18, "hourly_index": [24, 24, 11, 0, 0, 0, 11, 31, 57, 55, 37, 37, 39, 41, 42, 50, 66, 83, 100, 50, 45, 35, 36, 16]}, "geometry": {"type": "Polygon", "coordinates": [[[17.97514602, 59.29714318], [17.98268796, 59.28944169], [17.95301757, 59.28878002], [17.9653003, 59.29616226], [17.97514602, 59.29714318]]]}}, {"type": "Feature", "properties": {"zone_id": "0180R112", "zone_name": "Västra Farsta Strand-Farstanäset", "car_pct": 47.9, "sustainable_pct": 52.1, "age_0_17": 22.9, "age_18_24": 1.4, "age_25_34": 13.8, "age_35_44": 15.5, "age_45_54": 19.4, "age_55_64": 16.4, "age_65p": 10.6, "pct_man": 53.4, "pct_kvinna": 46.6, "peak_hour": 17, "hourly_index": [35, 18, 21, 0, 0, 22, 42, 41, 91, 57, 47, 60, 56, 77, 58, 96, 62, 100, 81, 46, 52, 44, 35, 42]}, "geometry": {"type": "Polygon", "coordinates": [[[18.07017595, 59.24497324], [18.09814477, 59.23697378], [18.09383204, 59.2344303], [18.09854571, 59.23212809], [18.09794292, 59.22891306], [18.07374198, 59.23389178], [18.06530562, 59.23941427], [18.06120112, 59.23816033], [18.06312713, 59.24062652], [18.06186342, 59.24137245], [18.07017595, 59.24497324]]]}}, {"type": "Feature", "properties": {"zone_id": "0180R126", "zone_name": "Östra Sankt Göran", "car_pct": 29.2, "sustainable_pct": 70.8, "age_0_17": 17.2, "age_18_24": 7.8, "age_25_34": 20.9, "age_35_44": 13.5, "age_45_54": 12.7, "age_55_64": 14, "age_65p": 13.9, "pct_man": 47.6, "pct_kvinna": 52.4, "peak_hour": 17, "hourly_index": [5, 4, 5, 3, 3, 3, 10, 26, 67, 80, 41, 39, 55, 69, 56, 63, 85, 100, 86, 46, 33, 26, 21, 14]}, "geometry": {"type": "Polygon", "coordinates": [[[18.02344713, 59.33959234], [18.03357117, 59.33737824], [18.03690194, 59.33676121], [18.03526061, 59.33337497], [18.02862631, 59.32863408], [18.02240519, 59.33069694], [18.02613061, 59.33551402], [18.02080538, 59.33961122], [18.02344713, 59.33959234]]]}}, {"type": "Feature", "properties": {"zone_id": "0180R078", "zone_name": "Rågsved", "car_pct": 47.8, "sustainable_pct": 52.2, "age_0_17": 14.1, "age_18_24": 9.4, "age_25_34": 23.5, "age_35_44": 20.2, "age_45_54": 12, "age_55_64": 10.7, "age_65p": 10.1, "pct_man": 49.7, "pct_kvinna": 50.3, "peak_hour": 8, "hourly_index": [22, 17, 9, 13, 5, 15, 24, 49, 100, 67, 52, 42, 41, 72, 47, 94, 79, 85, 80, 76, 55, 30, 46, 28]}, "geometry": {"type": "Polygon", "coordinates": [[[18.03476775, 59.26112139], [18.04078211, 59.25771964], [18.04564108, 59.2512307], [18.0522256, 59.24672196], [18.05000056, 59.24490242], [18.02813792, 59.24985621], [18.01813303, 59.25538889], [18.01398113, 59.25608713], [18.01500557, 59.2595867], [18.01905373, 59.26140783], [18.02547233, 59.26125644], [18.02696413, 59.26349866], [18.03476775, 59.26112139]]]}}, {"type": "Feature", "properties": {"zone_id": "0180R127", "zone_name": "Östra Skarpnäcks gård-Flaten-Skrubba", "car_pct": 62.4, "sustainable_pct": 37.6, "age_0_17": 20.6, "age_18_24": 3.1, "age_25_34": 16.6, "age_35_44": 17, "age_45_54": 15.1, "age_55_64": 13.1, "age_65p": 14.6, "pct_man": 43.1, "pct_kvinna": 56.9, "peak_hour": 8, "hourly_index": [28, 34, 14, 20, 28, 18, 40, 65, 100, 72, 50, 62, 63, 52, 56, 67, 72, 67, 78, 45, 63, 44, 27, 29]}, "geometry": {"type": "Polygon", "coordinates": [[[18.1485507, 59.26972637], [18.14975991, 59.26930508], [18.14972741, 59.2657543], [18.17034117, 59.26269878], [18.17074079, 59.25205292], [18.17477863, 59.25118088], [18.18069979, 59.24627184], [18.20007804, 59.24747324], [18.19665304, 59.24505009], [18.19371636, 59.22978561], [18.16250245, 59.23615339], [18.15138756, 59.25172543], [18.14614313, 59.25519535], [18.13978251, 59.25618368], [18.14295196, 59.2603179], [18.13546656, 59.26443413], [18.13767686, 59.26642498], [18.13389974, 59.26700518], [18.13662832, 59.26912471], [18.1485507, 59.26972637]]]}}, {"type": "Feature", "properties": {"zone_id": "0180R104", "zone_name": "Ulvsunda", "car_pct": 43.8, "sustainable_pct": 56.2, "age_0_17": 14.8, "age_18_24": 11.6, "age_25_34": 24.9, "age_35_44": 9.9, "age_45_54": 17, "age_55_64": 10.5, "age_65p": 11.4, "pct_man": 51.7, "pct_kvinna": 48.3, "peak_hour": 17, "hourly_index": [8, 23, 10, 8, 9, 8, 23, 51, 71, 96, 58, 49, 51, 56, 56, 67, 73, 100, 74, 57, 41, 33, 28, 25]}, "geometry": {"type": "Polygon", "coordinates": [[[17.97800288, 59.34195236], [17.97818887, 59.34029699], [17.97488511, 59.33977081], [17.97572466, 59.33845522], [17.97433659, 59.33644258], [17.96846383, 59.33410024], [17.95479141, 59.33622706], [17.9509748, 59.3403636], [17.96846304, 59.34156805], [17.97950416, 59.34445687], [17.97800288, 59.34195236]]]}}, {"type": "Feature", "properties": {"zone_id": "0180R105", "zone_name": "Ulvsunda Industriområde", "car_pct": 45.5, "sustainable_pct": 54.5, "age_0_17": 15.8, "age_18_24": 8.2, "age_25_34": 25.3, "age_35_44": 17, "age_45_54": 14.5, "age_55_64": 8.4, "age_65p": 10.8, "pct_man": 59.1, "pct_kvinna": 40.9, "peak_hour": 8, "hourly_index": [50, 3, 0, 0, 0, 10, 20, 57, 100, 74, 61, 43, 65, 61, 60, 55, 87, 85, 93, 47, 40, 32, 34, 36]}, "geometry": {"type": "Polygon", "coordinates": [[[17.97204801, 59.34252569], [17.95707079, 59.34162356], [17.95482762, 59.34661282], [17.95590183, 59.35156914], [17.95900682, 59.35395033], [17.9553582, 59.3566828], [17.96313254, 59.35828592], [17.96649496, 59.35383973], [17.98145569, 59.34503626], [17.97204801, 59.34252569]]]}}, {"type": "Feature", "properties": {"zone_id": "0180R106", "zone_name": "Universitetet", "car_pct": 35.5, "sustainable_pct": 64.5, "age_0_17": 10.1, "age_18_24": 24.2, "age_25_34": 23.2, "age_35_44": 9.7, "age_45_54": 10.2, "age_55_64": 13.9, "age_65p": 8.8, "pct_man": 47, "pct_kvinna": 53, "peak_hour": 9, "hourly_index": [8, 4, 6, 12, 9, 5, 6, 14, 66, 100, 69, 52, 74, 92, 54, 63, 74, 99, 67, 39, 29, 24, 19, 9]}, "geometry": {"type": "Polygon", "coordinates": [[[18.04856146, 59.37580078], [18.07111091, 59.37477938], [18.07798412, 59.3718494], [18.09548409, 59.36974154], [18.10699441, 59.36264947], [18.08703315, 59.35876938], [18.08360096, 59.35670576], [18.08653803, 59.35437956], [18.08465275, 59.35249315], [18.05614819, 59.35673888], [18.05358426, 59.35445306], [18.05060293, 59.35496969], [18.04357725, 59.36553496], [18.03639035, 59.37141522], [18.04305568, 59.37222677], [18.04376501, 59.37501128], [18.04856146, 59.37580078]]]}}, {"type": "Feature", "properties": {"zone_id": "0180R037", "zone_name": "Hägersten", "car_pct": 37.1, "sustainable_pct": 62.9, "age_0_17": 13.3, "age_18_24": 7.8, "age_25_34": 17.7, "age_35_44": 17.2, "age_45_54": 15.1, "age_55_64": 11.3, "age_65p": 17.6, "pct_man": 51.9, "pct_kvinna": 48.1, "peak_hour": 17, "hourly_index": [15, 8, 11, 8, 6, 22, 16, 28, 73, 72, 67, 43, 56, 57, 61, 69, 75, 100, 84, 57, 40, 42, 26, 27]}, "geometry": {"type": "Polygon", "coordinates": [[[17.97281743, 59.31050394], [17.98022857, 59.31009661], [17.98310043, 59.30752271], [17.9878999, 59.30677773], [17.99076843, 59.30347628], [17.98027497, 59.30174678], [17.97514886, 59.2975802], [17.96374545, 59.29500503], [17.95653531, 59.2983289], [17.95719193, 59.30061662], [17.95565986, 59.30338439], [17.95311144, 59.30375478], [17.95023413, 59.30755354], [17.95482636, 59.31070029], [17.96920148, 59.31225553], [17.97281743, 59.31050394]]]}}, {"type": "Feature", "properties": {"zone_id": "0180R038", "zone_name": "Hägerstensåsen", "car_pct": 30.6, "sustainable_pct": 69.4, "age_0_17": 12.1, "age_18_24": 14.8, "age_25_34": 22.1, "age_35_44": 15.8, "age_45_54": 11.8, "age_55_64": 10, "age_65p": 13.4, "pct_man": 47, "pct_kvinna": 53, "peak_hour": 17, "hourly_index": [24, 19, 14, 14, 15, 10, 15, 45, 78, 74, 55, 53, 46, 77, 53, 76, 88, 100, 95, 59, 63, 42, 32, 32]}, "geometry": {"type": "Polygon", "coordinates": [[[17.98772289, 59.29721231], [17.98746208, 59.28958267], [17.98395054, 59.28937951], [17.97974888, 59.29158159], [17.97510162, 59.29742423], [17.98027497, 59.30174678], [17.99076843, 59.30347628], [17.99103875, 59.30012774], [17.98796833, 59.29932759], [17.98772289, 59.29721231]]]}}, {"type": "Feature", "properties": {"zone_id": "0180R039", "zone_name": "Hässelby Gård", "car_pct": 49.9, "sustainable_pct": 50.1, "age_0_17": 8.8, "age_18_24": 5.7, "age_25_34": 29.9, "age_35_44": 19.6, "age_45_54": 17.5, "age_55_64": 9.3, "age_65p": 9.3, "pct_man": 59, "pct_kvinna": 41, "peak_hour": 16, "hourly_index": [25, 15, 18, 8, 12, 10, 18, 56, 94, 86, 40, 56, 61, 51, 58, 65, 100, 99, 66, 56, 52, 53, 37, 21]}, "geometry": {"type": "Polygon", "coordinates": [[[17.83618408, 59.37519276], [17.84830924, 59.37088326], [17.85982152, 59.36612625], [17.84499056, 59.36154205], [17.8367148, 59.36589119], [17.82789022, 59.36789528], [17.83618408, 59.37519276]]]}}, {"type": "Feature", "properties": {"zone_id": "0180R094", "zone_name": "Södra Hammarbyhamnen", "car_pct": 32, "sustainable_pct": 68, "age_0_17": 20.3, "age_18_24": 6, "age_25_34": 13.7, "age_35_44": 15.2, "age_45_54": 18.6, "age_55_64": 12.4, "age_65p": 13.9, "pct_man": 49.7, "pct_kvinna": 50.3, "peak_hour": 9, "hourly_index": [6, 5, 6, 4, 2, 3, 10, 21, 83, 100, 49, 39, 43, 50, 42, 57, 77, 92, 89, 50, 35, 27, 24, 13]}, "geometry": {"type": "Polygon", "coordinates": [[[18.10494441, 59.31389579], [18.11301442, 59.30901943], [18.11413441, 59.30399029], [18.10495037, 59.30100762], [18.0857069, 59.29967199], [18.0788852, 59.3033051], [18.0984169, 59.30783911], [18.10494441, 59.31389579]]]}}, {"type": "Feature", "properties": {"zone_id": "0180R095", "zone_name": "Södra Högalid", "car_pct": 24.7, "sustainable_pct": 75.3, "age_0_17": 14.1, "age_18_24": 3.7, "age_25_34": 18, "age_35_44": 15.8, "age_45_54": 13.6, "age_55_64": 17.4, "age_65p": 17.5, "pct_man": 47.2, "pct_kvinna": 52.8, "peak_hour": 13, "hourly_index": [11, 18, 9, 10, 11, 10, 13, 40, 96, 96, 74, 81, 76, 100, 83, 78, 77, 78, 66, 48, 28, 39, 20, 14]}, "geometry": {"type": "Polygon", "coordinates": [[[18.05186262, 59.3145904], [18.05727746, 59.31359232], [18.05904819, 59.31022196], [18.06187701, 59.30934676], [18.06011407, 59.30615765], [18.05805597, 59.30476166], [18.05390143, 59.30549709], [18.04867648, 59.30850169], [18.04242702, 59.30920484], [18.03447795, 59.31252529], [18.05186262, 59.3145904]]]}}, {"type": "Feature", "properties": {"zone_id": "0180R096", "zone_name": "Södra Johannes", "car_pct": 20.9, "sustainable_pct": 79.1, "age_0_17": 24.4, "age_18_24": 9.1, "age_25_34": 27.1, "age_35_44": 10.8, "age_45_54": 9.7, "age_55_64": 11.6, "age_65p": 7.3, "pct_man": 48.8, "pct_kvinna": 51.2, "peak_hour": 9, "hourly_index": [16, 8, 16, 10, 0, 14, 10, 21, 58, 100, 40, 41, 28, 43, 34, 37, 40, 55, 82, 37, 27, 28, 25, 11]}, "geometry": {"type": "Polygon", "coordinates": [[[18.06896334, 59.3380443], [18.07217776, 59.3361921], [18.06542111, 59.33584043], [18.06239875, 59.34014385], [18.06567766, 59.34097111], [18.06896334, 59.3380443]]]}}, {"type": "Feature", "properties": {"zone_id": "0180R053", "zone_name": "Liljeholmen", "car_pct": 31.3, "sustainable_pct": 68.7, "age_0_17": 12.5, "age_18_24": 7.2, "age_25_34": 22.4, "age_35_44": 16.4, "age_45_54": 15.3, "age_55_64": 12.1, "age_65p": 14.1, "pct_man": 47.7, "pct_kvinna": 52.3, "peak_hour": 17, "hourly_index": [4, 4, 2, 3, 3, 4, 12, 21, 69, 73, 40, 40, 49, 62, 52, 60, 72, 100, 74, 42, 29, 26, 22, 11]}, "geometry": {"type": "Polygon", "coordinates": [[[18.038324, 59.31089045], [18.03858188, 59.30504545], [18.02842732, 59.29984094], [18.02377193, 59.30234485], [18.01871229, 59.30284511], [18.02282064, 59.30703721], [18.01395324, 59.30622488], [18.00716684, 59.31042683], [18.01671719, 59.3117591], [18.0163288, 59.3153453], [18.01795546, 59.31644422], [18.02621082, 59.3154858], [18.038324, 59.31089045]]]}}, {"type": "Feature", "properties": {"zone_id": "0180R054", "zone_name": "Lilla Essingen", "car_pct": 26.5, "sustainable_pct": 73.5, "age_0_17": 20.9, "age_18_24": 5, "age_25_34": 18.5, "age_35_44": 13.1, "age_45_54": 16.1, "age_55_64": 20, "age_65p": 6.3, "pct_man": 48.3, "pct_kvinna": 51.7, "peak_hour": 18, "hourly_index": [29, 31, 29, 20, 0, 0, 19, 33, 80, 81, 44, 40, 63, 64, 69, 70, 95, 86, 100, 92, 68, 57, 36, 30]}, "geometry": {"type": "Polygon", "coordinates": [[[18.0099296, 59.32081274], [18.00294586, 59.32081198], [17.99860218, 59.32382092], [17.99678821, 59.32727579], [18.00634484, 59.3267012], [18.01412155, 59.32338628], [18.0099296, 59.32081274]]]}}, {"type": "Feature", "properties": {"zone_id": "0180R055", "zone_name": "Liseberg", "car_pct": 31.9, "sustainable_pct": 68.1, "age_0_17": 11.9, "age_18_24": 6.2, "age_25_34": 20.7, "age_35_44": 9.8, "age_45_54": 15.2, "age_55_64": 21.4, "age_65p": 14.8, "pct_man": 41.3, "pct_kvinna": 58.7, "peak_hour": 9, "hourly_index": [33, 36, 0, 25, 21, 26, 33, 25, 78, 100, 76, 53, 55, 64, 78, 62, 88, 76, 91, 47, 42, 51, 61, 74]}, "geometry": {"type": "Polygon", "coordinates": [[[18.03104151, 59.28607219], [18.03218978, 59.28489543], [18.01803235, 59.28257146], [18.01912772, 59.28726034], [18.02551014, 59.28956719], [18.03104151, 59.28607219]]]}}, {"type": "Feature", "properties": {"zone_id": "0180R066", "zone_name": "Norra Adolf Fredrik", "car_pct": 29.3, "sustainable_pct": 70.7, "age_0_17": 17.6, "age_18_24": 7.4, "age_25_34": 26.2, "age_35_44": 13, "age_45_54": 13.6, "age_55_64": 11.1, "age_65p": 11.2, "pct_man": 50.9, "pct_kvinna": 49.1, "peak_hour": 18, "hourly_index": [10, 4, 4, 0, 6, 6, 6, 18, 52, 62, 29, 28, 34, 47, 32, 42, 46, 74, 100, 50, 34, 28, 20, 12]}, "geometry": {"type": "Polygon", "coordinates": [[[18.05806701, 59.33902409], [18.05023199, 59.33699456], [18.04822612, 59.33896886], [18.06050785, 59.34213577], [18.06239875, 59.34014385], [18.05806701, 59.33902409]]]}}, {"type": "Feature", "properties": {"zone_id": "0180R067", "zone_name": "Norra Högalid", "car_pct": 25.1, "sustainable_pct": 74.9, "age_0_17": 17.8, "age_18_24": 8.2, "age_25_34": 24.1, "age_35_44": 11.5, "age_45_54": 11.5, "age_55_64": 11.9, "age_65p": 15, "pct_man": 46.4, "pct_kvinna": 53.6, "peak_hour": 17, "hourly_index": [8, 6, 5, 6, 4, 0, 8, 13, 49, 97, 51, 57, 57, 66, 60, 64, 91, 100, 88, 49, 34, 31, 25, 18]}, "geometry": {"type": "Polygon", "coordinates": [[[18.05025381, 59.31800007], [18.04023318, 59.31766535], [18.02876114, 59.31475716], [18.02447785, 59.31584663], [18.02724253, 59.31919833], [18.03962771, 59.32093185], [18.04221255, 59.32406015], [18.05691137, 59.32406517], [18.05680431, 59.31878066], [18.05025381, 59.31800007]]]}}, {"type": "Feature", "properties": {"zone_id": "0180R068", "zone_name": "Norra Johannes", "car_pct": 20, "sustainable_pct": 80, "age_0_17": 22.3, "age_18_24": 7.4, "age_25_34": 26.9, "age_35_44": 10.7, "age_45_54": 12.6, "age_55_64": 10.7, "age_65p": 9.3, "pct_man": 51.3, "pct_kvinna": 48.7, "peak_hour": 18, "hourly_index": [11, 10, 6, 2, 7, 8, 11, 20, 54, 84, 35, 32, 41, 63, 48, 59, 79, 96, 100, 79, 50, 34, 22, 15]}, "geometry": {"type": "Polygon", "coordinates": [[[18.05769432, 59.35079496], [18.06567766, 59.34097111], [18.06239875, 59.34014385], [18.05786554, 59.34459048], [18.05541854, 59.3439852], [18.04913649, 59.35067666], [18.04494738, 59.35208635], [18.04492388, 59.35416868], [18.04879146, 59.35649362], [18.05769432, 59.35079496]]]}}, {"type": "Feature", "properties": {"zone_id": "0180R056", "zone_name": "Långbro", "car_pct": 34.5, "sustainable_pct": 65.5, "age_0_17": 13.7, "age_18_24": 8.5, "age_25_34": 13.4, "age_35_44": 16.1, "age_45_54": 22.9, "age_55_64": 11.2, "age_65p": 14.2, "pct_man": 52.7, "pct_kvinna": 47.3, "peak_hour": 8, "hourly_index": [24, 18, 10, 11, 8, 9, 17, 37, 100, 70, 57, 52, 56, 77, 52, 74, 74, 94, 82, 67, 58, 50, 35, 29]}, "geometry": {"type": "Polygon", "coordinates": [[[17.98286446, 59.28883085], [17.98681466, 59.28783671], [18.00340284, 59.27952429], [18.00044299, 59.27645947], [17.99116074, 59.27276719], [17.96442637, 59.28155702], [17.97353585, 59.28366971], [17.98286446, 59.28883085]]]}}, {"type": "Feature", "properties": {"zone_id": "0180R057", "zone_name": "Långsjö", "car_pct": 38.9, "sustainable_pct": 61.1, "age_0_17": 9.5, "age_18_24": 9.4, "age_25_34": 17.4, "age_35_44": 16.2, "age_45_54": 31, "age_55_64": 9.9, "age_65p": 6.6, "pct_man": 41.7, "pct_kvinna": 58.3, "peak_hour": 0, "hourly_index": [100, 35, 0, 0, 28, 30, 25, 34, 69, 71, 47, 39, 52, 58, 58, 41, 52, 83, 51, 61, 57, 64, 51, 31]}, "geometry": {"type": "Polygon", "coordinates": [[[17.98572297, 59.2745921], [17.99215013, 59.27230448], [17.98666026, 59.26222394], [17.9803195, 59.26256999], [17.96764559, 59.26739085], [17.97030247, 59.26961553], [17.97682142, 59.26977909], [17.97739194, 59.27319047], [17.98055931, 59.27629819], [17.98572297, 59.2745921]]]}}, {"type": "Feature", "properties": {"zone_id": "0180R058", "zone_name": "Mariatorget", "car_pct": 29.5, "sustainable_pct": 70.5, "age_0_17": 16.8, "age_18_24": 8.3, "age_25_34": 23.1, "age_35_44": 12.5, "age_45_54": 12.8, "age_55_64": 13.4, "age_65p": 13, "pct_man": 46.3, "pct_kvinna": 53.7, "peak_hour": 17, "hourly_index": [10, 6, 2, 3, 5, 3, 7, 21, 56, 74, 41, 38, 34, 49, 43, 56, 78, 100, 90, 53, 34, 31, 29, 16]}, "geometry": {"type": "Polygon", "coordinates": [[[18.05691137, 59.32406517], [18.06931971, 59.32211888], [18.07262503, 59.31551284], [18.05727746, 59.31359232], [18.05608237, 59.31599498], [18.05805122, 59.31624443], [18.0563644, 59.31969788], [18.05691137, 59.32406517]]]}}, {"type": "Feature", "properties": {"zone_id": "0180R059", "zone_name": "Marieberg", "car_pct": 31.3, "sustainable_pct": 68.7, "age_0_17": 18.3, "age_18_24": 5.8, "age_25_34": 22.2, "age_35_44": 15.8, "age_45_54": 13.4, "age_55_64": 12.1, "age_65p": 12.3, "pct_man": 45.2, "pct_kvinna": 54.8, "peak_hour": 9, "hourly_index": [8, 8, 7, 9, 0, 6, 8, 17, 68, 100, 35, 33, 41, 47, 39, 55, 83, 90, 75, 54, 29, 29, 20, 14]}, "geometry": {"type": "Polygon", "coordinates": [[[18.02358367, 59.33187718], [18.02240519, 59.33069694], [18.02862631, 59.32863408], [18.02538865, 59.32406037], [18.01412155, 59.32338628], [18.00807001, 59.32614557], [18.01107729, 59.32692968], [18.01085607, 59.32853373], [18.00909305, 59.32868211], [18.01106106, 59.33152544], [18.02358367, 59.33187718]]]}}, {"type": "Feature", "properties": {"zone_id": "0180R040", "zone_name": "Hässelby Strand", "car_pct": 57.1, "sustainable_pct": 42.9, "age_0_17": 9.2, "age_18_24": 8.5, "age_25_34": 23.6, "age_35_44": 23.6, "age_45_54": 12.1, "age_55_64": 16.2, "age_65p": 6.8, "pct_man": 55.2, "pct_kvinna": 44.8, "peak_hour": 17, "hourly_index": [32, 23, 37, 27, 13, 12, 13, 26, 40, 32, 29, 27, 34, 38, 44, 60, 95, 100, 61, 44, 34, 51, 47, 33]}, "geometry": {"type": "Polygon", "coordinates": [[[17.83617064, 59.36562544], [17.84499056, 59.36154205], [17.8401692, 59.35940696], [17.84244393, 59.35547887], [17.83939484, 59.35253133], [17.82985887, 59.35089164], [17.81722218, 59.35776431], [17.81829298, 59.36105627], [17.82488134, 59.36400039], [17.83287461, 59.36655891], [17.83617064, 59.36562544]]]}}, {"type": "Feature", "properties": {"zone_id": "0180R041", "zone_name": "Hässelby Villastad", "car_pct": 58.8, "sustainable_pct": 41.2, "age_0_17": 17.9, "age_18_24": 11.8, "age_25_34": 10.2, "age_35_44": 21.9, "age_45_54": 15.9, "age_55_64": 11.7, "age_65p": 10.5, "pct_man": 54.3, "pct_kvinna": 45.7, "peak_hour": 16, "hourly_index": [14, 11, 11, 7, 8, 9, 13, 58, 88, 66, 42, 41, 42, 46, 44, 80, 100, 99, 81, 56, 69, 42, 40, 22]}, "geometry": {"type": "Polygon", "coordinates": [[[17.82725486, 59.39150787], [17.82490764, 59.38171206], [17.83973311, 59.38128293], [17.83663019, 59.37745788], [17.83806819, 59.37657288], [17.83553754, 59.37645483], [17.83618408, 59.37519276], [17.83240404, 59.37129666], [17.82805773, 59.36914333], [17.82789022, 59.36789528], [17.83287461, 59.36655891], [17.81829298, 59.36105627], [17.81722218, 59.35776431], [17.79628638, 59.35511895], [17.78737954, 59.36713976], [17.78804221, 59.37085505], [17.77324898, 59.38461481], [17.76220663, 59.3888128], [17.76069142, 59.39176733], [17.77947059, 59.39842938], [17.79868811, 59.39050703], [17.81715413, 59.39917549], [17.82725486, 59.39150787]]]}}, {"type": "Feature", "properties": {"zone_id": "0180R076", "zone_name": "Rinkeby", "car_pct": 41.5, "sustainable_pct": 58.5, "age_0_17": 11.1, "age_18_24": 14.6, "age_25_34": 23.3, "age_35_44": 16.7, "age_45_54": 15.2, "age_55_64": 11.1, "age_65p": 8, "pct_man": 47.4, "pct_kvinna": 52.6, "peak_hour": 8, "hourly_index": [10, 18, 16, 11, 15, 15, 33, 44, 100, 84, 71, 50, 46, 56, 66, 88, 97, 100, 65, 57, 49, 49, 47, 37]}, "geometry": {"type": "Polygon", "coordinates": [[[17.93559695, 59.391345], [17.93885914, 59.3896872], [17.93977982, 59.38659267], [17.93378343, 59.38208859], [17.92734244, 59.38227892], [17.91338679, 59.38703116], [17.92120361, 59.3947683], [17.93559695, 59.391345]]]}}, {"type": "Feature", "properties": {"zone_id": "0180R077", "zone_name": "Råcksta", "car_pct": 36.7, "sustainable_pct": 63.3, "age_0_17": 10.9, "age_18_24": 7, "age_25_34": 18, "age_35_44": 20.5, "age_45_54": 18.6, "age_55_64": 10.7, "age_65p": 14.4, "pct_man": 52.4, "pct_kvinna": 47.6, "peak_hour": 16, "hourly_index": [8, 9, 7, 10, 6, 8, 13, 32, 59, 59, 43, 55, 65, 67, 58, 72, 100, 97, 73, 54, 40, 38, 29, 13]}, "geometry": {"type": "Polygon", "coordinates": [[[17.88873068, 59.3665793], [17.8986843, 59.36486404], [17.90002864, 59.36282014], [17.89724154, 59.36100558], [17.89761507, 59.35956049], [17.89358139, 59.35993409], [17.88764214, 59.3557076], [17.88777725, 59.35325777], [17.88503475, 59.35176828], [17.87241766, 59.35882857], [17.87422821, 59.36180764], [17.88079858, 59.36599842], [17.88873068, 59.3665793]]]}}, {"type": "Feature", "properties": {"zone_id": "0180R113", "zone_name": "Västra Katarina", "car_pct": 23.1, "sustainable_pct": 76.9, "age_0_17": 15.1, "age_18_24": 6.3, "age_25_34": 20.3, "age_35_44": 13.6, "age_45_54": 14.5, "age_55_64": 14.2, "age_65p": 16, "pct_man": 45.4, "pct_kvinna": 54.6, "peak_hour": 17, "hourly_index": [6, 8, 4, 4, 3, 3, 5, 13, 51, 87, 56, 50, 61, 68, 65, 72, 80, 100, 84, 61, 39, 31, 24, 16]}, "geometry": {"type": "Polygon", "coordinates": [[[18.07262503, 59.31551284], [18.0788852, 59.3033051], [18.07340845, 59.30258503], [18.05805597, 59.30476166], [18.06187701, 59.30934676], [18.05827205, 59.31149884], [18.06898629, 59.31291407], [18.07262503, 59.31551284]]]}}, {"type": "Feature", "properties": {"zone_id": "0180R069", "zone_name": "Norra Skarpnäcks Gård", "car_pct": 39.1, "sustainable_pct": 60.9, "age_0_17": 14.9, "age_18_24": 9, "age_25_34": 12.9, "age_35_44": 17, "age_45_54": 19.5, "age_55_64": 12.3, "age_65p": 14.6, "pct_man": 46.5, "pct_kvinna": 53.5, "peak_hour": 16, "hourly_index": [22, 21, 12, 13, 15, 9, 17, 25, 83, 84, 67, 59, 59, 69, 67, 73, 100, 95, 84, 73, 52, 56, 34, 26]}, "geometry": {"type": "Polygon", "coordinates": [[[18.1204444, 59.27950181], [18.12352241, 59.27481452], [18.12377848, 59.27144787], [18.13662832, 59.26912471], [18.12735138, 59.26269246], [18.12392374, 59.26333567], [18.12028274, 59.26658949], [18.11137572, 59.26461317], [18.10376846, 59.26723032], [18.10662302, 59.26781133], [18.11017199, 59.27200246], [18.11056384, 59.27655304], [18.11539121, 59.27882201], [18.11440742, 59.27962813], [18.12375655, 59.28091013], [18.1204444, 59.27950181]]]}}, {"type": "Feature", "properties": {"zone_id": "0180R070", "zone_name": "Norra Sofia", "car_pct": 21.4, "sustainable_pct": 78.6, "age_0_17": 21.6, "age_18_24": 4.2, "age_25_34": 20.7, "age_35_44": 14.1, "age_45_54": 11.7, "age_55_64": 12.9, "age_65p": 14.8, "pct_man": 44.2, "pct_kvinna": 55.8, "peak_hour": 17, "hourly_index": [13, 14, 6, 8, 8, 2, 14, 17, 71, 89, 46, 46, 48, 63, 56, 64, 71, 100, 79, 57, 37, 32, 28, 14]}, "geometry": {"type": "Polygon", "coordinates": [[[18.09368425, 59.31871421], [18.10150699, 59.31756289], [18.10932774, 59.31768013], [18.10859064, 59.31510708], [18.10548297, 59.31376642], [18.09635375, 59.31366085], [18.08630007, 59.30998074], [18.08294624, 59.31744699], [18.08357126, 59.32021338], [18.09368425, 59.31871421]]]}}, {"type": "Feature", "properties": {"zone_id": "0180R092", "zone_name": "Sätra", "car_pct": 58.2, "sustainable_pct": 41.8, "age_0_17": 9.3, "age_18_24": 13.2, "age_25_34": 22.7, "age_35_44": 18.7, "age_45_54": 13.5, "age_55_64": 12.3, "age_65p": 10.3, "pct_man": 49.4, "pct_kvinna": 50.6, "peak_hour": 17, "hourly_index": [18, 17, 33, 20, 0, 30, 24, 42, 57, 52, 44, 62, 58, 47, 71, 66, 66, 100, 96, 62, 46, 61, 57, 45]}, "geometry": {"type": "Polygon", "coordinates": [[[17.91439667, 59.29627008], [17.92529284, 59.29371398], [17.92296181, 59.29052618], [17.93253014, 59.28746398], [17.93480941, 59.28463671], [17.9193082, 59.27949542], [17.90686416, 59.28287643], [17.88989258, 59.28456131], [17.88562658, 59.28712519], [17.89322093, 59.29315134], [17.90507562, 59.29596573], [17.90940701, 59.29933463], [17.9122897, 59.300041], [17.91485475, 59.2977243], [17.91439667, 59.29627008]]]}}, {"type": "Feature", "properties": {"zone_id": "0180R093", "zone_name": "Södra Adolf Fredrik", "car_pct": 23.1, "sustainable_pct": 76.9, "age_0_17": 21.7, "age_18_24": 5.8, "age_25_34": 24, "age_35_44": 14.2, "age_45_54": 13.1, "age_55_64": 11, "age_65p": 10.1, "pct_man": 52.2, "pct_kvinna": 47.8, "peak_hour": 9, "hourly_index": [9, 6, 6, 6, 5, 0, 14, 16, 74, 100, 41, 35, 42, 49, 30, 40, 36, 59, 64, 39, 27, 16, 11, 9]}, "geometry": {"type": "Polygon", "coordinates": [[[18.06299614, 59.33931366], [18.06490405, 59.3371806], [18.05005654, 59.33335591], [18.04488319, 59.33554275], [18.05518087, 59.33878149], [18.06299614, 59.33931366]]]}}, {"type": "Feature", "properties": {"zone_id": "0180R001", "zone_name": "Abrahamsberg", "car_pct": 33, "sustainable_pct": 67, "age_0_17": 12.8, "age_18_24": 3.7, "age_25_34": 30.2, "age_35_44": 16.5, "age_45_54": 14.1, "age_55_64": 8.8, "age_65p": 13.9, "pct_man": 40.5, "pct_kvinna": 59.5, "peak_hour": 9, "hourly_index": [28, 28, 0, 6, 30, 18, 0, 41, 97, 100, 43, 38, 62, 55, 37, 61, 69, 85, 76, 58, 52, 43, 51, 39]}, "geometry": {"type": "Polygon", "coordinates": [[[17.95584477, 59.32963858], [17.94557019, 59.32913663], [17.9429757, 59.33274308], [17.94852269, 59.33413019], [17.94805523, 59.33743325], [17.95359657, 59.33653518], [17.95479141, 59.33622706], [17.95418616, 59.33209706], [17.95584477, 59.32963858]]]}}, {"type": "Feature", "properties": {"zone_id": "0180R010", "zone_name": "Bredäng", "car_pct": 54.4, "sustainable_pct": 45.6, "age_0_17": 10.9, "age_18_24": 11.7, "age_25_34": 17.6, "age_35_44": 20.6, "age_45_54": 14.2, "age_55_64": 12.6, "age_65p": 12.4, "pct_man": 44.6, "pct_kvinna": 55.4, "peak_hour": 17, "hourly_index": [14, 16, 6, 8, 6, 12, 16, 31, 79, 52, 42, 56, 53, 47, 53, 62, 84, 100, 75, 47, 36, 49, 26, 21]}, "geometry": {"type": "Polygon", "coordinates": [[[17.9364394, 59.30362269], [17.9457559, 59.29397514], [17.94733221, 59.28759624], [17.93480941, 59.28463671], [17.93253014, 59.28746398], [17.92296181, 59.29052618], [17.92529284, 59.29371398], [17.91470653, 59.29608732], [17.9122897, 59.300041], [17.9364394, 59.30362269]]]}}, {"type": "Feature", "properties": {"zone_id": "0180R011", "zone_name": "Bromma kyrka", "car_pct": 39.4, "sustainable_pct": 60.6, "age_0_17": 26.1, "age_18_24": 4.6, "age_25_34": 7.9, "age_35_44": 13.2, "age_45_54": 22.3, "age_55_64": 13.5, "age_65p": 12.4, "pct_man": 47.6, "pct_kvinna": 52.4, "peak_hour": 9, "hourly_index": [29, 37, 25, 27, 0, 23, 48, 39, 86, 100, 54, 58, 82, 85, 44, 74, 95, 74, 86, 73, 87, 52, 58, 48]}, "geometry": {"type": "Polygon", "coordinates": [[[17.92134621, 59.35934693], [17.93360821, 59.35470132], [17.92374753, 59.34829008], [17.9101654, 59.35026928], [17.90366802, 59.35293744], [17.91150219, 59.35703358], [17.92134621, 59.35934693]]]}}, {"type": "Feature", "properties": {"zone_id": "0180R002", "zone_name": "Akalla", "car_pct": 65, "sustainable_pct": 35, "age_0_17": 16.6, "age_18_24": 7.3, "age_25_34": 27, "age_35_44": 17.6, "age_45_54": 15.8, "age_55_64": 8.6, "age_65p": 7.2, "pct_man": 56.3, "pct_kvinna": 43.7, "peak_hour": 17, "hourly_index": [21, 22, 17, 11, 34, 11, 20, 38, 64, 52, 59, 57, 81, 46, 49, 75, 92, 100, 70, 62, 54, 45, 42, 29]}, "geometry": {"type": "Polygon", "coordinates": [[[17.90439591, 59.43761797], [17.91056819, 59.43728211], [17.91980209, 59.43393009], [17.91508824, 59.42687472], [17.92416614, 59.42029189], [17.93490974, 59.41677378], [17.93057518, 59.41446694], [17.92546973, 59.41605632], [17.92261911, 59.41216874], [17.91455346, 59.40683481], [17.9101187, 59.4064495], [17.90730016, 59.40316471], [17.90858716, 59.39805745], [17.88910989, 59.400099], [17.87907048, 59.39731333], [17.8722402, 59.40142161], [17.87483902, 59.40348541], [17.88802181, 59.40615389], [17.89601413, 59.41156614], [17.89889952, 59.41572021], [17.89453707, 59.42268641], [17.8919114, 59.4236723], [17.89118522, 59.42541677], [17.89383837, 59.42662359], [17.88844923, 59.43019661], [17.89166739, 59.43510188], [17.89874581, 59.44005662], [17.90283835, 59.44008606], [17.90439591, 59.43761797]]]}}, {"type": "Feature", "properties": {"zone_id": "0180R003", "zone_name": "Alvik", "car_pct": 39.5, "sustainable_pct": 60.5, "age_0_17": 15.1, "age_18_24": 15.8, "age_25_34": 17.2, "age_35_44": 8, "age_45_54": 15.6, "age_55_64": 13.7, "age_65p": 14.6, "pct_man": 45.8, "pct_kvinna": 54.2, "peak_hour": 9, "hourly_index": [21, 24, 0, 0, 15, 9, 16, 33, 63, 100, 49, 43, 58, 72, 44, 55, 87, 69, 75, 51, 40, 26, 37, 35]}, "geometry": {"type": "Polygon", "coordinates": [[[17.97524519, 59.33635085], [17.97865101, 59.33534549], [17.97986813, 59.33335326], [17.98583085, 59.33264774], [17.9908474, 59.32961745], [17.98569769, 59.3254079], [17.98076287, 59.3258946], [17.97860601, 59.32869293], [17.97896934, 59.33084109], [17.97567638, 59.33036168], [17.96846383, 59.33410024], [17.97524519, 59.33635085]]]}}, {"type": "Feature", "properties": {"zone_id": "0180R004", "zone_name": "Aspudden", "car_pct": 27.4, "sustainable_pct": 72.6, "age_0_17": 11, "age_18_24": 5.5, "age_25_34": 23.3, "age_35_44": 16, "age_45_54": 18.2, "age_55_64": 13, "age_65p": 12.9, "pct_man": 46, "pct_kvinna": 54, "peak_hour": 17, "hourly_index": [10, 13, 12, 7, 7, 4, 10, 26, 73, 67, 55, 44, 51, 58, 42, 52, 87, 100, 77, 60, 29, 27, 28, 25]}, "geometry": {"type": "Polygon", "coordinates": [[[17.9939428, 59.31332499], [18.00716684, 59.31042683], [18.01395324, 59.30622488], [17.98958064, 59.30439444], [17.9878999, 59.30677773], [17.98310043, 59.30752271], [17.98022857, 59.31009661], [17.97478976, 59.30969874], [17.96920148, 59.31225553], [17.97591124, 59.31124103], [17.98433796, 59.31347075], [17.9939428, 59.31332499]]]}}, {"type": "Feature", "properties": {"zone_id": "0180R005", "zone_name": "Bagarmossen", "car_pct": 37.6, "sustainable_pct": 62.4, "age_0_17": 12.4, "age_18_24": 11.6, "age_25_34": 20.1, "age_35_44": 12.7, "age_45_54": 14.7, "age_55_64": 13.8, "age_65p": 14.8, "pct_man": 44.9, "pct_kvinna": 55.1, "peak_hour": 17, "hourly_index": [17, 15, 10, 10, 13, 6, 8, 16, 37, 57, 44, 30, 33, 43, 47, 44, 55, 100, 72, 62, 51, 40, 39, 24]}, "geometry": {"type": "Polygon", "coordinates": [[[18.13324364, 59.28391719], [18.15206995, 59.27378625], [18.15044808, 59.27020227], [18.13662832, 59.26912471], [18.12377848, 59.27144787], [18.12352241, 59.27481452], [18.1204444, 59.27950181], [18.12650741, 59.28305711], [18.13324364, 59.28391719]]]}}, {"type": "Feature", "properties": {"zone_id": "0180R006", "zone_name": "Bandhagen", "car_pct": 34.5, "sustainable_pct": 65.5, "age_0_17": 17.9, "age_18_24": 5.7, "age_25_34": 31.6, "age_35_44": 13, "age_45_54": 15.5, "age_55_64": 9.6, "age_65p": 6.8, "pct_man": 51.1, "pct_kvinna": 48.9, "peak_hour": 18, "hourly_index": [24, 23, 15, 16, 18, 13, 13, 40, 74, 68, 44, 39, 41, 54, 48, 47, 79, 91, 100, 92, 52, 45, 38, 21]}, "geometry": {"type": "Polygon", "coordinates": [[[18.05573548, 59.26937298], [18.063731, 59.26317001], [18.05140458, 59.26334917], [18.04788024, 59.26715507], [18.04409305, 59.26446152], [18.0377085, 59.26863546], [18.04421365, 59.27089879], [18.04479181, 59.27383352], [18.05573548, 59.26937298]]]}}, {"type": "Feature", "properties": {"zone_id": "0180R007", "zone_name": "Beckomberga", "car_pct": 36.7, "sustainable_pct": 63.3, "age_0_17": 18.3, "age_18_24": 3.6, "age_25_34": 8.6, "age_35_44": 18.6, "age_45_54": 17, "age_55_64": 18, "age_65p": 15.8, "pct_man": 46.3, "pct_kvinna": 53.7, "peak_hour": 17, "hourly_index": [19, 63, 21, 15, 18, 14, 18, 32, 82, 70, 49, 62, 65, 72, 72, 82, 90, 100, 64, 73, 45, 53, 47, 31]}, "geometry": {"type": "Polygon", "coordinates": [[[17.9046079, 59.36233276], [17.91065562, 59.35663277], [17.90366802, 59.35293744], [17.88897028, 59.35657529], [17.89358139, 59.35993409], [17.89761507, 59.35956049], [17.89724154, 59.36100558], [17.90002864, 59.36282014], [17.8986843, 59.36486404], [17.90097254, 59.36614607], [17.90434028, 59.36420692], [17.9046079, 59.36233276]]]}}, {"type": "Feature", "properties": {"zone_id": "0180R008", "zone_name": "Björkhagen", "car_pct": 36.5, "sustainable_pct": 63.5, "age_0_17": 17.5, "age_18_24": 6.8, "age_25_34": 16.3, "age_35_44": 13.4, "age_45_54": 21, "age_55_64": 11, "age_65p": 14, "pct_man": 44.5, "pct_kvinna": 55.5, "peak_hour": 18, "hourly_index": [18, 23, 24, 14, 16, 0, 18, 45, 88, 52, 45, 45, 47, 54, 44, 53, 72, 95, 100, 73, 42, 53, 35, 19]}, "geometry": {"type": "Polygon", "coordinates": [[[18.11540118, 59.30131927], [18.13013794, 59.30126626], [18.11934601, 59.29382879], [18.12464368, 59.28723741], [18.11871736, 59.28662252], [18.11096887, 59.28909354], [18.10739496, 59.29255054], [18.10495037, 59.30100762], [18.11017649, 59.30218115], [18.11540118, 59.30131927]]]}}, {"type": "Feature", "properties": {"zone_id": "0180R009", "zone_name": "Blackeberg", "car_pct": 46.2, "sustainable_pct": 53.8, "age_0_17": 15.3, "age_18_24": 3, "age_25_34": 24.5, "age_35_44": 16.4, "age_45_54": 17.3, "age_55_64": 10.5, "age_65p": 12.9, "pct_man": 49.1, "pct_kvinna": 50.9, "peak_hour": 8, "hourly_index": [9, 13, 8, 7, 6, 16, 14, 30, 100, 76, 46, 33, 38, 52, 43, 50, 57, 92, 68, 43, 29, 32, 24, 15]}, "geometry": {"type": "Polygon", "coordinates": [[[17.88350257, 59.3526543], [17.89369624, 59.34710676], [17.88673262, 59.34084149], [17.88887063, 59.33841078], [17.88882172, 59.33425738], [17.87824599, 59.33658255], [17.86398341, 59.34242153], [17.87477074, 59.35279225], [17.88350257, 59.3526543]]]}}, {"type": "Feature", "properties": {"zone_id": "0180R012", "zone_name": "Bromsten", "car_pct": 41.7, "sustainable_pct": 58.3, "age_0_17": 16.8, "age_18_24": 11.2, "age_25_34": 16.7, "age_35_44": 17.2, "age_45_54": 19, "age_55_64": 9.3, "age_65p": 9.8, "pct_man": 49, "pct_kvinna": 51, "peak_hour": 17, "hourly_index": [17, 17, 18, 10, 14, 10, 24, 40, 88, 81, 62, 54, 63, 69, 51, 99, 86, 100, 87, 72, 57, 48, 40, 39]}, "geometry": {"type": "Polygon", "coordinates": [[[17.92499293, 59.38344826], [17.93378343, 59.38208859], [17.93655612, 59.3835371], [17.93464427, 59.38055443], [17.92801374, 59.37703753], [17.92897834, 59.37553468], [17.92775146, 59.37444266], [17.94219725, 59.37039023], [17.94482849, 59.36793154], [17.93445788, 59.37038267], [17.93186223, 59.36834306], [17.92272831, 59.37010663], [17.91376832, 59.37527088], [17.9146039, 59.37598594], [17.90155044, 59.38190981], [17.90843348, 59.38769792], [17.92499293, 59.38344826]]]}}, {"type": "Feature", "properties": {"zone_id": "0180R013", "zone_name": "Bällsta", "car_pct": 43.4, "sustainable_pct": 56.6, "age_0_17": 19.2, "age_18_24": 5.7, "age_25_34": 12.8, "age_35_44": 19.3, "age_45_54": 15.8, "age_55_64": 10, "age_65p": 17.3, "pct_man": 46.4, "pct_kvinna": 53.6, "peak_hour": 8, "hourly_index": [27, 30, 9, 25, 14, 0, 19, 35, 100, 88, 64, 54, 50, 83, 52, 65, 91, 91, 79, 64, 58, 45, 41, 32]}, "geometry": {"type": "Polygon", "coordinates": [[[17.94482849, 59.36793154], [17.94636069, 59.36752785], [17.94359933, 59.36131617], [17.92134621, 59.35934693], [17.91683883, 59.36100228], [17.9256681, 59.36952168], [17.93186223, 59.36834306], [17.93445788, 59.37038267], [17.94482849, 59.36793154]]]}}, {"type": "Feature", "properties": {"zone_id": "0180R014", "zone_name": "Djurgården", "car_pct": 26.1, "sustainable_pct": 73.9, "age_0_17": 24.8, "age_18_24": 5.3, "age_25_34": 15.7, "age_35_44": 12, "age_45_54": 12.8, "age_55_64": 12, "age_65p": 17.4, "pct_man": 45.8, "pct_kvinna": 54.2, "peak_hour": 9, "hourly_index": [9, 9, 9, 0, 10, 4, 13, 31, 71, 100, 46, 49, 62, 68, 71, 65, 65, 81, 48, 41, 24, 26, 16, 13]}, "geometry": {"type": "Polygon", "coordinates": [[[18.12774931, 59.33039695], [18.1450146, 59.32669889], [18.16389291, 59.32533259], [18.16031665, 59.32084323], [18.14924658, 59.31865929], [18.13857275, 59.32023276], [18.12437032, 59.31804052], [18.10150699, 59.31756289], [18.09368425, 59.31871421], [18.09420284, 59.32139396], [18.08921386, 59.32648685], [18.08274998, 59.32977501], [18.09373241, 59.33114665], [18.12774931, 59.33039695]]]}}, {"type": "Feature", "properties": {"zone_id": "0180R015", "zone_name": "Eneby", "car_pct": 27.9, "sustainable_pct": 72.1, "age_0_17": 11, "age_18_24": null, "age_25_34": 1.9, "age_35_44": 44.5, "age_45_54": 20.2, "age_55_64": 15.2, "age_65p": 7.2, "pct_man": 60.2, "pct_kvinna": 39.8, "peak_hour": 10, "hourly_index": [78, 0, 0, 0, 0, 0, 0, 0, 73, 69, 100, 72, 74, 62, 95, 75, 75, 76, 66, 83, 67, 53, 62, 0]}, "geometry": {"type": "Polygon", "coordinates": [[[17.90591491, 59.36317605], [17.91697703, 59.36157722], [17.92134621, 59.35934693], [17.91065562, 59.35663277], [17.90379944, 59.36326802], [17.90591491, 59.36317605]]]}}, {"type": "Feature", "properties": {"zone_id": "0180R016", "zone_name": "Engelbrekts kyrka", "car_pct": 23, "sustainable_pct": 77, "age_0_17": 24, "age_18_24": 7.8, "age_25_34": 23.5, "age_35_44": 11.8, "age_45_54": 12.6, "age_55_64": 11.2, "age_65p": 9.2, "pct_man": 48.2, "pct_kvinna": 51.8, "peak_hour": 9, "hourly_index": [7, 4, 3, 4, 4, 6, 4, 18, 71, 100, 51, 43, 58, 62, 44, 49, 60, 81, 88, 52, 28, 23, 22, 14]}, "geometry": {"type": "Polygon", "coordinates": [[[18.07641845, 59.33647574], [18.073951, 59.33463259], [18.06896334, 59.3380443], [18.05769432, 59.35079496], [18.08041368, 59.34316395], [18.07516921, 59.33673075], [18.07641845, 59.33647574]]]}}, {"type": "Feature", "properties": {"zone_id": "0180R017", "zone_name": "Enskede Gård", "car_pct": 31.3, "sustainable_pct": 68.7, "age_0_17": 17.3, "age_18_24": 3, "age_25_34": 22.8, "age_35_44": 17.8, "age_45_54": 17.9, "age_55_64": 11.6, "age_65p": 9.6, "pct_man": 43.3, "pct_kvinna": 56.7, "peak_hour": 16, "hourly_index": [15, 15, 8, 15, 3, 19, 21, 25, 75, 85, 63, 38, 52, 52, 68, 70, 100, 98, 65, 58, 51, 37, 35, 26]}, "geometry": {"type": "Polygon", "coordinates": [[[18.07491251, 59.28987763], [18.08058493, 59.2867922], [18.07254064, 59.28342997], [18.0601088, 59.28956755], [18.06014727, 59.29352146], [18.06957093, 59.29609995], [18.07491251, 59.28987763]]]}}, {"type": "Feature", "properties": {"zone_id": "0180R018", "zone_name": "Enskededalen", "car_pct": 33.2, "sustainable_pct": 66.8, "age_0_17": 13.3, "age_18_24": 6.3, "age_25_34": 19.5, "age_35_44": 15.4, "age_45_54": 20.5, "age_55_64": 12.7, "age_65p": 12.3, "pct_man": 44.3, "pct_kvinna": 55.7, "peak_hour": 8, "hourly_index": [36, 30, 19, 14, 31, 18, 31, 31, 100, 97, 68, 60, 52, 77, 60, 55, 81, 90, 99, 80, 69, 65, 42, 24]}, "geometry": {"type": "Polygon", "coordinates": [[[18.10392848, 59.28570262], [18.11283574, 59.28218948], [18.1103339, 59.28074067], [18.11409706, 59.28118346], [18.11611145, 59.27968347], [18.11056384, 59.27655304], [18.09958811, 59.27941158], [18.09720735, 59.28414328], [18.10392848, 59.28570262]]]}}, {"type": "Feature", "properties": {"zone_id": "0180R019", "zone_name": "Enskedefältet", "car_pct": 34.5, "sustainable_pct": 65.5, "age_0_17": 18.2, "age_18_24": 7.2, "age_25_34": 11.7, "age_35_44": 16.4, "age_45_54": 21, "age_55_64": 14.3, "age_65p": 11.3, "pct_man": 44.8, "pct_kvinna": 55.2, "peak_hour": 17, "hourly_index": [23, 23, 21, 25, 16, 27, 36, 36, 87, 91, 78, 43, 73, 61, 50, 42, 64, 100, 85, 75, 43, 56, 37, 28]}, "geometry": {"type": "Polygon", "coordinates": [[[18.06013187, 59.29290989], [18.0601088, 59.28956755], [18.07254064, 59.28342997], [18.06906509, 59.27963316], [18.04386525, 59.28598085], [18.06013187, 59.29290989]]]}}, {"type": "Feature", "properties": {"zone_id": "0180R020", "zone_name": "Fagersjö", "car_pct": 41.8, "sustainable_pct": 58.2, "age_0_17": 18.5, "age_18_24": 3.5, "age_25_34": 13.8, "age_35_44": 24.7, "age_45_54": 17, "age_55_64": 5.7, "age_65p": 16.8, "pct_man": 45.4, "pct_kvinna": 54.6, "peak_hour": 17, "hourly_index": [33, 22, 22, 29, 0, 40, 28, 46, 53, 77, 48, 58, 59, 65, 50, 57, 83, 100, 62, 45, 47, 46, 35, 42]}, "geometry": {"type": "Polygon", "coordinates": [[[18.07167072, 59.25684967], [18.0725817, 59.25554794], [18.0706852, 59.25594385], [18.06889243, 59.25413354], [18.07420839, 59.25024216], [18.06778553, 59.24390766], [18.06186342, 59.24137245], [18.04502784, 59.25198485], [18.05815514, 59.25711976], [18.0633445, 59.25617743], [18.06353809, 59.25913005], [18.06799094, 59.26089856], [18.07333701, 59.25938081], [18.07167072, 59.25684967]]]}}, {"type": "Feature", "properties": {"zone_id": "0180R024", "zone_name": "Fruängen", "car_pct": 38.9, "sustainable_pct": 61.1, "age_0_17": 15.5, "age_18_24": 6, "age_25_34": 16.6, "age_35_44": 15.5, "age_45_54": 17.3, "age_55_64": 14.5, "age_65p": 14.6, "pct_man": 46, "pct_kvinna": 54, "peak_hour": 17, "hourly_index": [13, 13, 7, 7, 7, 10, 17, 34, 94, 77, 43, 58, 56, 67, 51, 65, 94, 100, 82, 68, 52, 37, 26, 20]}, "geometry": {"type": "Polygon", "coordinates": [[[17.98268796, 59.28944169], [17.97353585, 59.28366971], [17.96229855, 59.2821819], [17.96310703, 59.28139148], [17.95821743, 59.27999546], [17.94937677, 59.28509276], [17.94997177, 59.2861191], [17.94662516, 59.28654961], [17.95687377, 59.28942495], [17.98268796, 59.28944169]]]}}, {"type": "Feature", "properties": {"zone_id": "0180R025", "zone_name": "Gamla Enskede", "car_pct": 31.1, "sustainable_pct": 68.9, "age_0_17": 17.2, "age_18_24": 6.4, "age_25_34": 20.7, "age_35_44": 16.1, "age_45_54": 16, "age_55_64": 12.1, "age_65p": 11.6, "pct_man": 40.4, "pct_kvinna": 59.6, "peak_hour": 18, "hourly_index": [8, 10, 4, 9, 5, 5, 16, 34, 71, 92, 58, 37, 49, 53, 54, 79, 99, 99, 100, 71, 53, 53, 33, 18]}, "geometry": {"type": "Polygon", "coordinates": [[[18.10072242, 59.28968022], [18.10126178, 59.28589208], [18.09720735, 59.28414328], [18.09958811, 59.27941158], [18.11056384, 59.27655304], [18.11017199, 59.27200246], [18.10662302, 59.26781133], [18.09741642, 59.26630599], [18.0932861, 59.27549068], [18.07446774, 59.27912961], [18.06827276, 59.27823588], [18.07526086, 59.2853328], [18.10072242, 59.28968022]]]}}, {"type": "Feature", "properties": {"zone_id": "0180R026", "zone_name": "Grimsta", "car_pct": 44, "sustainable_pct": 56, "age_0_17": 11, "age_18_24": 6.7, "age_25_34": 23.7, "age_35_44": 19.5, "age_45_54": 15.7, "age_55_64": 10, "age_65p": 13.5, "pct_man": 55.8, "pct_kvinna": 44.2, "peak_hour": 16, "hourly_index": [21, 16, 15, 13, 20, 18, 29, 49, 72, 55, 42, 47, 62, 50, 66, 69, 100, 77, 47, 53, 51, 38, 22, 24]}, "geometry": {"type": "Polygon", "coordinates": [[[17.88183428, 59.35360621], [17.88129484, 59.35232681], [17.87477074, 59.35279225], [17.86398341, 59.34242153], [17.83939484, 59.35253133], [17.84244393, 59.35547887], [17.8401692, 59.35940696], [17.85982152, 59.36612625], [17.88183428, 59.35360621]]]}}, {"type": "Feature", "properties": {"zone_id": "0180R027", "zone_name": "Gröndal", "car_pct": 28.4, "sustainable_pct": 71.6, "age_0_17": 11.9, "age_18_24": 10.2, "age_25_34": 16.8, "age_35_44": 14.7, "age_45_54": 13.7, "age_55_64": 16.3, "age_65p": 16.3, "pct_man": 50.9, "pct_kvinna": 49.1, "peak_hour": 17, "hourly_index": [22, 16, 18, 14, 5, 19, 15, 26, 81, 93, 62, 44, 64, 79, 60, 82, 92, 100, 99, 75, 53, 46, 40, 32]}, "geometry": {"type": "Polygon", "coordinates": [[[18.01621272, 59.31469151], [18.01671719, 59.3117591], [18.011706, 59.31175742], [18.00938589, 59.31024088], [18.00279737, 59.31059182], [17.99288682, 59.3141132], [17.97591124, 59.31124103], [17.96920148, 59.31225553], [17.97690379, 59.31628048], [17.98175212, 59.31523744], [17.99483005, 59.31742674], [18.00294586, 59.32081198], [18.0099296, 59.32081274], [18.01795546, 59.31644422], [18.01621272, 59.31469151]]]}}, {"type": "Feature", "properties": {"zone_id": "0180R028", "zone_name": "Gubbängen", "car_pct": 31.2, "sustainable_pct": 68.8, "age_0_17": 15, "age_18_24": 11, "age_25_34": 16.5, "age_35_44": 19.3, "age_45_54": 14.9, "age_55_64": 8.8, "age_65p": 14.5, "pct_man": 43.2, "pct_kvinna": 56.8, "peak_hour": 17, "hourly_index": [14, 17, 10, 9, 11, 16, 17, 39, 64, 84, 67, 38, 48, 58, 70, 79, 81, 100, 84, 65, 47, 42, 32, 31]}, "geometry": {"type": "Polygon", "coordinates": [[[18.10376846, 59.26723032], [18.10926674, 59.26500035], [18.10683114, 59.26205647], [18.08173377, 59.25819453], [18.06951564, 59.26038659], [18.063731, 59.26317001], [18.06374878, 59.2645614], [18.0675886, 59.26448896], [18.07230593, 59.26737022], [18.07730364, 59.26780967], [18.0830352, 59.26395763], [18.08272054, 59.26524136], [18.08642201, 59.26640749], [18.10376846, 59.26723032]]]}}, {"type": "Feature", "properties": {"zone_id": "0180R029", "zone_name": "Gustav Vasa", "car_pct": 26.1, "sustainable_pct": 73.9, "age_0_17": 20.3, "age_18_24": 7.2, "age_25_34": 22.5, "age_35_44": 12.3, "age_45_54": 13.1, "age_55_64": 11.8, "age_65p": 12.8, "pct_man": 47.8, "pct_kvinna": 52.2, "peak_hour": 17, "hourly_index": [5, 5, 3, 3, 3, 3, 7, 19, 64, 85, 47, 37, 47, 61, 57, 64, 81, 100, 95, 69, 38, 32, 24, 14]}, "geometry": {"type": "Polygon", "coordinates": [[[18.0547819, 59.34466085], [18.05786554, 59.34459048], [18.06050785, 59.34213577], [18.04822612, 59.33896886], [18.05023199, 59.33699456], [18.04488319, 59.33554275], [18.03472232, 59.33715341], [18.0366128, 59.33937154], [18.04396779, 59.34121958], [18.04179306, 59.34344856], [18.05325901, 59.3464045], [18.0547819, 59.34466085]]]}}, {"type": "Feature", "properties": {"zone_id": "0180R030", "zone_name": "Gärdet", "car_pct": 26.2, "sustainable_pct": 73.8, "age_0_17": 22.1, "age_18_24": 9.3, "age_25_34": 19.1, "age_35_44": 12.4, "age_45_54": 11.5, "age_55_64": 12.3, "age_65p": 13.3, "pct_man": 51, "pct_kvinna": 49, "peak_hour": 17, "hourly_index": [9, 5, 3, 5, 4, 5, 12, 30, 86, 97, 44, 42, 50, 65, 56, 54, 68, 100, 98, 48, 37, 25, 22, 15]}, "geometry": {"type": "Polygon", "coordinates": [[[18.11471512, 59.34419198], [18.1261711, 59.34765756], [18.13813775, 59.34433065], [18.16055628, 59.33459701], [18.16035636, 59.32822562], [18.16387768, 59.325345], [18.1450146, 59.32669889], [18.1290349, 59.33026292], [18.10978333, 59.33130849], [18.10846029, 59.33635615], [18.07884773, 59.34355416], [18.0809338, 59.34536015], [18.09769361, 59.34998629], [18.11070571, 59.34667663], [18.11471512, 59.34419198]]]}}, {"type": "Feature", "properties": {"zone_id": "0180R046", "zone_name": "Kista", "car_pct": 55.7, "sustainable_pct": 44.3, "age_0_17": 12.2, "age_18_24": 11.5, "age_25_34": 26.9, "age_35_44": 14.7, "age_45_54": 15.7, "age_55_64": 10.6, "age_65p": 8.5, "pct_man": 50.8, "pct_kvinna": 49.2, "peak_hour": 8, "hourly_index": [6, 7, 7, 4, 8, 6, 10, 40, 100, 72, 50, 40, 52, 59, 52, 59, 65, 98, 79, 56, 45, 33, 25, 15]}, "geometry": {"type": "Polygon", "coordinates": [[[17.95946057, 59.40770107], [17.97615142, 59.39952716], [17.96909963, 59.40150222], [17.96530009, 59.39932657], [17.95535666, 59.3981239], [17.94695757, 59.3898593], [17.93977982, 59.38659267], [17.93885914, 59.3896872], [17.93238093, 59.39278103], [17.92120361, 59.3947683], [17.92403796, 59.40378373], [17.93293966, 59.40456608], [17.93803925, 59.40743246], [17.93057518, 59.41446694], [17.93490974, 59.41677378], [17.95946057, 59.40770107]]]}}, {"type": "Feature", "properties": {"zone_id": "0180R047", "zone_name": "Klara-Jacob", "car_pct": 27.8, "sustainable_pct": 72.2, "age_0_17": 17, "age_18_24": 10.4, "age_25_34": 25.2, "age_35_44": 12.9, "age_45_54": 11.9, "age_55_64": 12.1, "age_65p": 10.4, "pct_man": 47.6, "pct_kvinna": 52.4, "peak_hour": 9, "hourly_index": [8, 3, 2, 1, 2, 2, 10, 18, 58, 100, 45, 35, 46, 55, 48, 52, 65, 90, 94, 50, 32, 23, 20, 13]}, "geometry": {"type": "Polygon", "coordinates": [[[18.06493835, 59.33709291], [18.06542111, 59.33584043], [18.07217776, 59.3361921], [18.07725501, 59.33178652], [18.08921386, 59.32648685], [18.09420284, 59.32139396], [18.09368425, 59.31871421], [18.08452888, 59.3200783], [18.07447495, 59.32906947], [18.05741619, 59.32704408], [18.05235896, 59.32998383], [18.05005654, 59.33335591], [18.06493835, 59.33709291]]]}}, {"type": "Feature", "properties": {"zone_id": "0180R048", "zone_name": "Kristineberg", "car_pct": 33.5, "sustainable_pct": 66.5, "age_0_17": 20.8, "age_18_24": 3.9, "age_25_34": 25.2, "age_35_44": 15.3, "age_45_54": 12.8, "age_55_64": 11.4, "age_65p": 10.7, "pct_man": 48.7, "pct_kvinna": 51.3, "peak_hour": 9, "hourly_index": [11, 6, 7, 5, 18, 7, 9, 26, 94, 100, 45, 46, 40, 53, 37, 51, 67, 96, 82, 47, 33, 29, 31, 15]}, "geometry": {"type": "Polygon", "coordinates": [[[18.01433116, 59.33155294], [17.99495077, 59.33377441], [17.99356136, 59.33612751], [17.99823834, 59.34074602], [18.00125119, 59.34116224], [18.02008491, 59.33180984], [18.01433116, 59.33155294]]]}}, {"type": "Feature", "properties": {"zone_id": "0180R049", "zone_name": "Kungsholm", "car_pct": 25.1, "sustainable_pct": 74.9, "age_0_17": 21.2, "age_18_24": 7.7, "age_25_34": 20.7, "age_35_44": 12.1, "age_45_54": 12.4, "age_55_64": 13.6, "age_65p": 12.2, "pct_man": 50.6, "pct_kvinna": 49.4, "peak_hour": 9, "hourly_index": [6, 6, 6, 3, 5, 4, 7, 26, 69, 100, 49, 47, 52, 60, 48, 51, 70, 83, 66, 43, 29, 25, 23, 12]}, "geometry": {"type": "Polygon", "coordinates": [[[18.05005654, 59.33335591], [18.05235896, 59.32998383], [18.05677428, 59.32801375], [18.05691137, 59.32406517], [18.02538865, 59.32406037], [18.03078997, 59.33108321], [18.03245768, 59.33075015], [18.03526061, 59.33337497], [18.03690194, 59.33676121], [18.05005654, 59.33335591]]]}}, {"type": "Feature", "properties": {"zone_id": "0180R050", "zone_name": "Kälvesta", "car_pct": 43.9, "sustainable_pct": 56.1, "age_0_17": 13.3, "age_18_24": 4.7, "age_25_34": 13.4, "age_35_44": 23.7, "age_45_54": 27.6, "age_55_64": 10.6, "age_65p": 6.7, "pct_man": 59.8, "pct_kvinna": 40.2, "peak_hour": 8, "hourly_index": [29, 64, 38, 0, 29, 52, 32, 47, 100, 83, 49, 54, 56, 61, 40, 64, 89, 96, 79, 68, 53, 44, 50, 48]}, "geometry": {"type": "Polygon", "coordinates": [[[17.86758491, 59.38672988], [17.86638423, 59.37865389], [17.85282878, 59.38040997], [17.84305407, 59.37871123], [17.83887472, 59.38007267], [17.85095247, 59.38745852], [17.86758491, 59.38672988]]]}}, {"type": "Feature", "properties": {"zone_id": "0180R051", "zone_name": "Kärrtorp", "car_pct": 32.3, "sustainable_pct": 67.7, "age_0_17": 13.5, "age_18_24": 11.6, "age_25_34": 20, "age_35_44": 11.6, "age_45_54": 20, "age_55_64": 12.9, "age_65p": 10.5, "pct_man": 41.7, "pct_kvinna": 58.3, "peak_hour": 18, "hourly_index": [36, 23, 13, 14, 19, 0, 20, 29, 67, 64, 71, 35, 68, 48, 85, 62, 79, 94, 100, 57, 69, 46, 46, 32]}, "geometry": {"type": "Polygon", "coordinates": [[[18.11291711, 59.28843697], [18.11871736, 59.28662252], [18.12467375, 59.2877499], [18.13327019, 59.28386255], [18.11611131, 59.27968356], [18.11409706, 59.28118346], [18.1103339, 59.28074067], [18.11283574, 59.28218948], [18.11007769, 59.2843159], [18.10085795, 59.28570377], [18.10077665, 59.28998477], [18.10874618, 59.29093821], [18.11291711, 59.28843697]]]}}, {"type": "Feature", "properties": {"zone_id": "0180R052", "zone_name": "Larsboda", "car_pct": 43.3, "sustainable_pct": 56.7, "age_0_17": 21.5, "age_18_24": 5.4, "age_25_34": 12.7, "age_35_44": 20.6, "age_45_54": 17.8, "age_55_64": 11.8, "age_65p": 10.2, "pct_man": 47.6, "pct_kvinna": 52.4, "peak_hour": 18, "hourly_index": [21, 20, 25, 20, 0, 23, 34, 50, 84, 61, 43, 66, 71, 82, 58, 66, 69, 81, 100, 65, 46, 57, 33, 27]}, "geometry": {"type": "Polygon", "coordinates": [[[18.11212806, 59.24750089], [18.12958146, 59.24476299], [18.13367354, 59.24240113], [18.12735513, 59.24030337], [18.12369115, 59.24107547], [18.12190855, 59.23816865], [18.12408865, 59.23496116], [18.12074751, 59.23360401], [18.1122199, 59.23660506], [18.09814477, 59.23697378], [18.11085876, 59.24812587], [18.11212806, 59.24750089]]]}}, {"type": "Feature", "properties": {"zone_id": "0180R079", "zone_name": "Skärholmen", "car_pct": 62.5, "sustainable_pct": 37.5, "age_0_17": 8.5, "age_18_24": 10, "age_25_34": 21.1, "age_35_44": 21.3, "age_45_54": 17.1, "age_55_64": 12.4, "age_65p": 9.6, "pct_man": 49, "pct_kvinna": 51, "peak_hour": 17, "hourly_index": [13, 10, 11, 0, 3, 11, 11, 27, 63, 58, 52, 43, 53, 66, 67, 72, 78, 100, 78, 43, 27, 16, 17, 14]}, "geometry": {"type": "Polygon", "coordinates": [[[17.90706741, 59.28247696], [17.9193082, 59.27949542], [17.91528087, 59.27896043], [17.9082326, 59.26914261], [17.89386745, 59.26731776], [17.89196237, 59.27018367], [17.89612936, 59.27145456], [17.89374174, 59.27929944], [17.8877722, 59.27917655], [17.89179715, 59.28174154], [17.88687302, 59.28237536], [17.88532197, 59.28711425], [17.88989258, 59.28456131], [17.90706741, 59.28247696]]]}}, {"type": "Feature", "properties": {"zone_id": "0180R080", "zone_name": "Sköndal", "car_pct": 40.2, "sustainable_pct": 59.8, "age_0_17": 18.4, "age_18_24": 7.5, "age_25_34": 15.6, "age_35_44": 21.4, "age_45_54": 20, "age_55_64": 9.2, "age_65p": 8, "pct_man": 52, "pct_kvinna": 48, "peak_hour": 17, "hourly_index": [30, 15, 7, 8, 9, 15, 14, 42, 90, 63, 47, 45, 55, 60, 57, 68, 90, 100, 80, 55, 36, 36, 30, 18]}, "geometry": {"type": "Polygon", "coordinates": [[[18.12215637, 59.26454918], [18.12735138, 59.26269246], [18.12651707, 59.26105006], [18.13024117, 59.25812459], [18.13090932, 59.25406909], [18.13320647, 59.25138631], [18.12958146, 59.24476299], [18.11212806, 59.24750089], [18.10594068, 59.25163358], [18.10075963, 59.25121697], [18.10014075, 59.26032662], [18.10683114, 59.26205647], [18.10926674, 59.26500035], [18.11454566, 59.26461179], [18.12028274, 59.26658949], [18.12215637, 59.26454918]]]}}, {"type": "Feature", "properties": {"zone_id": "0180R081", "zone_name": "Smedslätten", "car_pct": 38.4, "sustainable_pct": 61.6, "age_0_17": 22.7, "age_18_24": 3.2, "age_25_34": 6.9, "age_35_44": 10.8, "age_45_54": 18.2, "age_55_64": 8.2, "age_65p": 30.1, "pct_man": 47, "pct_kvinna": 53, "peak_hour": 16, "hourly_index": [52, 0, 36, 25, 40, 49, 39, 52, 93, 93, 84, 68, 61, 57, 75, 84, 100, 81, 73, 58, 56, 47, 49, 39]}, "geometry": {"type": "Polygon", "coordinates": [[[17.96925935, 59.32493975], [17.97411016, 59.32444409], [17.97418469, 59.32253721], [17.97999174, 59.32127972], [17.97690379, 59.31628048], [17.96920148, 59.31225553], [17.95482636, 59.31070029], [17.96081211, 59.32501034], [17.96925935, 59.32493975]]]}}, {"type": "Feature", "properties": {"zone_id": "0180R082", "zone_name": "Solberga", "car_pct": 32.9, "sustainable_pct": 67.1, "age_0_17": 11.4, "age_18_24": 10.3, "age_25_34": 23.6, "age_35_44": 19.3, "age_45_54": 15.8, "age_55_64": 9.8, "age_65p": 9.8, "pct_man": 52, "pct_kvinna": 48, "peak_hour": 17, "hourly_index": [13, 14, 6, 10, 6, 7, 8, 27, 83, 52, 45, 39, 54, 71, 55, 64, 97, 100, 93, 59, 45, 41, 30, 18]}, "geometry": {"type": "Polygon", "coordinates": [[[18.0094118, 59.28921145], [18.01772004, 59.28928321], [18.01912772, 59.28726034], [18.01710913, 59.28171869], [18.0078209, 59.2770908], [17.98268796, 59.28944169], [17.99451869, 59.29115132], [17.99972556, 59.29408895], [18.0094118, 59.28921145]]]}}, {"type": "Feature", "properties": {"zone_id": "0180R083", "zone_name": "Solhem-Lunda", "car_pct": 46.1, "sustainable_pct": 53.9, "age_0_17": 17.3, "age_18_24": 10.2, "age_25_34": 16.4, "age_35_44": 19.4, "age_45_54": 20.6, "age_55_64": 8.6, "age_65p": 7.6, "pct_man": 52.9, "pct_kvinna": 47.1, "peak_hour": 8, "hourly_index": [10, 11, 6, 6, 7, 7, 14, 40, 100, 81, 44, 51, 55, 46, 45, 69, 84, 88, 79, 63, 46, 38, 31, 20]}, "geometry": {"type": "Polygon", "coordinates": [[[17.87907048, 59.39731333], [17.88649466, 59.39148641], [17.88826548, 59.3927273], [17.89268503, 59.39214098], [17.90848931, 59.38830021], [17.90155044, 59.38190981], [17.90853787, 59.37728591], [17.8995556, 59.37281314], [17.8947507, 59.37512591], [17.88358695, 59.37553979], [17.88286974, 59.37771202], [17.87849324, 59.37893124], [17.86638423, 59.37865389], [17.86742169, 59.38759141], [17.85095247, 59.38745852], [17.86138227, 59.38974388], [17.86742646, 59.39339882], [17.86937421, 59.39641915], [17.87214022, 59.39559465], [17.87748721, 59.39850987], [17.87907048, 59.39731333]]]}}, {"type": "Feature", "properties": {"zone_id": "0180R084", "zone_name": "Stadshagen", "car_pct": 33.3, "sustainable_pct": 66.7, "age_0_17": 17.4, "age_18_24": 6.4, "age_25_34": 20.9, "age_35_44": 19.5, "age_45_54": 14.1, "age_55_64": 11.6, "age_65p": 10.1, "pct_man": 48.7, "pct_kvinna": 51.3, "peak_hour": 9, "hourly_index": [10, 27, 6, 0, 0, 8, 13, 41, 80, 100, 52, 53, 53, 59, 43, 56, 66, 97, 67, 45, 34, 24, 16, 16]}, "geometry": {"type": "Polygon", "coordinates": [[[18.02561582, 59.33539274], [18.02358367, 59.33187718], [18.02008491, 59.33180984], [18.00125119, 59.34116224], [18.0208054, 59.3396114], [18.02561582, 59.33539274]]]}}, {"type": "Feature", "properties": {"zone_id": "0180R085", "zone_name": "Stora Essingen", "car_pct": 29.1, "sustainable_pct": 70.9, "age_0_17": 14.3, "age_18_24": 4.3, "age_25_34": 20.9, "age_35_44": 12, "age_45_54": 19.4, "age_55_64": 13.8, "age_65p": 15.4, "pct_man": 50.4, "pct_kvinna": 49.6, "peak_hour": 9, "hourly_index": [16, 28, 15, 28, 19, 21, 15, 23, 85, 100, 46, 55, 58, 71, 45, 73, 72, 90, 99, 37, 29, 44, 29, 24]}, "geometry": {"type": "Polygon", "coordinates": [[[17.98509598, 59.31599042], [17.97690379, 59.31628048], [17.97794106, 59.31965261], [17.99100262, 59.32974837], [17.99678821, 59.32727579], [17.99860218, 59.32382092], [18.00294586, 59.32081198], [17.99483005, 59.31742674], [17.98509598, 59.31599042]]]}}, {"type": "Feature", "properties": {"zone_id": "0180R114", "zone_name": "Västra Matteus", "car_pct": 27.9, "sustainable_pct": 72.1, "age_0_17": 17.7, "age_18_24": 8.2, "age_25_34": 22.7, "age_35_44": 15.9, "age_45_54": 11.2, "age_55_64": 12.6, "age_65p": 11.7, "pct_man": 50.2, "pct_kvinna": 49.8, "peak_hour": 17, "hourly_index": [6, 4, 3, 0, 3, 3, 6, 26, 67, 90, 51, 38, 45, 51, 43, 53, 70, 100, 94, 56, 28, 23, 21, 11]}, "geometry": {"type": "Polygon", "coordinates": [[[18.04092435, 59.35093093], [18.04316251, 59.34953407], [18.04025296, 59.34718627], [18.03763096, 59.34120299], [18.03891463, 59.33987453], [18.03472232, 59.33715341], [18.02477237, 59.33936463], [18.02535139, 59.34438593], [18.03029459, 59.34796713], [18.04092435, 59.35093093]]]}}, {"type": "Feature", "properties": {"zone_id": "0180R115", "zone_name": "Åkeslund", "car_pct": 31.3, "sustainable_pct": 68.7, "age_0_17": 16.4, "age_18_24": 1.1, "age_25_34": 29, "age_35_44": 15.5, "age_45_54": 16.2, "age_55_64": 10.5, "age_65p": 11.3, "pct_man": 43.2, "pct_kvinna": 56.8, "peak_hour": 8, "hourly_index": [58, 50, 58, 0, 0, 0, 61, 65, 100, 80, 82, 57, 63, 53, 92, 39, 80, 70, 52, 72, 46, 35, 57, 51]}, "geometry": {"type": "Polygon", "coordinates": [[[17.94043377, 59.33802668], [17.94805523, 59.33743325], [17.94852269, 59.33413019], [17.93716083, 59.33259403], [17.93010687, 59.33551988], [17.93724412, 59.33863516], [17.94043377, 59.33802668]]]}}, {"type": "Feature", "properties": {"zone_id": "0180R116", "zone_name": "Ålsten", "car_pct": 39.5, "sustainable_pct": 60.5, "age_0_17": 16.5, "age_18_24": 1.3, "age_25_34": 8.8, "age_35_44": 18.8, "age_45_54": 23.1, "age_55_64": 11.6, "age_65p": 19.8, "pct_man": 53.9, "pct_kvinna": 46.1, "peak_hour": 8, "hourly_index": [24, 25, 24, 24, 42, 30, 62, 41, 100, 90, 73, 78, 66, 89, 55, 63, 83, 93, 100, 72, 60, 67, 70, 34]}, "geometry": {"type": "Polygon", "coordinates": [[[17.95753154, 59.31775492], [17.95482612, 59.31070084], [17.93956528, 59.31815662], [17.94377168, 59.32070587], [17.93974014, 59.32730192], [17.94557019, 59.32913663], [17.96097805, 59.3281457], [17.96062347, 59.32332777], [17.95861959, 59.32221436], [17.95753154, 59.31775492]]]}}, {"type": "Feature", "properties": {"zone_id": "0180R117", "zone_name": "Årsta", "car_pct": 28.7, "sustainable_pct": 71.3, "age_0_17": 17.6, "age_18_24": 5.2, "age_25_34": 16.6, "age_35_44": 18.3, "age_45_54": 18.2, "age_55_64": 12.3, "age_65p": 11.7, "pct_man": 48.9, "pct_kvinna": 51.1, "peak_hour": 18, "hourly_index": [9, 6, 5, 3, 3, 4, 10, 23, 80, 88, 41, 41, 48, 46, 45, 69, 78, 97, 100, 65, 45, 34, 33, 18]}, "geometry": {"type": "Polygon", "coordinates": [[[18.04242702, 59.30920484], [18.06455314, 59.30362722], [18.0788852, 59.3033051], [18.08090144, 59.30130953], [18.07994962, 59.2997717], [18.05630859, 59.29154792], [18.03054252, 59.29782798], [18.0280265, 59.29968693], [18.03858188, 59.30504545], [18.038324, 59.31089045], [18.04242702, 59.30920484]]]}}, {"type": "Feature", "properties": {"zone_id": "0180R118", "zone_name": "Älvsjö", "car_pct": 40.7, "sustainable_pct": 59.3, "age_0_17": 11.4, "age_18_24": 7.4, "age_25_34": 25.1, "age_35_44": 15.8, "age_45_54": 15.2, "age_55_64": 13.7, "age_65p": 11.4, "pct_man": 51.3, "pct_kvinna": 48.7, "peak_hour": 8, "hourly_index": [24, 13, 15, 5, 28, 11, 17, 27, 100, 72, 47, 47, 51, 58, 59, 59, 85, 91, 73, 42, 35, 48, 24, 20]}, "geometry": {"type": "Polygon", "coordinates": [[[18.021092, 59.27854229], [18.01333759, 59.27291802], [18.01435304, 59.27220656], [17.99780468, 59.26444878], [17.99845249, 59.25985031], [17.98666026, 59.26222394], [17.99215013, 59.27230448], [17.99116118, 59.27276727], [18.00044299, 59.27645947], [18.00340284, 59.27952429], [18.0078209, 59.2770908], [18.01979, 59.28260857], [18.021092, 59.27854229]]]}}, {"type": "Feature", "properties": {"zone_id": "0180R119", "zone_name": "Äppelviken", "car_pct": 32.3, "sustainable_pct": 67.7, "age_0_17": 17.8, "age_18_24": 3.7, "age_25_34": 11.1, "age_35_44": 13.6, "age_45_54": 17.2, "age_55_64": 12.7, "age_65p": 23.9, "pct_man": 41.8, "pct_kvinna": 58.2, "peak_hour": 8, "hourly_index": [22, 25, 17, 30, 22, 0, 0, 35, 100, 75, 58, 38, 55, 52, 62, 71, 83, 79, 88, 64, 47, 50, 33, 36]}, "geometry": {"type": "Polygon", "coordinates": [[[17.97345918, 59.33169669], [17.97896934, 59.33084109], [17.97993801, 59.32675179], [17.98569769, 59.3254079], [17.98508157, 59.32423593], [17.97999174, 59.32127972], [17.97418469, 59.32253721], [17.97411016, 59.32444409], [17.96081211, 59.32501034], [17.96097805, 59.3281457], [17.96884694, 59.32871459], [17.97057499, 59.3307888], [17.9695651, 59.33174492], [17.97345918, 59.33169669]]]}}, {"type": "Feature", "properties": {"zone_id": "0180R120", "zone_name": "Örby", "car_pct": 36.8, "sustainable_pct": 63.2, "age_0_17": 13.2, "age_18_24": 8.2, "age_25_34": 22.3, "age_35_44": 16.9, "age_45_54": 18.8, "age_55_64": 11.1, "age_65p": 9.6, "pct_man": 47.9, "pct_kvinna": 52.1, "peak_hour": 8, "hourly_index": [27, 20, 13, 12, 10, 16, 19, 51, 100, 74, 53, 48, 50, 54, 66, 79, 82, 96, 81, 86, 54, 52, 42, 22]}, "geometry": {"type": "Polygon", "coordinates": [[[18.04365239, 59.27066512], [18.02938839, 59.26670996], [18.02667262, 59.26533414], [18.02840024, 59.26426252], [18.0270968, 59.26372962], [18.02123213, 59.2672858], [18.01567706, 59.27431246], [18.03724647, 59.2806283], [18.04045921, 59.27624862], [18.04479181, 59.27383352], [18.04365239, 59.27066512]]]}}, {"type": "Feature", "properties": {"zone_id": "0180R121", "zone_name": "Örby Slott", "car_pct": 35.5, "sustainable_pct": 64.5, "age_0_17": 10.1, "age_18_24": 4.2, "age_25_34": 19.1, "age_35_44": 13.2, "age_45_54": 17.5, "age_55_64": 20.4, "age_65p": 15.5, "pct_man": 54.7, "pct_kvinna": 45.3, "peak_hour": 8, "hourly_index": [26, 13, 19, 22, 33, 43, 38, 40, 100, 93, 80, 46, 58, 65, 66, 76, 75, 79, 84, 62, 77, 60, 29, 36]}, "geometry": {"type": "Polygon", "coordinates": [[[18.04035882, 59.28200256], [18.03116066, 59.2781676], [18.0180614, 59.27512084], [18.02142651, 59.27755477], [18.01979, 59.28260857], [18.03492736, 59.28524229], [18.04035882, 59.28200256]]]}}]}